<?xml version="1.0" encoding="UTF-8"?>
<kml xmlns="http://www.opengis.net/kml/2.2" xmlns:gx="http://www.google.com/kml/ext/2.2" xmlns:kml="http://www.opengis.net/kml/2.2" xmlns:atom="http://www.w3.org/2005/Atom">
<Document>
	<name>GPS-60 30-11-2024 GRUPO 01</name>
	<visibility>0</visibility>
	<snippet>Created jue. Mar. 13 16:46:53 2025</snippet>
	<LookAt>
		<gx:TimeSpan>
			<begin>2024-11-30T13:38:37Z</begin>
			<end>2024-11-30T17:53:38Z</end>
		</gx:TimeSpan>
		<longitude>-71.638271</longitude>
		<latitude>-16.315835</latitude>
		<altitude>0</altitude>
		<heading>0</heading>
		<tilt>0</tilt>
		<range>2057.090861</range>
	</LookAt>
	<atom:link rel="app" href="https://www.google.com/earth/about/versions/#earth-pro" title="Google Earth Pro 7.3.6.10441"></atom:link>
	<StyleMap id="multiTrack20144">
		<Pair>
			<key>normal</key>
			<styleUrl>#multiTrack_n20144</styleUrl>
		</Pair>
		<Pair>
			<key>highlight</key>
			<styleUrl>#multiTrack_h20144</styleUrl>
		</Pair>
	</StyleMap>
	<Style id="multiTrack_h20144">
		<IconStyle>
			<scale>1.2</scale>
			<Icon>
				<href>https://earth.google.com/images/kml-icons/track-directional/track-0.png</href>
			</Icon>
		</IconStyle>
		<LineStyle>
			<color>99ffac59</color>
			<width>8</width>
		</LineStyle>
	</Style>
	<Style id="multiTrack_n20144">
		<IconStyle>
			<Icon>
				<href>https://earth.google.com/images/kml-icons/track-directional/track-0.png</href>
			</Icon>
		</IconStyle>
		<LineStyle>
			<color>99ffac59</color>
			<width>6</width>
		</LineStyle>
	</Style>
	<Folder>
		<name>Tracks</name>
		<visibility>0</visibility>
		<Placemark>
			<name>GT-60 30-11-2024 GRUPO 01</name>
			<visibility>0</visibility>
			<styleUrl>#multiTrack20144</styleUrl>
			<gx:Track>
				<when>2024-11-30T13:38:37Z</when>
				<when>2024-11-30T13:39:13.75Z</when>
				<when>2024-11-30T13:39:52.471Z</when>
				<when>2024-11-30T13:40:30.214Z</when>
				<when>2024-11-30T13:41:12.98Z</when>
				<when>2024-11-30T13:41:51.679Z</when>
				<when>2024-11-30T13:42:32.422Z</when>
				<when>2024-11-30T13:43:09.161Z</when>
				<when>2024-11-30T13:43:48.025Z</when>
				<when>2024-11-30T13:43:48.025Z</when>
				<when>2024-11-30T13:44:05.647Z</when>
				<when>2024-11-30T13:44:42.594Z</when>
				<when>2024-11-30T13:44:42.594Z</when>
				<when>2024-11-30T13:46:18.873Z</when>
				<when>2024-11-30T13:47:23Z</when>
				<when>2024-11-30T13:48:19Z</when>
				<when>2024-11-30T13:49:10.694Z</when>
				<when>2024-11-30T13:53:32.433Z</when>
				<when>2024-11-30T13:53:32.433Z</when>
				<when>2024-11-30T13:54:31.961Z</when>
				<when>2024-11-30T13:55:46.114Z</when>
				<when>2024-11-30T13:55:46.114Z</when>
				<when>2024-11-30T13:55:59.089Z</when>
				<when>2024-11-30T13:56:37.893Z</when>
				<when>2024-11-30T13:57:13.593Z</when>
				<when>2024-11-30T13:57:49.342Z</when>
				<when>2024-11-30T13:58:24.095Z</when>
				<when>2024-11-30T13:58:58.891Z</when>
				<when>2024-11-30T13:59:34.641Z</when>
				<when>2024-11-30T14:00:10.392Z</when>
				<when>2024-11-30T14:00:23.136Z</when>
				<when>2024-11-30T14:00:23.136Z</when>
				<when>2024-11-30T14:01:37.186Z</when>
				<when>2024-11-30T14:02:49.612Z</when>
				<when>2024-11-30T14:02:49.612Z</when>
				<when>2024-11-30T14:06:48.086Z</when>
				<when>2024-11-30T14:07:23.896Z</when>
				<when>2024-11-30T14:08:00.687Z</when>
				<when>2024-11-30T14:08:36.441Z</when>
				<when>2024-11-30T14:09:18.248Z</when>
				<when>2024-11-30T14:09:53.941Z</when>
				<when>2024-11-30T14:10:30.735Z</when>
				<when>2024-11-30T14:11:07.555Z</when>
				<when>2024-11-30T14:11:45.341Z</when>
				<when>2024-11-30T14:12:21.09Z</when>
				<when>2024-11-30T14:12:59.89Z</when>
				<when>2024-11-30T14:13:36.638Z</when>
				<when>2024-11-30T14:14:15.389Z</when>
				<when>2024-11-30T14:14:51.122Z</when>
				<when>2024-11-30T14:15:26.93Z</when>
				<when>2024-11-30T14:16:01.733Z</when>
				<when>2024-11-30T14:16:37.526Z</when>
				<when>2024-11-30T14:17:13.28Z</when>
				<when>2024-11-30T14:17:53.033Z</when>
				<when>2024-11-30T14:18:27.825Z</when>
				<when>2024-11-30T14:19:02.586Z</when>
				<when>2024-11-30T14:19:39.376Z</when>
				<when>2024-11-30T14:20:17.184Z</when>
				<when>2024-11-30T14:20:52.976Z</when>
				<when>2024-11-30T14:21:28.775Z</when>
				<when>2024-11-30T14:22:03.582Z</when>
				<when>2024-11-30T14:22:39.329Z</when>
				<when>2024-11-30T14:23:16.13Z</when>
				<when>2024-11-30T14:23:50.926Z</when>
				<when>2024-11-30T14:24:27.728Z</when>
				<when>2024-11-30T14:25:03.472Z</when>
				<when>2024-11-30T14:25:40.222Z</when>
				<when>2024-11-30T14:26:18.933Z</when>
				<when>2024-11-30T14:26:54.666Z</when>
				<when>2024-11-30T14:27:31.486Z</when>
				<when>2024-11-30T14:28:08.222Z</when>
				<when>2024-11-30T14:28:44.024Z</when>
				<when>2024-11-30T14:29:20.771Z</when>
				<when>2024-11-30T14:29:56.565Z</when>
				<when>2024-11-30T14:30:33.368Z</when>
				<when>2024-11-30T14:31:09.171Z</when>
				<when>2024-11-30T14:31:46.976Z</when>
				<when>2024-11-30T14:32:23.773Z</when>
				<when>2024-11-30T14:32:58.466Z</when>
				<when>2024-11-30T14:33:35.271Z</when>
				<when>2024-11-30T14:34:11.023Z</when>
				<when>2024-11-30T14:34:46.766Z</when>
				<when>2024-11-30T14:35:24.573Z</when>
				<when>2024-11-30T14:36:03.373Z</when>
				<when>2024-11-30T14:36:40.164Z</when>
				<when>2024-11-30T14:37:15.911Z</when>
				<when>2024-11-30T14:37:51.71Z</when>
				<when>2024-11-30T14:38:28.537Z</when>
				<when>2024-11-30T14:39:03.309Z</when>
				<when>2024-11-30T14:39:46.109Z</when>
				<when>2024-11-30T14:40:22.822Z</when>
				<when>2024-11-30T14:41:00.569Z</when>
				<when>2024-11-30T14:41:40.358Z</when>
				<when>2024-11-30T14:42:19.119Z</when>
				<when>2024-11-30T14:42:58.915Z</when>
				<when>2024-11-30T14:43:37.612Z</when>
				<when>2024-11-30T14:44:13.415Z</when>
				<when>2024-11-30T14:44:51.211Z</when>
				<when>2024-11-30T14:45:28.007Z</when>
				<when>2024-11-30T14:46:35.017Z</when>
				<when>2024-11-30T14:46:39.138Z</when>
				<when>2024-11-30T14:47:38.389Z</when>
				<when>2024-11-30T14:47:38.389Z</when>
				<when>2024-11-30T14:51:49.758Z</when>
				<when>2024-11-30T14:52:26.549Z</when>
				<when>2024-11-30T14:53:01.348Z</when>
				<when>2024-11-30T14:53:36.041Z</when>
				<when>2024-11-30T14:54:12.85Z</when>
				<when>2024-11-30T14:54:50.654Z</when>
				<when>2024-11-30T14:55:29.453Z</when>
				<when>2024-11-30T14:56:06.198Z</when>
				<when>2024-11-30T14:56:42.003Z</when>
				<when>2024-11-30T14:57:16.791Z</when>
				<when>2024-11-30T14:57:51.535Z</when>
				<when>2024-11-30T14:58:26.347Z</when>
				<when>2024-11-30T14:59:07.145Z</when>
				<when>2024-11-30T14:59:51Z</when>
				<when>2024-11-30T15:00:28.792Z</when>
				<when>2024-11-30T15:01:06.03Z</when>
				<when>2024-11-30T15:01:06.03Z</when>
				<when>2024-11-30T15:01:31.299Z</when>
				<when>2024-11-30T15:02:25.47Z</when>
				<when>2024-11-30T15:02:46.747Z</when>
				<when>2024-11-30T15:03:07.55Z</when>
				<when>2024-11-30T15:04:22.118Z</when>
				<when>2024-11-30T15:04:22.118Z</when>
				<when>2024-11-30T15:07:15.334Z</when>
				<when>2024-11-30T15:07:48.652Z</when>
				<when>2024-11-30T15:07:48.652Z</when>
				<when>2024-11-30T15:08:38.401Z</when>
				<when>2024-11-30T15:09:46.932Z</when>
				<when>2024-11-30T15:09:47.293Z</when>
				<when>2024-11-30T15:11:46.941Z</when>
				<when>2024-11-30T15:12:26.875Z</when>
				<when>2024-11-30T15:12:28.187Z</when>
				<when>2024-11-30T15:12:30.839Z</when>
				<when>2024-11-30T15:12:30.839Z</when>
				<when>2024-11-30T15:16:04.77Z</when>
				<when>2024-11-30T15:16:41.535Z</when>
				<when>2024-11-30T15:17:16.334Z</when>
				<when>2024-11-30T15:17:53.083Z</when>
				<when>2024-11-30T15:18:27.833Z</when>
				<when>2024-11-30T15:19:02.578Z</when>
				<when>2024-11-30T15:19:37.376Z</when>
				<when>2024-11-30T15:20:14.136Z</when>
				<when>2024-11-30T15:20:48.928Z</when>
				<when>2024-11-30T15:21:25.737Z</when>
				<when>2024-11-30T15:22:01.483Z</when>
				<when>2024-11-30T15:22:36.227Z</when>
				<when>2024-11-30T15:23:11.02Z</when>
				<when>2024-11-30T15:23:49.82Z</when>
				<when>2024-11-30T15:24:24.632Z</when>
				<when>2024-11-30T15:25:00.385Z</when>
				<when>2024-11-30T15:25:36.167Z</when>
				<when>2024-11-30T15:26:11.98Z</when>
				<when>2024-11-30T15:26:46.725Z</when>
				<when>2024-11-30T15:27:21.536Z</when>
				<when>2024-11-30T15:27:58.305Z</when>
				<when>2024-11-30T15:28:44.957Z</when>
				<when>2024-11-30T15:28:45.395Z</when>
				<when>2024-11-30T15:29:10.429Z</when>
				<when>2024-11-30T15:31:25.334Z</when>
				<when>2024-11-30T15:34:23.557Z</when>
				<when>2024-11-30T15:35:11.01Z</when>
				<when>2024-11-30T15:36:03.703Z</when>
				<when>2024-11-30T15:36:04.227Z</when>
				<when>2024-11-30T15:37:17.137Z</when>
				<when>2024-11-30T15:38:37.127Z</when>
				<when>2024-11-30T15:38:37.127Z</when>
				<when>2024-11-30T15:39:47.524Z</when>
				<when>2024-11-30T15:40:23.285Z</when>
				<when>2024-11-30T15:40:59.038Z</when>
				<when>2024-11-30T15:41:37.866Z</when>
				<when>2024-11-30T15:42:13.617Z</when>
				<when>2024-11-30T15:42:48.412Z</when>
				<when>2024-11-30T15:43:26.184Z</when>
				<when>2024-11-30T15:44:05.838Z</when>
				<when>2024-11-30T15:44:42.679Z</when>
				<when>2024-11-30T15:45:19.442Z</when>
				<when>2024-11-30T15:45:55.264Z</when>
				<when>2024-11-30T15:46:30.04Z</when>
				<when>2024-11-30T15:47:05.813Z</when>
				<when>2024-11-30T15:47:42.464Z</when>
				<when>2024-11-30T15:48:19.241Z</when>
				<when>2024-11-30T15:48:56.935Z</when>
				<when>2024-11-30T15:49:32.689Z</when>
				<when>2024-11-30T15:50:08.462Z</when>
				<when>2024-11-30T15:50:50.219Z</when>
				<when>2024-11-30T15:51:30.925Z</when>
				<when>2024-11-30T15:51:51.991Z</when>
				<when>2024-11-30T15:51:52.106Z</when>
				<when>2024-11-30T15:52:18.732Z</when>
				<when>2024-11-30T15:52:26.022Z</when>
				<when>2024-11-30T15:52:26.022Z</when>
				<when>2024-11-30T15:54:43.52Z</when>
				<when>2024-11-30T15:55:18.216Z</when>
				<when>2024-11-30T15:55:52.913Z</when>
				<when>2024-11-30T15:56:29.634Z</when>
				<when>2024-11-30T15:57:07.389Z</when>
				<when>2024-11-30T15:58:00Z</when>
				<when>2024-11-30T15:58:38Z</when>
				<when>2024-11-30T15:59:17Z</when>
				<when>2024-11-30T15:59:56Z</when>
				<when>2024-11-30T16:00:35.703Z</when>
				<when>2024-11-30T16:01:19.403Z</when>
				<when>2024-11-30T16:02:07Z</when>
				<when>2024-11-30T16:02:42Z</when>
				<when>2024-11-30T16:03:25Z</when>
				<when>2024-11-30T16:04:22Z</when>
				<when>2024-11-30T16:04:40.268Z</when>
				<when>2024-11-30T16:04:40.268Z</when>
				<when>2024-11-30T16:04:46Z</when>
				<when>2024-11-30T16:05:05.207Z</when>
				<when>2024-11-30T16:05:05.207Z</when>
				<when>2024-11-30T16:08:43Z</when>
				<when>2024-11-30T16:09:31Z</when>
				<when>2024-11-30T16:10:06Z</when>
				<when>2024-11-30T16:10:42Z</when>
				<when>2024-11-30T16:11:17Z</when>
				<when>2024-11-30T16:11:53Z</when>
				<when>2024-11-30T16:12:34Z</when>
				<when>2024-11-30T16:13:17Z</when>
				<when>2024-11-30T16:13:18.857Z</when>
				<when>2024-11-30T16:13:18.857Z</when>
				<when>2024-11-30T16:13:23.908Z</when>
				<when>2024-11-30T16:13:30.155Z</when>
				<when>2024-11-30T16:13:36.402Z</when>
				<when>2024-11-30T16:13:42.649Z</when>
				<when>2024-11-30T16:13:48.896Z</when>
				<when>2024-11-30T16:13:55.143Z</when>
				<when>2024-11-30T16:14:01.39Z</when>
				<when>2024-11-30T16:14:07.637Z</when>
				<when>2024-11-30T16:14:10.566Z</when>
				<when>2024-11-30T16:14:10.566Z</when>
				<when>2024-11-30T16:21:13Z</when>
				<when>2024-11-30T16:22:17Z</when>
				<when>2024-11-30T16:23:21Z</when>
				<when>2024-11-30T16:24:05.704Z</when>
				<when>2024-11-30T16:25:04Z</when>
				<when>2024-11-30T16:26:09Z</when>
				<when>2024-11-30T16:27:38Z</when>
				<when>2024-11-30T16:28:59Z</when>
				<when>2024-11-30T16:30:18Z</when>
				<when>2024-11-30T16:31:31Z</when>
				<when>2024-11-30T16:32:38Z</when>
				<when>2024-11-30T16:33:37Z</when>
				<when>2024-11-30T16:34:17Z</when>
				<when>2024-11-30T16:34:52Z</when>
				<when>2024-11-30T16:35:36Z</when>
				<when>2024-11-30T16:36:27Z</when>
				<when>2024-11-30T16:37:15Z</when>
				<when>2024-11-30T16:37:55Z</when>
				<when>2024-11-30T16:38:30Z</when>
				<when>2024-11-30T16:39:05Z</when>
				<when>2024-11-30T16:39:53Z</when>
				<when>2024-11-30T16:40:40Z</when>
				<when>2024-11-30T16:41:15Z</when>
				<when>2024-11-30T16:41:50Z</when>
				<when>2024-11-30T16:42:39Z</when>
				<when>2024-11-30T16:43:14Z</when>
				<when>2024-11-30T16:43:53Z</when>
				<when>2024-11-30T16:44:36Z</when>
				<when>2024-11-30T16:45:28Z</when>
				<when>2024-11-30T16:46:12Z</when>
				<when>2024-11-30T16:47:04Z</when>
				<when>2024-11-30T16:47:42.697Z</when>
				<when>2024-11-30T16:49:32Z</when>
				<when>2024-11-30T16:50:09Z</when>
				<when>2024-11-30T16:51:21Z</when>
				<when>2024-11-30T16:51:56Z</when>
				<when>2024-11-30T16:52:32Z</when>
				<when>2024-11-30T16:53:08Z</when>
				<when>2024-11-30T16:53:43.758Z</when>
				<when>2024-11-30T16:54:25.534Z</when>
				<when>2024-11-30T16:55:00.231Z</when>
				<when>2024-11-30T16:55:37.983Z</when>
				<when>2024-11-30T16:56:14.679Z</when>
				<when>2024-11-30T16:56:49.378Z</when>
				<when>2024-11-30T16:57:26.076Z</when>
				<when>2024-11-30T16:58:04.778Z</when>
				<when>2024-11-30T16:58:41.529Z</when>
				<when>2024-11-30T16:59:17.216Z</when>
				<when>2024-11-30T16:59:57.049Z</when>
				<when>2024-11-30T17:00:36.722Z</when>
				<when>2024-11-30T17:01:14.519Z</when>
				<when>2024-11-30T17:01:51.274Z</when>
				<when>2024-11-30T17:02:26.979Z</when>
				<when>2024-11-30T17:03:01.736Z</when>
				<when>2024-11-30T17:03:39.496Z</when>
				<when>2024-11-30T17:04:17.187Z</when>
				<when>2024-11-30T17:04:52.937Z</when>
				<when>2024-11-30T17:05:27.628Z</when>
				<when>2024-11-30T17:06:02.381Z</when>
				<when>2024-11-30T17:06:37.077Z</when>
				<when>2024-11-30T17:07:13.831Z</when>
				<when>2024-11-30T17:07:51.623Z</when>
				<when>2024-11-30T17:08:27.315Z</when>
				<when>2024-11-30T17:09:03.079Z</when>
				<when>2024-11-30T17:09:37.828Z</when>
				<when>2024-11-30T17:10:12.573Z</when>
				<when>2024-11-30T17:10:47.332Z</when>
				<when>2024-11-30T17:11:23.127Z</when>
				<when>2024-11-30T17:11:57.823Z</when>
				<when>2024-11-30T17:12:33.574Z</when>
				<when>2024-11-30T17:13:09.325Z</when>
				<when>2024-11-30T17:13:45.016Z</when>
				<when>2024-11-30T17:14:21.723Z</when>
				<when>2024-11-30T17:15:05Z</when>
				<when>2024-11-30T17:15:40Z</when>
				<when>2024-11-30T17:16:15Z</when>
				<when>2024-11-30T17:16:50Z</when>
				<when>2024-11-30T17:17:25.699Z</when>
				<when>2024-11-30T17:18:00.418Z</when>
				<when>2024-11-30T17:18:42.124Z</when>
				<when>2024-11-30T17:19:20.791Z</when>
				<when>2024-11-30T17:23:31.92Z</when>
				<when>2024-11-30T17:23:31.92Z</when>
				<when>2024-11-30T17:26:44.526Z</when>
				<when>2024-11-30T17:30:28.619Z</when>
				<when>2024-11-30T17:30:29.172Z</when>
				<when>2024-11-30T17:44:34Z</when>
				<when>2024-11-30T17:45:09Z</when>
				<when>2024-11-30T17:45:43.682Z</when>
				<when>2024-11-30T17:46:21.385Z</when>
				<when>2024-11-30T17:46:56.108Z</when>
				<when>2024-11-30T17:47:30.802Z</when>
				<when>2024-11-30T17:48:05.501Z</when>
				<when>2024-11-30T17:48:43.191Z</when>
				<when>2024-11-30T17:49:17.895Z</when>
				<when>2024-11-30T17:49:52.608Z</when>
				<when>2024-11-30T17:50:27.292Z</when>
				<when>2024-11-30T17:51:11Z</when>
				<when>2024-11-30T17:51:46Z</when>
				<when>2024-11-30T17:52:21Z</when>
				<when>2024-11-30T17:52:56Z</when>
				<when>2024-11-30T17:53:38Z</when>
				<gx:coord>-71.634863 -16.31072 2527</gx:coord>
				<gx:coord>-71.635041 -16.31063 2527</gx:coord>
				<gx:coord>-71.63491500000001 -16.31067 2527</gx:coord>
				<gx:coord>-71.63509999999999 -16.310591 2527</gx:coord>
				<gx:coord>-71.63505600000001 -16.310725 2527</gx:coord>
				<gx:coord>-71.634981 -16.310708 2527</gx:coord>
				<gx:coord>-71.634998 -16.310741 2527</gx:coord>
				<gx:coord>-71.635313 -16.310568 2526.8</gx:coord>
				<gx:coord>-71.635561 -16.310505 2526.7</gx:coord>
				<gx:coord>-71.635561 -16.310505 2585.08</gx:coord>
				<gx:coord>-71.63554999999999 -16.310616 2585.17</gx:coord>
				<gx:coord>-71.635745 -16.310476 2585.15</gx:coord>
				<gx:coord>-71.635745 -16.310476 2526.8</gx:coord>
				<gx:coord>-71.635606 -16.31019 2527.4</gx:coord>
				<gx:coord>-71.63583 -16.310091 2527.9</gx:coord>
				<gx:coord>-71.63552 -16.310188 2534.4</gx:coord>
				<gx:coord>-71.63576500000001 -16.310103 2532.2</gx:coord>
				<gx:coord>-71.635153 -16.310311 2587.2</gx:coord>
				<gx:coord>-71.635153 -16.310311 2584.46</gx:coord>
				<gx:coord>-71.63525 -16.310204 2584.47</gx:coord>
				<gx:coord>-71.63518999999999 -16.310371 2584.32</gx:coord>
				<gx:coord>-71.63518999999999 -16.310371 2599.7</gx:coord>
				<gx:coord>-71.635186 -16.310168 2600.6</gx:coord>
				<gx:coord>-71.63525 -16.3103 2600.5</gx:coord>
				<gx:coord>-71.635336 -16.310466 2596.8</gx:coord>
				<gx:coord>-71.63546599999999 -16.310536 2597.5</gx:coord>
				<gx:coord>-71.63571 -16.310525 2600.9</gx:coord>
				<gx:coord>-71.635925 -16.310541 2605.8</gx:coord>
				<gx:coord>-71.636021 -16.310771 2602.3</gx:coord>
				<gx:coord>-71.636211 -16.311033 2608</gx:coord>
				<gx:coord>-71.63625500000001 -16.311061 2608</gx:coord>
				<gx:coord>-71.63625500000001 -16.311061 2589.23</gx:coord>
				<gx:coord>-71.63619799999999 -16.31135 2587.21</gx:coord>
				<gx:coord>-71.63627099999999 -16.311071 2589.3</gx:coord>
				<gx:coord>-71.63627099999999 -16.311071 2609.9</gx:coord>
				<gx:coord>-71.636235 -16.311091 2607.6</gx:coord>
				<gx:coord>-71.636206 -16.311146 2610</gx:coord>
				<gx:coord>-71.63624299999999 -16.311121 2601</gx:coord>
				<gx:coord>-71.63625 -16.311083 2614.2</gx:coord>
				<gx:coord>-71.636246 -16.311133 2614.2</gx:coord>
				<gx:coord>-71.63624799999999 -16.311096 2609</gx:coord>
				<gx:coord>-71.636251 -16.311095 2606.2</gx:coord>
				<gx:coord>-71.63630000000001 -16.311188 2603.2</gx:coord>
				<gx:coord>-71.63630000000001 -16.311106 2593.8</gx:coord>
				<gx:coord>-71.636188 -16.311121 2601.6</gx:coord>
				<gx:coord>-71.636241 -16.311128 2599.5</gx:coord>
				<gx:coord>-71.636161 -16.311266 2601.2</gx:coord>
				<gx:coord>-71.636216 -16.311106 2599.1</gx:coord>
				<gx:coord>-71.636261 -16.311111 2607.5</gx:coord>
				<gx:coord>-71.636263 -16.311106 2608</gx:coord>
				<gx:coord>-71.63616 -16.311165 2600.7</gx:coord>
				<gx:coord>-71.636206 -16.31113 2610.3</gx:coord>
				<gx:coord>-71.636161 -16.311181 2615.8</gx:coord>
				<gx:coord>-71.636213 -16.31108 2611.1</gx:coord>
				<gx:coord>-71.63623800000001 -16.31118 2610.9</gx:coord>
				<gx:coord>-71.636231 -16.311101 2603.7</gx:coord>
				<gx:coord>-71.63628799999999 -16.311088 2624.7</gx:coord>
				<gx:coord>-71.636253 -16.311096 2593.1</gx:coord>
				<gx:coord>-71.636245 -16.311128 2598.3</gx:coord>
				<gx:coord>-71.63626499999999 -16.311253 2601.8</gx:coord>
				<gx:coord>-71.636223 -16.311231 2585.2</gx:coord>
				<gx:coord>-71.63627099999999 -16.311285 2588.7</gx:coord>
				<gx:coord>-71.63625 -16.311278 2604.2</gx:coord>
				<gx:coord>-71.636273 -16.311348 2610</gx:coord>
				<gx:coord>-71.63626600000001 -16.311295 2616.2</gx:coord>
				<gx:coord>-71.63629 -16.311345 2625.6</gx:coord>
				<gx:coord>-71.63626600000001 -16.311323 2616.2</gx:coord>
				<gx:coord>-71.636256 -16.311386 2607.4</gx:coord>
				<gx:coord>-71.636263 -16.311305 2637.6</gx:coord>
				<gx:coord>-71.636258 -16.311381 2610.2</gx:coord>
				<gx:coord>-71.636285 -16.311245 2617.1</gx:coord>
				<gx:coord>-71.636281 -16.311345 2617.2</gx:coord>
				<gx:coord>-71.636281 -16.31134 2618.9</gx:coord>
				<gx:coord>-71.636273 -16.311301 2626.6</gx:coord>
				<gx:coord>-71.636295 -16.311276 2648.4</gx:coord>
				<gx:coord>-71.63630000000001 -16.311361 2611.1</gx:coord>
				<gx:coord>-71.63626499999999 -16.31137 2604.7</gx:coord>
				<gx:coord>-71.636223 -16.311408 2604.8</gx:coord>
				<gx:coord>-71.63636099999999 -16.311323 2618.5</gx:coord>
				<gx:coord>-71.636268 -16.311353 2609.1</gx:coord>
				<gx:coord>-71.63625 -16.311365 2607.4</gx:coord>
				<gx:coord>-71.636276 -16.311335 2607.4</gx:coord>
				<gx:coord>-71.63624799999999 -16.31133 2614.7</gx:coord>
				<gx:coord>-71.63628300000001 -16.311403 2607.7</gx:coord>
				<gx:coord>-71.63624299999999 -16.311316 2597.2</gx:coord>
				<gx:coord>-71.636321 -16.311391 2624.3</gx:coord>
				<gx:coord>-71.636278 -16.31136 2626.4</gx:coord>
				<gx:coord>-71.63632800000001 -16.311473 2612.5</gx:coord>
				<gx:coord>-71.636298 -16.31137 2628.5</gx:coord>
				<gx:coord>-71.63624 -16.31138 2626.4</gx:coord>
				<gx:coord>-71.63627099999999 -16.311385 2619.1</gx:coord>
				<gx:coord>-71.63616500000001 -16.311363 2618.3</gx:coord>
				<gx:coord>-71.636205 -16.31125 2621.8</gx:coord>
				<gx:coord>-71.63630499999999 -16.311416 2599.4</gx:coord>
				<gx:coord>-71.63629299999999 -16.311378 2599.4</gx:coord>
				<gx:coord>-71.636245 -16.311336 2601.3</gx:coord>
				<gx:coord>-71.636263 -16.311366 2599.4</gx:coord>
				<gx:coord>-71.636256 -16.311345 2601</gx:coord>
				<gx:coord>-71.63622100000001 -16.311291 2605.5</gx:coord>
				<gx:coord>-71.63628 -16.311483 2605</gx:coord>
				<gx:coord>-71.63629 -16.311491 2585.96</gx:coord>
				<gx:coord>-71.636306 -16.311315 2587.43</gx:coord>
				<gx:coord>-71.636306 -16.311315 2592.1</gx:coord>
				<gx:coord>-71.63629299999999 -16.3114 2625</gx:coord>
				<gx:coord>-71.636298 -16.311341 2606.3</gx:coord>
				<gx:coord>-71.63643500000001 -16.31169 2602.5</gx:coord>
				<gx:coord>-71.63662100000001 -16.311965 2612.6</gx:coord>
				<gx:coord>-71.636571 -16.312128 2606.1</gx:coord>
				<gx:coord>-71.63652999999999 -16.312101 2599.5</gx:coord>
				<gx:coord>-71.63654099999999 -16.312146 2595.2</gx:coord>
				<gx:coord>-71.636526 -16.312071 2600.1</gx:coord>
				<gx:coord>-71.636555 -16.312156 2601.1</gx:coord>
				<gx:coord>-71.636523 -16.312113 2598.3</gx:coord>
				<gx:coord>-71.63657499999999 -16.312086 2620.3</gx:coord>
				<gx:coord>-71.636591 -16.312156 2596.1</gx:coord>
				<gx:coord>-71.63656 -16.31209 2614.3</gx:coord>
				<gx:coord>-71.636495 -16.31204 2601.5</gx:coord>
				<gx:coord>-71.636565 -16.312141 2612.6</gx:coord>
				<gx:coord>-71.63646300000001 -16.312078 2607</gx:coord>
				<gx:coord>-71.63646300000001 -16.312078 2583.78</gx:coord>
				<gx:coord>-71.636477 -16.312 2584.26</gx:coord>
				<gx:coord>-71.63657600000001 -16.31214 2583.66</gx:coord>
				<gx:coord>-71.63657600000001 -16.31214 2583.66</gx:coord>
				<gx:coord>-71.63663200000001 -16.312196 2583.4</gx:coord>
				<gx:coord>-71.63643999999999 -16.311988 2584.28</gx:coord>
				<gx:coord>-71.63643999999999 -16.311988 2606.4</gx:coord>
				<gx:coord>-71.636546 -16.312133 2606.7</gx:coord>
				<gx:coord>-71.636481 -16.312085 2600.9</gx:coord>
				<gx:coord>-71.636481 -16.312085 2583.78</gx:coord>
				<gx:coord>-71.63655199999999 -16.312181 2583.31</gx:coord>
				<gx:coord>-71.63643999999999 -16.31206 2583.84</gx:coord>
				<gx:coord>-71.63643999999999 -16.31206 2583.84</gx:coord>
				<gx:coord>-71.63653600000001 -16.312198 2583.12</gx:coord>
				<gx:coord>-71.63653600000001 -16.312198 2583.12</gx:coord>
				<gx:coord>-71.636585 -16.312214 2583.15</gx:coord>
				<gx:coord>-71.636516 -16.312138 2583.54</gx:coord>
				<gx:coord>-71.636516 -16.312138 2594.2</gx:coord>
				<gx:coord>-71.636596 -16.312116 2605.4</gx:coord>
				<gx:coord>-71.63658100000001 -16.31217 2594.5</gx:coord>
				<gx:coord>-71.63651 -16.312088 2597.1</gx:coord>
				<gx:coord>-71.636636 -16.31217 2590.8</gx:coord>
				<gx:coord>-71.636561 -16.312071 2598.3</gx:coord>
				<gx:coord>-71.636606 -16.312131 2602.2</gx:coord>
				<gx:coord>-71.636486 -16.312066 2599.1</gx:coord>
				<gx:coord>-71.63657600000001 -16.312201 2598</gx:coord>
				<gx:coord>-71.636475 -16.312095 2595.7</gx:coord>
				<gx:coord>-71.636523 -16.312056 2595.5</gx:coord>
				<gx:coord>-71.63659 -16.312063 2598.2</gx:coord>
				<gx:coord>-71.63657499999999 -16.312153 2595.9</gx:coord>
				<gx:coord>-71.636655 -16.312248 2600.8</gx:coord>
				<gx:coord>-71.636768 -16.31229 2606.9</gx:coord>
				<gx:coord>-71.636906 -16.312513 2604.4</gx:coord>
				<gx:coord>-71.63702499999999 -16.312678 2592.3</gx:coord>
				<gx:coord>-71.63721 -16.312866 2601.9</gx:coord>
				<gx:coord>-71.63698599999999 -16.313106 2598.7</gx:coord>
				<gx:coord>-71.636976 -16.313353 2598.2</gx:coord>
				<gx:coord>-71.636746 -16.313366 2590.8</gx:coord>
				<gx:coord>-71.636683 -16.313216 2598.8</gx:coord>
				<gx:coord>-71.63664 -16.313135 2602.1</gx:coord>
				<gx:coord>-71.63664 -16.313135 2578.23</gx:coord>
				<gx:coord>-71.636612 -16.313176 2578.34</gx:coord>
				<gx:coord>-71.636736 -16.31341 2576.52</gx:coord>
				<gx:coord>-71.636736 -16.31341 2576.52</gx:coord>
				<gx:coord>-71.636571 -16.313176 2578.51</gx:coord>
				<gx:coord>-71.63667 -16.313475 2576.87</gx:coord>
				<gx:coord>-71.63667 -16.313475 2576.87</gx:coord>
				<gx:coord>-71.636503 -16.313301 2578.5</gx:coord>
				<gx:coord>-71.636746 -16.313415 2576.4</gx:coord>
				<gx:coord>-71.636746 -16.313415 2591.1</gx:coord>
				<gx:coord>-71.636645 -16.313446 2589.7</gx:coord>
				<gx:coord>-71.63666000000001 -16.313336 2588.7</gx:coord>
				<gx:coord>-71.63668 -16.313245 2593.3</gx:coord>
				<gx:coord>-71.63670999999999 -16.313323 2589.2</gx:coord>
				<gx:coord>-71.636686 -16.313305 2589.8</gx:coord>
				<gx:coord>-71.63653600000001 -16.31344 2589.7</gx:coord>
				<gx:coord>-71.636515 -16.313383 2589.6</gx:coord>
				<gx:coord>-71.636483 -16.313383 2599</gx:coord>
				<gx:coord>-71.636625 -16.313348 2602.3</gx:coord>
				<gx:coord>-71.636545 -16.313378 2601</gx:coord>
				<gx:coord>-71.636556 -16.313426 2585.5</gx:coord>
				<gx:coord>-71.636636 -16.31327 2599</gx:coord>
				<gx:coord>-71.63678299999999 -16.313 2598.9</gx:coord>
				<gx:coord>-71.636808 -16.313026 2612.6</gx:coord>
				<gx:coord>-71.637326 -16.313466 2612.6</gx:coord>
				<gx:coord>-71.636956 -16.313266 2610.3</gx:coord>
				<gx:coord>-71.63717 -16.313341 2608.2</gx:coord>
				<gx:coord>-71.637108 -16.313245 2612.5</gx:coord>
				<gx:coord>-71.637288 -16.313361 2614</gx:coord>
				<gx:coord>-71.63724499999999 -16.31343 2613.7</gx:coord>
				<gx:coord>-71.63736299999999 -16.313536 2614.1</gx:coord>
				<gx:coord>-71.63736299999999 -16.313536 2570.18</gx:coord>
				<gx:coord>-71.637159 -16.313527 2570.78</gx:coord>
				<gx:coord>-71.63721 -16.313505 2570.77</gx:coord>
				<gx:coord>-71.63721 -16.313505 2612.4</gx:coord>
				<gx:coord>-71.637163 -16.313421 2611.8</gx:coord>
				<gx:coord>-71.637035 -16.313205 2614</gx:coord>
				<gx:coord>-71.63727 -16.313151 2612.5</gx:coord>
				<gx:coord>-71.63747499999999 -16.31312 2599.1</gx:coord>
				<gx:coord>-71.63763 -16.3131 2608.8</gx:coord>
				<gx:coord>-71.637776 -16.313181 2590.9</gx:coord>
				<gx:coord>-71.637738 -16.313158 2588.9</gx:coord>
				<gx:coord>-71.63763299999999 -16.313215 2604.5</gx:coord>
				<gx:coord>-71.63758300000001 -16.31323 2600.6</gx:coord>
				<gx:coord>-71.63751600000001 -16.31321 2600.6</gx:coord>
				<gx:coord>-71.637468 -16.313116 2600.2</gx:coord>
				<gx:coord>-71.637773 -16.31318 2589.9</gx:coord>
				<gx:coord>-71.637895 -16.313318 2590.8</gx:coord>
				<gx:coord>-71.637873 -16.313281 2591.1</gx:coord>
				<gx:coord>-71.63802099999999 -16.313548 2602</gx:coord>
				<gx:coord>-71.63783100000001 -16.313186 2591.7</gx:coord>
				<gx:coord>-71.63783100000001 -16.313186 2575.03</gx:coord>
				<gx:coord>-71.63772 -16.313256 2574.3</gx:coord>
				<gx:coord>-71.638041 -16.31355 2573.16</gx:coord>
				<gx:coord>-71.638041 -16.31355 2594.5</gx:coord>
				<gx:coord>-71.637941 -16.313261 2578.2</gx:coord>
				<gx:coord>-71.63798 -16.313313 2578.6</gx:coord>
				<gx:coord>-71.63760600000001 -16.313023 2582.2</gx:coord>
				<gx:coord>-71.637818 -16.313176 2585.5</gx:coord>
				<gx:coord>-71.637478 -16.312993 2587.9</gx:coord>
				<gx:coord>-71.63749799999999 -16.312946 2586.9</gx:coord>
				<gx:coord>-71.63771800000001 -16.313171 2585.7</gx:coord>
				<gx:coord>-71.637855 -16.313176 2584.4</gx:coord>
				<gx:coord>-71.63792599999999 -16.313291 2579.6</gx:coord>
				<gx:coord>-71.63792599999999 -16.313291 2574.19</gx:coord>
				<gx:coord>-71.637956 -16.313653 2572.43</gx:coord>
				<gx:coord>-71.638131 -16.31407 2566.54</gx:coord>
				<gx:coord>-71.638306 -16.314487 2561.74</gx:coord>
				<gx:coord>-71.638482 -16.314904 2560.44</gx:coord>
				<gx:coord>-71.63865699999999 -16.315321 2555.85</gx:coord>
				<gx:coord>-71.63883199999999 -16.315738 2550.57</gx:coord>
				<gx:coord>-71.63900700000001 -16.316155 2548</gx:coord>
				<gx:coord>-71.639183 -16.316572 2545.58</gx:coord>
				<gx:coord>-71.63926499999999 -16.316768 2544.73</gx:coord>
				<gx:coord>-71.63926499999999 -16.316768 2577.4</gx:coord>
				<gx:coord>-71.639831 -16.320021 2573.8</gx:coord>
				<gx:coord>-71.64039099999999 -16.320091 2569.5</gx:coord>
				<gx:coord>-71.63990800000001 -16.320068 2574.6</gx:coord>
				<gx:coord>-71.640851 -16.319978 2565.5</gx:coord>
				<gx:coord>-71.641103 -16.319808 2549.3</gx:coord>
				<gx:coord>-71.641375 -16.320015 2532.4</gx:coord>
				<gx:coord>-71.641566 -16.32007 2527.9</gx:coord>
				<gx:coord>-71.641676 -16.320098 2509.7</gx:coord>
				<gx:coord>-71.641565 -16.320058 2554.2</gx:coord>
				<gx:coord>-71.641621 -16.320123 2512.1</gx:coord>
				<gx:coord>-71.64164100000001 -16.320056 2519.1</gx:coord>
				<gx:coord>-71.641486 -16.320046 2524.6</gx:coord>
				<gx:coord>-71.641346 -16.31987 2524.8</gx:coord>
				<gx:coord>-71.641746 -16.320273 2525.7</gx:coord>
				<gx:coord>-71.64137599999999 -16.31996 2525.7</gx:coord>
				<gx:coord>-71.64159600000001 -16.320036 2525</gx:coord>
				<gx:coord>-71.641465 -16.320025 2526</gx:coord>
				<gx:coord>-71.641476 -16.320023 2533.7</gx:coord>
				<gx:coord>-71.64138 -16.320033 2534</gx:coord>
				<gx:coord>-71.64137599999999 -16.320023 2533.4</gx:coord>
				<gx:coord>-71.64132499999999 -16.320001 2533.2</gx:coord>
				<gx:coord>-71.641268 -16.319931 2532.8</gx:coord>
				<gx:coord>-71.64132600000001 -16.320036 2534</gx:coord>
				<gx:coord>-71.641255 -16.320096 2534.7</gx:coord>
				<gx:coord>-71.64117299999999 -16.319958 2534.1</gx:coord>
				<gx:coord>-71.641356 -16.32022 2534.6</gx:coord>
				<gx:coord>-71.641026 -16.320148 2534.9</gx:coord>
				<gx:coord>-71.64118499999999 -16.32058 2533.7</gx:coord>
				<gx:coord>-71.64132600000001 -16.320825 2534.7</gx:coord>
				<gx:coord>-71.64105600000001 -16.320836 2535</gx:coord>
				<gx:coord>-71.641186 -16.320928 2535.5</gx:coord>
				<gx:coord>-71.64111800000001 -16.320796 2532.1</gx:coord>
				<gx:coord>-71.64145600000001 -16.320926 2522.1</gx:coord>
				<gx:coord>-71.641226 -16.320843 2532.9</gx:coord>
				<gx:coord>-71.64101599999999 -16.320898 2526</gx:coord>
				<gx:coord>-71.640845 -16.321025 2526.9</gx:coord>
				<gx:coord>-71.64091999999999 -16.321011 2523.3</gx:coord>
				<gx:coord>-71.64101100000001 -16.3212 2524.5</gx:coord>
				<gx:coord>-71.64123600000001 -16.321533 2531.8</gx:coord>
				<gx:coord>-71.641203 -16.321816 2531.7</gx:coord>
				<gx:coord>-71.641183 -16.321988 2538</gx:coord>
				<gx:coord>-71.641293 -16.322018 2530.3</gx:coord>
				<gx:coord>-71.641363 -16.322011 2525</gx:coord>
				<gx:coord>-71.641345 -16.322053 2525.1</gx:coord>
				<gx:coord>-71.64140999999999 -16.32204 2525.2</gx:coord>
				<gx:coord>-71.641356 -16.322056 2524.6</gx:coord>
				<gx:coord>-71.641341 -16.322111 2527.6</gx:coord>
				<gx:coord>-71.64095 -16.321201 2526.4</gx:coord>
				<gx:coord>-71.640395 -16.319653 2527.3</gx:coord>
				<gx:coord>-71.640001 -16.318943 2539.4</gx:coord>
				<gx:coord>-71.640075 -16.317753 2539.3</gx:coord>
				<gx:coord>-71.638825 -16.315285 2539.9</gx:coord>
				<gx:coord>-71.638588 -16.314151 2562</gx:coord>
				<gx:coord>-71.63752100000001 -16.312928 2540.6</gx:coord>
				<gx:coord>-71.637365 -16.312848 2542.9</gx:coord>
				<gx:coord>-71.636595 -16.311743 2560.5</gx:coord>
				<gx:coord>-71.63606799999999 -16.310713 2554.1</gx:coord>
				<gx:coord>-71.63541600000001 -16.310568 2569.1</gx:coord>
				<gx:coord>-71.635396 -16.310383 2545.5</gx:coord>
				<gx:coord>-71.635166 -16.310055 2571</gx:coord>
				<gx:coord>-71.635023 -16.309813 2572.4</gx:coord>
				<gx:coord>-71.63497599999999 -16.309655 2575.7</gx:coord>
				<gx:coord>-71.63494300000001 -16.309706 2591.9</gx:coord>
				<gx:coord>-71.63507 -16.309643 2590.599999999999</gx:coord>
				<gx:coord>-71.635053 -16.309698 2586.8</gx:coord>
				<gx:coord>-71.63504 -16.309693 2593</gx:coord>
				<gx:coord>-71.63513500000001 -16.309705 2597.8</gx:coord>
				<gx:coord>-71.635125 -16.309665 2598.2</gx:coord>
				<gx:coord>-71.634895 -16.309671 2622.6</gx:coord>
				<gx:coord>-71.63491999999999 -16.309628 2608.7</gx:coord>
				<gx:coord>-71.63505499999999 -16.309673 2608</gx:coord>
				<gx:coord>-71.63502 -16.309663 2609.5</gx:coord>
				<gx:coord>-71.63500500000001 -16.309671 2606</gx:coord>
				<gx:coord>-71.635008 -16.309623 2607.7</gx:coord>
				<gx:coord>-71.63501100000001 -16.30965 2606.3</gx:coord>
				<gx:coord>-71.63497 -16.309635 2608.1</gx:coord>
				<gx:coord>-71.634991 -16.309583 2611.6</gx:coord>
				<gx:coord>-71.63500500000001 -16.30962 2611.6</gx:coord>
				<gx:coord>-71.63505600000001 -16.309628 2611.6</gx:coord>
				<gx:coord>-71.63505600000001 -16.30958 2611.6</gx:coord>
				<gx:coord>-71.634795 -16.30958 2611.6</gx:coord>
				<gx:coord>-71.63519599999999 -16.309621 2611.3</gx:coord>
				<gx:coord>-71.63519599999999 -16.309621 2583.32</gx:coord>
				<gx:coord>-71.634894 -16.309559 2582.89</gx:coord>
				<gx:coord>-71.63523600000001 -16.309665 2583.23</gx:coord>
				<gx:coord>-71.63523600000001 -16.309665 2614.7</gx:coord>
				<gx:coord>-71.635108 -16.309631 2613.3</gx:coord>
				<gx:coord>-71.635043 -16.309635 2615.1</gx:coord>
				<gx:coord>-71.635048 -16.309653 2615.6</gx:coord>
				<gx:coord>-71.63501599999999 -16.309646 2626.4</gx:coord>
				<gx:coord>-71.63505499999999 -16.30963 2617.5</gx:coord>
				<gx:coord>-71.635013 -16.309615 2617.2</gx:coord>
				<gx:coord>-71.63519599999999 -16.309725 2614</gx:coord>
				<gx:coord>-71.63504 -16.309618 2621.9</gx:coord>
				<gx:coord>-71.635065 -16.309606 2618.3</gx:coord>
				<gx:coord>-71.63511099999999 -16.309641 2615.2</gx:coord>
				<gx:coord>-71.634958 -16.309603 2619.4</gx:coord>
				<gx:coord>-71.635143 -16.309655 2593.6</gx:coord>
				<gx:coord>-71.635046 -16.309645 2604.8</gx:coord>
				<gx:coord>-71.63485799999999 -16.309616 2595.8</gx:coord>
				<gx:coord>-71.635036 -16.30966 2592.1</gx:coord>
				<gx:coord>-71.63483100000001 -16.309643 2594.4</gx:coord>
			</gx:Track>
		</Placemark>
	</Folder>
</Document>
</kml>
