<?xml version="1.0" encoding="UTF-8"?>
<kml xmlns="http://www.opengis.net/kml/2.2" xmlns:gx="http://www.google.com/kml/ext/2.2" xmlns:kml="http://www.opengis.net/kml/2.2" xmlns:atom="http://www.w3.org/2005/Atom">
<Document>
	<name>GPS-78 30-11-2024 GRUPO 06</name>
	<visibility>0</visibility>
	<snippet>Created vie. Mar. 14 09:05:05 2025</snippet>
	<LookAt>
		<gx:TimeSpan>
			<begin>2024-11-30T13:45:27.072Z</begin>
			<end>2024-11-30T17:50:07Z</end>
		</gx:TimeSpan>
		<longitude>-71.64120800000001</longitude>
		<latitude>-16.312784</latitude>
		<altitude>0</altitude>
		<heading>0</heading>
		<tilt>0</tilt>
		<range>1531.822559</range>
	</LookAt>
	<atom:link rel="app" href="https://www.google.com/earth/about/versions/#earth-pro" title="Google Earth Pro 7.3.6.10441"></atom:link>
	<StyleMap id="multiTrack9144">
		<Pair>
			<key>normal</key>
			<styleUrl>#multiTrack_n9144</styleUrl>
		</Pair>
		<Pair>
			<key>highlight</key>
			<styleUrl>#multiTrack_h9144</styleUrl>
		</Pair>
	</StyleMap>
	<Style id="multiTrack_h9144">
		<IconStyle>
			<scale>1.2</scale>
			<Icon>
				<href>https://earth.google.com/images/kml-icons/track-directional/track-0.png</href>
			</Icon>
		</IconStyle>
		<LineStyle>
			<color>99ffac59</color>
			<width>8</width>
		</LineStyle>
	</Style>
	<Style id="multiTrack_n9144">
		<IconStyle>
			<Icon>
				<href>https://earth.google.com/images/kml-icons/track-directional/track-0.png</href>
			</Icon>
		</IconStyle>
		<LineStyle>
			<color>99ffac59</color>
			<width>6</width>
		</LineStyle>
	</Style>
	<Folder>
		<name>Tracks</name>
		<visibility>0</visibility>
		<Placemark>
			<visibility>0</visibility>
			<styleUrl>#multiTrack9144</styleUrl>
			<gx:Track>
				<when>2024-11-30T13:45:27.072Z</when>
				<when>2024-11-30T13:46:04.911Z</when>
				<when>2024-11-30T13:47:11Z</when>
				<when>2024-11-30T13:49:16Z</when>
				<when>2024-11-30T13:49:53Z</when>
				<when>2024-11-30T13:50:28.723Z</when>
				<when>2024-11-30T13:51:05.536Z</when>
				<when>2024-11-30T13:51:40.343Z</when>
				<when>2024-11-30T13:52:17.135Z</when>
				<when>2024-11-30T13:52:51.943Z</when>
				<when>2024-11-30T13:53:28.735Z</when>
				<when>2024-11-30T13:54:05.532Z</when>
				<when>2024-11-30T13:54:41.334Z</when>
				<when>2024-11-30T13:55:16.129Z</when>
				<when>2024-11-30T13:55:49.934Z</when>
				<when>2024-11-30T13:56:25.728Z</when>
				<when>2024-11-30T13:57:03.542Z</when>
				<when>2024-11-30T13:57:39.332Z</when>
				<when>2024-11-30T13:58:14.131Z</when>
				<when>2024-11-30T13:58:47.93Z</when>
				<when>2024-11-30T13:59:21.731Z</when>
				<when>2024-11-30T13:59:58.533Z</when>
				<when>2024-11-30T14:00:35.336Z</when>
				<when>2024-11-30T14:01:11.135Z</when>
				<when>2024-11-30T14:01:50.935Z</when>
				<when>2024-11-30T14:02:27.744Z</when>
				<when>2024-11-30T14:03:06.523Z</when>
				<when>2024-11-30T14:03:42.34Z</when>
				<when>2024-11-30T14:04:18.132Z</when>
				<when>2024-11-30T14:04:53.931Z</when>
				<when>2024-11-30T14:05:28.732Z</when>
				<when>2024-11-30T14:06:04.532Z</when>
				<when>2024-11-30T14:06:39.328Z</when>
				<when>2024-11-30T14:07:16.132Z</when>
				<when>2024-11-30T14:07:52.932Z</when>
				<when>2024-11-30T14:08:29.675Z</when>
				<when>2024-11-30T14:09:10.477Z</when>
				<when>2024-11-30T14:09:46.274Z</when>
				<when>2024-11-30T14:10:21.084Z</when>
				<when>2024-11-30T14:10:55.882Z</when>
				<when>2024-11-30T14:11:30.681Z</when>
				<when>2024-11-30T14:12:04.481Z</when>
				<when>2024-11-30T14:12:39.273Z</when>
				<when>2024-11-30T14:13:14.074Z</when>
				<when>2024-11-30T14:13:49.872Z</when>
				<when>2024-11-30T14:14:26.682Z</when>
				<when>2024-11-30T14:15:02.468Z</when>
				<when>2024-11-30T14:15:38.275Z</when>
				<when>2024-11-30T14:16:13.078Z</when>
				<when>2024-11-30T14:16:48.887Z</when>
				<when>2024-11-30T14:17:24.675Z</when>
				<when>2024-11-30T14:18:00.484Z</when>
				<when>2024-11-30T14:18:36.267Z</when>
				<when>2024-11-30T14:19:10.078Z</when>
				<when>2024-11-30T14:19:44.87Z</when>
				<when>2024-11-30T14:20:20.672Z</when>
				<when>2024-11-30T14:20:54.477Z</when>
				<when>2024-11-30T14:21:32.279Z</when>
				<when>2024-11-30T14:22:10.071Z</when>
				<when>2024-11-30T14:22:47.873Z</when>
				<when>2024-11-30T14:23:23.677Z</when>
				<when>2024-11-30T14:23:58.478Z</when>
				<when>2024-11-30T14:24:35.268Z</when>
				<when>2024-11-30T14:25:10.068Z</when>
				<when>2024-11-30T14:25:48.875Z</when>
				<when>2024-11-30T14:26:25.67Z</when>
				<when>2024-11-30T14:27:00.469Z</when>
				<when>2024-11-30T14:27:34.27Z</when>
				<when>2024-11-30T14:28:11.071Z</when>
				<when>2024-11-30T14:28:47.864Z</when>
				<when>2024-11-30T14:29:23.665Z</when>
				<when>2024-11-30T14:29:57.47Z</when>
				<when>2024-11-30T14:30:32.263Z</when>
				<when>2024-11-30T14:31:08.068Z</when>
				<when>2024-11-30T14:31:43.871Z</when>
				<when>2024-11-30T14:32:22.624Z</when>
				<when>2024-11-30T14:32:58.414Z</when>
				<when>2024-11-30T14:33:34.212Z</when>
				<when>2024-11-30T14:34:11.014Z</when>
				<when>2024-11-30T14:34:45.811Z</when>
				<when>2024-11-30T14:35:22.618Z</when>
				<when>2024-11-30T14:35:59.426Z</when>
				<when>2024-11-30T14:36:41.217Z</when>
				<when>2024-11-30T14:37:24.968Z</when>
				<when>2024-11-30T14:38:03.763Z</when>
				<when>2024-11-30T14:38:39.562Z</when>
				<when>2024-11-30T14:39:14.309Z</when>
				<when>2024-11-30T14:39:50.106Z</when>
				<when>2024-11-30T14:40:25.901Z</when>
				<when>2024-11-30T14:40:59.708Z</when>
				<when>2024-11-30T14:41:34.507Z</when>
				<when>2024-11-30T14:42:09.314Z</when>
				<when>2024-11-30T14:42:45.112Z</when>
				<when>2024-11-30T14:43:20.916Z</when>
				<when>2024-11-30T14:43:56.703Z</when>
				<when>2024-11-30T14:44:32.515Z</when>
				<when>2024-11-30T14:45:08.305Z</when>
				<when>2024-11-30T14:45:44.105Z</when>
				<when>2024-11-30T14:46:19.907Z</when>
				<when>2024-11-30T14:46:54.704Z</when>
				<when>2024-11-30T14:47:28.511Z</when>
				<when>2024-11-30T14:48:04.311Z</when>
				<when>2024-11-30T14:48:38.104Z</when>
				<when>2024-11-30T14:49:13.913Z</when>
				<when>2024-11-30T14:49:52.71Z</when>
				<when>2024-11-30T14:50:28.503Z</when>
				<when>2024-11-30T14:51:03.307Z</when>
				<when>2024-11-30T14:51:40.109Z</when>
				<when>2024-11-30T14:52:13.909Z</when>
				<when>2024-11-30T14:52:49.709Z</when>
				<when>2024-11-30T14:53:25.562Z</when>
				<when>2024-11-30T14:53:59.361Z</when>
				<when>2024-11-30T14:54:35.157Z</when>
				<when>2024-11-30T14:55:10.956Z</when>
				<when>2024-11-30T14:55:45.755Z</when>
				<when>2024-11-30T14:56:21.561Z</when>
				<when>2024-11-30T14:56:58.364Z</when>
				<when>2024-11-30T14:57:35.156Z</when>
				<when>2024-11-30T14:58:11.962Z</when>
				<when>2024-11-30T14:58:48.76Z</when>
				<when>2024-11-30T14:59:25.563Z</when>
				<when>2024-11-30T15:00:04.328Z</when>
				<when>2024-11-30T15:00:45.104Z</when>
				<when>2024-11-30T15:01:21.961Z</when>
				<when>2024-11-30T15:02:00.762Z</when>
				<when>2024-11-30T15:02:36.553Z</when>
				<when>2024-11-30T15:03:12.35Z</when>
				<when>2024-11-30T15:03:49.153Z</when>
				<when>2024-11-30T15:04:24.959Z</when>
				<when>2024-11-30T15:05:04.752Z</when>
				<when>2024-11-30T15:05:42.55Z</when>
				<when>2024-11-30T15:06:19.352Z</when>
				<when>2024-11-30T15:06:57.203Z</when>
				<when>2024-11-30T15:07:33.996Z</when>
				<when>2024-11-30T15:08:09.802Z</when>
				<when>2024-11-30T15:08:46.6Z</when>
				<when>2024-11-30T15:09:23.402Z</when>
				<when>2024-11-30T15:09:59.199Z</when>
				<when>2024-11-30T15:10:34.997Z</when>
				<when>2024-11-30T15:11:11.803Z</when>
				<when>2024-11-30T15:11:48.6Z</when>
				<when>2024-11-30T15:12:24.407Z</when>
				<when>2024-11-30T15:13:00.191Z</when>
				<when>2024-11-30T15:13:36.994Z</when>
				<when>2024-11-30T15:14:12.792Z</when>
				<when>2024-11-30T15:14:48.596Z</when>
				<when>2024-11-30T15:15:23.397Z</when>
				<when>2024-11-30T15:15:59.245Z</when>
				<when>2024-11-30T15:16:33.036Z</when>
				<when>2024-11-30T15:17:08.85Z</when>
				<when>2024-11-30T15:17:45.646Z</when>
				<when>2024-11-30T15:18:25.461Z</when>
				<when>2024-11-30T15:19:01.257Z</when>
				<when>2024-11-30T15:19:39.052Z</when>
				<when>2024-11-30T15:20:14.839Z</when>
				<when>2024-11-30T15:20:50.653Z</when>
				<when>2024-11-30T15:21:29.461Z</when>
				<when>2024-11-30T15:22:07.263Z</when>
				<when>2024-11-30T15:22:44.057Z</when>
				<when>2024-11-30T15:23:19.864Z</when>
				<when>2024-11-30T15:23:55.662Z</when>
				<when>2024-11-30T15:24:30.441Z</when>
				<when>2024-11-30T15:25:04.24Z</when>
				<when>2024-11-30T15:25:42.044Z</when>
				<when>2024-11-30T15:26:19.847Z</when>
				<when>2024-11-30T15:26:57.639Z</when>
				<when>2024-11-30T15:27:36.386Z</when>
				<when>2024-11-30T15:28:19.204Z</when>
				<when>2024-11-30T15:28:58.968Z</when>
				<when>2024-11-30T15:29:40.773Z</when>
				<when>2024-11-30T15:30:21.528Z</when>
				<when>2024-11-30T15:31:01.328Z</when>
				<when>2024-11-30T15:31:41.139Z</when>
				<when>2024-11-30T15:32:17.932Z</when>
				<when>2024-11-30T15:32:54.735Z</when>
				<when>2024-11-30T15:33:30.58Z</when>
				<when>2024-11-30T15:34:06.382Z</when>
				<when>2024-11-30T15:34:42.188Z</when>
				<when>2024-11-30T15:35:17.962Z</when>
				<when>2024-11-30T15:35:57.785Z</when>
				<when>2024-11-30T15:36:36.597Z</when>
				<when>2024-11-30T15:37:16.378Z</when>
				<when>2024-11-30T15:37:55.22Z</when>
				<when>2024-11-30T15:38:34.022Z</when>
				<when>2024-11-30T15:39:10.83Z</when>
				<when>2024-11-30T15:39:46.635Z</when>
				<when>2024-11-30T15:40:23.436Z</when>
				<when>2024-11-30T15:41:01.264Z</when>
				<when>2024-11-30T15:41:37.079Z</when>
				<when>2024-11-30T15:42:11.875Z</when>
				<when>2024-11-30T15:42:48.674Z</when>
				<when>2024-11-30T15:43:25.513Z</when>
				<when>2024-11-30T15:44:01.287Z</when>
				<when>2024-11-30T15:44:37.086Z</when>
				<when>2024-11-30T15:45:12.88Z</when>
				<when>2024-11-30T15:45:48.73Z</when>
				<when>2024-11-30T15:46:24.52Z</when>
				<when>2024-11-30T15:47:03.372Z</when>
				<when>2024-11-30T15:47:40.169Z</when>
				<when>2024-11-30T15:48:16.018Z</when>
				<when>2024-11-30T15:48:51.824Z</when>
				<when>2024-11-30T15:49:26.679Z</when>
				<when>2024-11-30T15:50:03.53Z</when>
				<when>2024-11-30T15:50:45.325Z</when>
				<when>2024-11-30T15:51:22.122Z</when>
				<when>2024-11-30T15:51:57.921Z</when>
				<when>2024-11-30T15:52:40.729Z</when>
				<when>2024-11-30T15:53:24.511Z</when>
				<when>2024-11-30T15:54:03.369Z</when>
				<when>2024-11-30T15:54:42.168Z</when>
				<when>2024-11-30T15:55:18.015Z</when>
				<when>2024-11-30T15:55:53.829Z</when>
				<when>2024-11-30T15:56:29.618Z</when>
				<when>2024-11-30T15:57:07.466Z</when>
				<when>2024-11-30T15:57:43.304Z</when>
				<when>2024-11-30T15:58:21.188Z</when>
				<when>2024-11-30T15:58:57.009Z</when>
				<when>2024-11-30T15:59:31.85Z</when>
				<when>2024-11-30T16:00:07.65Z</when>
				<when>2024-11-30T16:00:43.516Z</when>
				<when>2024-11-30T16:01:19.371Z</when>
				<when>2024-11-30T16:01:57.213Z</when>
				<when>2024-11-30T16:02:35.062Z</when>
				<when>2024-11-30T16:03:10.909Z</when>
				<when>2024-11-30T16:03:50.768Z</when>
				<when>2024-11-30T16:04:26.583Z</when>
				<when>2024-11-30T16:05:02.407Z</when>
				<when>2024-11-30T16:05:46Z</when>
				<when>2024-11-30T16:06:24.803Z</when>
				<when>2024-11-30T16:07:09Z</when>
				<when>2024-11-30T16:07:46.784Z</when>
				<when>2024-11-30T16:08:24.664Z</when>
				<when>2024-11-30T16:09:01.504Z</when>
				<when>2024-11-30T16:09:42.378Z</when>
				<when>2024-11-30T16:10:21.22Z</when>
				<when>2024-11-30T16:11:00.014Z</when>
				<when>2024-11-30T16:11:36.805Z</when>
				<when>2024-11-30T16:12:14.643Z</when>
				<when>2024-11-30T16:12:51.498Z</when>
				<when>2024-11-30T16:13:27.355Z</when>
				<when>2024-11-30T16:14:04.208Z</when>
				<when>2024-11-30T16:14:39.982Z</when>
				<when>2024-11-30T16:15:18.836Z</when>
				<when>2024-11-30T16:15:54.693Z</when>
				<when>2024-11-30T16:16:32.496Z</when>
				<when>2024-11-30T16:17:08.34Z</when>
				<when>2024-11-30T16:17:54Z</when>
				<when>2024-11-30T16:18:29Z</when>
				<when>2024-11-30T16:19:04Z</when>
				<when>2024-11-30T16:19:39Z</when>
				<when>2024-11-30T16:20:16Z</when>
				<when>2024-11-30T16:20:51Z</when>
				<when>2024-11-30T16:21:28Z</when>
				<when>2024-11-30T16:22:10Z</when>
				<when>2024-11-30T16:22:51Z</when>
				<when>2024-11-30T16:23:30Z</when>
				<when>2024-11-30T16:24:06Z</when>
				<when>2024-11-30T16:24:47Z</when>
				<when>2024-11-30T16:25:27Z</when>
				<when>2024-11-30T16:26:06Z</when>
				<when>2024-11-30T16:26:41Z</when>
				<when>2024-11-30T16:27:21Z</when>
				<when>2024-11-30T16:27:58Z</when>
				<when>2024-11-30T16:28:34Z</when>
				<when>2024-11-30T16:29:10Z</when>
				<when>2024-11-30T16:29:49Z</when>
				<when>2024-11-30T16:30:29Z</when>
				<when>2024-11-30T16:31:09.813Z</when>
				<when>2024-11-30T16:31:44.624Z</when>
				<when>2024-11-30T16:32:19.429Z</when>
				<when>2024-11-30T16:32:58.239Z</when>
				<when>2024-11-30T16:33:33.029Z</when>
				<when>2024-11-30T16:34:09.827Z</when>
				<when>2024-11-30T16:34:45.624Z</when>
				<when>2024-11-30T16:35:22.438Z</when>
				<when>2024-11-30T16:36:06Z</when>
				<when>2024-11-30T16:36:43Z</when>
				<when>2024-11-30T16:37:20Z</when>
				<when>2024-11-30T16:37:57Z</when>
				<when>2024-11-30T16:38:32.814Z</when>
				<when>2024-11-30T16:39:36Z</when>
				<when>2024-11-30T16:40:12Z</when>
				<when>2024-11-30T16:40:48Z</when>
				<when>2024-11-30T16:41:24.798Z</when>
				<when>2024-11-30T16:42:00.617Z</when>
				<when>2024-11-30T16:42:36.466Z</when>
				<when>2024-11-30T16:43:14.267Z</when>
				<when>2024-11-30T16:43:51.061Z</when>
				<when>2024-11-30T16:44:32.874Z</when>
				<when>2024-11-30T16:45:13.681Z</when>
				<when>2024-11-30T16:45:54.424Z</when>
				<when>2024-11-30T16:46:32.228Z</when>
				<when>2024-11-30T16:47:11.006Z</when>
				<when>2024-11-30T16:47:49.815Z</when>
				<when>2024-11-30T16:48:34Z</when>
				<when>2024-11-30T16:49:09Z</when>
				<when>2024-11-30T16:49:53Z</when>
				<when>2024-11-30T16:50:32Z</when>
				<when>2024-11-30T16:51:10.806Z</when>
				<when>2024-11-30T16:52:08Z</when>
				<when>2024-11-30T16:52:46Z</when>
				<when>2024-11-30T16:53:26Z</when>
				<when>2024-11-30T16:54:07.813Z</when>
				<when>2024-11-30T16:54:53Z</when>
				<when>2024-11-30T16:55:37Z</when>
				<when>2024-11-30T16:56:15Z</when>
				<when>2024-11-30T16:56:51Z</when>
				<when>2024-11-30T16:57:28Z</when>
				<when>2024-11-30T16:58:07Z</when>
				<when>2024-11-30T16:58:46Z</when>
				<when>2024-11-30T16:59:24Z</when>
				<when>2024-11-30T17:00:03Z</when>
				<when>2024-11-30T17:00:40Z</when>
				<when>2024-11-30T17:01:19Z</when>
				<when>2024-11-30T17:01:57Z</when>
				<when>2024-11-30T17:02:34Z</when>
				<when>2024-11-30T17:03:12Z</when>
				<when>2024-11-30T17:03:52Z</when>
				<when>2024-11-30T17:04:32Z</when>
				<when>2024-11-30T17:05:35Z</when>
				<when>2024-11-30T17:06:15Z</when>
				<when>2024-11-30T17:07:04Z</when>
				<when>2024-11-30T17:07:41Z</when>
				<when>2024-11-30T17:08:18.813Z</when>
				<when>2024-11-30T17:08:56.61Z</when>
				<when>2024-11-30T17:09:33.431Z</when>
				<when>2024-11-30T17:10:10.223Z</when>
				<when>2024-11-30T17:10:48.007Z</when>
				<when>2024-11-30T17:11:24.804Z</when>
				<when>2024-11-30T17:12:00.619Z</when>
				<when>2024-11-30T17:12:41.42Z</when>
				<when>2024-11-30T17:13:39Z</when>
				<when>2024-11-30T17:14:25Z</when>
				<when>2024-11-30T17:15:04Z</when>
				<when>2024-11-30T17:15:41Z</when>
				<when>2024-11-30T17:16:18Z</when>
				<when>2024-11-30T17:16:55Z</when>
				<when>2024-11-30T17:17:34.796Z</when>
				<when>2024-11-30T17:18:16.506Z</when>
				<when>2024-11-30T17:19:04Z</when>
				<when>2024-11-30T17:19:42Z</when>
				<when>2024-11-30T17:20:35Z</when>
				<when>2024-11-30T17:21:15Z</when>
				<when>2024-11-30T17:21:58Z</when>
				<when>2024-11-30T17:22:38Z</when>
				<when>2024-11-30T17:23:26Z</when>
				<when>2024-11-30T17:24:05Z</when>
				<when>2024-11-30T17:24:45Z</when>
				<when>2024-11-30T17:25:24.73Z</when>
				<when>2024-11-30T17:26:11Z</when>
				<when>2024-11-30T17:26:50Z</when>
				<when>2024-11-30T17:27:33Z</when>
				<when>2024-11-30T17:28:13.897Z</when>
				<when>2024-11-30T17:28:58Z</when>
				<when>2024-11-30T17:29:45Z</when>
				<when>2024-11-30T17:30:23Z</when>
				<when>2024-11-30T17:31:03Z</when>
				<when>2024-11-30T17:31:50Z</when>
				<when>2024-11-30T17:32:28Z</when>
				<when>2024-11-30T17:33:08Z</when>
				<when>2024-11-30T17:33:48.761Z</when>
				<when>2024-11-30T17:34:28.502Z</when>
				<when>2024-11-30T17:35:09.234Z</when>
				<when>2024-11-30T17:35:57Z</when>
				<when>2024-11-30T17:36:37Z</when>
				<when>2024-11-30T17:37:15Z</when>
				<when>2024-11-30T17:38:02Z</when>
				<when>2024-11-30T17:38:41Z</when>
				<when>2024-11-30T17:39:19Z</when>
				<when>2024-11-30T17:39:57Z</when>
				<when>2024-11-30T17:40:36Z</when>
				<when>2024-11-30T17:41:19.752Z</when>
				<when>2024-11-30T17:41:59.484Z</when>
				<when>2024-11-30T17:42:40.235Z</when>
				<when>2024-11-30T17:43:20.988Z</when>
				<when>2024-11-30T17:44:00.724Z</when>
				<when>2024-11-30T17:44:42.484Z</when>
				<when>2024-11-30T17:45:23.218Z</when>
				<when>2024-11-30T17:46:04.973Z</when>
				<when>2024-11-30T17:46:44.711Z</when>
				<when>2024-11-30T17:47:24.486Z</when>
				<when>2024-11-30T17:48:04.224Z</when>
				<when>2024-11-30T17:48:48Z</when>
				<when>2024-11-30T17:49:27Z</when>
				<when>2024-11-30T17:50:07Z</when>
				<gx:coord>-71.638321 -16.308751 2603.2</gx:coord>
				<gx:coord>-71.63808299999999 -16.308505 2602.9</gx:coord>
				<gx:coord>-71.638215 -16.309041 0</gx:coord>
				<gx:coord>-71.638231 -16.308686 2662.2</gx:coord>
				<gx:coord>-71.638148 -16.308545 2606.9</gx:coord>
				<gx:coord>-71.638156 -16.308536 2607</gx:coord>
				<gx:coord>-71.638161 -16.308521 2608</gx:coord>
				<gx:coord>-71.638195 -16.308546 2607.8</gx:coord>
				<gx:coord>-71.63818000000001 -16.308565 2619.5</gx:coord>
				<gx:coord>-71.63818499999999 -16.308551 2619.2</gx:coord>
				<gx:coord>-71.638143 -16.308555 2615</gx:coord>
				<gx:coord>-71.638103 -16.308581 2614.2</gx:coord>
				<gx:coord>-71.63807 -16.308566 2612.6</gx:coord>
				<gx:coord>-71.63811 -16.308528 2612.6</gx:coord>
				<gx:coord>-71.63803799999999 -16.308578 2612.5</gx:coord>
				<gx:coord>-71.638143 -16.308553 2614</gx:coord>
				<gx:coord>-71.638071 -16.308558 2613.4</gx:coord>
				<gx:coord>-71.63811 -16.30856 2612.3</gx:coord>
				<gx:coord>-71.63814499999999 -16.308553 2612.3</gx:coord>
				<gx:coord>-71.638035 -16.30853 2612.1</gx:coord>
				<gx:coord>-71.63817 -16.308546 2612.3</gx:coord>
				<gx:coord>-71.638125 -16.308533 2612.3</gx:coord>
				<gx:coord>-71.63820800000001 -16.308523 2611.7</gx:coord>
				<gx:coord>-71.638098 -16.308536 2610.6</gx:coord>
				<gx:coord>-71.638166 -16.30856 2611.6</gx:coord>
				<gx:coord>-71.638255 -16.308495 2631.7</gx:coord>
				<gx:coord>-71.638091 -16.308553 2630.4</gx:coord>
				<gx:coord>-71.63822 -16.30851 2628.1</gx:coord>
				<gx:coord>-71.638156 -16.308505 2626.7</gx:coord>
				<gx:coord>-71.63819599999999 -16.308521 2626.4</gx:coord>
				<gx:coord>-71.638195 -16.308548 2626.1</gx:coord>
				<gx:coord>-71.63823499999999 -16.308533 2626.2</gx:coord>
				<gx:coord>-71.63812799999999 -16.308566 2624.6</gx:coord>
				<gx:coord>-71.638176 -16.308536 2627.2</gx:coord>
				<gx:coord>-71.63816300000001 -16.308568 2627</gx:coord>
				<gx:coord>-71.63817 -16.308551 2623.4</gx:coord>
				<gx:coord>-71.63815 -16.308521 2621.8</gx:coord>
				<gx:coord>-71.638166 -16.308528 2621.6</gx:coord>
				<gx:coord>-71.638251 -16.308525 2621.4</gx:coord>
				<gx:coord>-71.63821799999999 -16.308455 2621.2</gx:coord>
				<gx:coord>-71.638221 -16.308483 2621.2</gx:coord>
				<gx:coord>-71.638231 -16.308551 2621.3</gx:coord>
				<gx:coord>-71.638193 -16.308746 2621.7</gx:coord>
				<gx:coord>-71.63826299999999 -16.308963 2621.5</gx:coord>
				<gx:coord>-71.63837599999999 -16.309066 2621.4</gx:coord>
				<gx:coord>-71.63827499999999 -16.309016 2605.4</gx:coord>
				<gx:coord>-71.63814499999999 -16.308941 2606.5</gx:coord>
				<gx:coord>-71.638335 -16.30896 2608.5</gx:coord>
				<gx:coord>-71.638425 -16.309123 2609.6</gx:coord>
				<gx:coord>-71.638435 -16.309083 2610.1</gx:coord>
				<gx:coord>-71.638453 -16.309151 2609.9</gx:coord>
				<gx:coord>-71.638383 -16.309331 2612.8</gx:coord>
				<gx:coord>-71.638301 -16.309066 2614.3</gx:coord>
				<gx:coord>-71.638335 -16.309031 2614.2</gx:coord>
				<gx:coord>-71.63837599999999 -16.309161 2613.6</gx:coord>
				<gx:coord>-71.638378 -16.309118 2612.5</gx:coord>
				<gx:coord>-71.638346 -16.309303 2612.4</gx:coord>
				<gx:coord>-71.63845000000001 -16.309296 2614.3</gx:coord>
				<gx:coord>-71.638383 -16.30926 2606.2</gx:coord>
				<gx:coord>-71.63845999999999 -16.309333 2606.2</gx:coord>
				<gx:coord>-71.638361 -16.309305 2606.2</gx:coord>
				<gx:coord>-71.63841600000001 -16.309335 2606.2</gx:coord>
				<gx:coord>-71.63842 -16.309245 2605.9</gx:coord>
				<gx:coord>-71.638391 -16.309273 2605.5</gx:coord>
				<gx:coord>-71.63845600000001 -16.309308 2593.7</gx:coord>
				<gx:coord>-71.63841600000001 -16.309341 2595</gx:coord>
				<gx:coord>-71.63846100000001 -16.30934 2595.1</gx:coord>
				<gx:coord>-71.638485 -16.309338 2595.1</gx:coord>
				<gx:coord>-71.63881000000001 -16.30922 2597.7</gx:coord>
				<gx:coord>-71.638965 -16.309125 2605.8</gx:coord>
				<gx:coord>-71.639155 -16.309106 2604.1</gx:coord>
				<gx:coord>-71.63907 -16.309103 2604.1</gx:coord>
				<gx:coord>-71.63912000000001 -16.309063 2606.3</gx:coord>
				<gx:coord>-71.639095 -16.309046 2610.1</gx:coord>
				<gx:coord>-71.639183 -16.309045 2608.9</gx:coord>
				<gx:coord>-71.639523 -16.308973 2630.5</gx:coord>
				<gx:coord>-71.63945099999999 -16.308956 2626.7</gx:coord>
				<gx:coord>-71.639386 -16.30887 2622.8</gx:coord>
				<gx:coord>-71.639413 -16.308956 2618.2</gx:coord>
				<gx:coord>-71.639436 -16.308933 2618.5</gx:coord>
				<gx:coord>-71.63946300000001 -16.308916 2616.6</gx:coord>
				<gx:coord>-71.639476 -16.308898 2615.4</gx:coord>
				<gx:coord>-71.63939499999999 -16.309001 2615.5</gx:coord>
				<gx:coord>-71.63945 -16.308826 2621.4</gx:coord>
				<gx:coord>-71.639426 -16.308838 2621.4</gx:coord>
				<gx:coord>-71.63934500000001 -16.308886 2621</gx:coord>
				<gx:coord>-71.639555 -16.308905 2620.8</gx:coord>
				<gx:coord>-71.639503 -16.308895 2621.2</gx:coord>
				<gx:coord>-71.63947 -16.308965 2619.9</gx:coord>
				<gx:coord>-71.639325 -16.308873 2619.7</gx:coord>
				<gx:coord>-71.639338 -16.308878 2619.7</gx:coord>
				<gx:coord>-71.63935600000001 -16.308943 2618.6</gx:coord>
				<gx:coord>-71.63942299999999 -16.30883 2614.8</gx:coord>
				<gx:coord>-71.639455 -16.308858 2615.2</gx:coord>
				<gx:coord>-71.63946799999999 -16.308916 2615.3</gx:coord>
				<gx:coord>-71.639456 -16.308896 2615.2</gx:coord>
				<gx:coord>-71.639453 -16.308883 2616.7</gx:coord>
				<gx:coord>-71.63940599999999 -16.30887 2618</gx:coord>
				<gx:coord>-71.639411 -16.30891 2611.9</gx:coord>
				<gx:coord>-71.639483 -16.309213 2611.8</gx:coord>
				<gx:coord>-71.639596 -16.309198 2611.7</gx:coord>
				<gx:coord>-71.63949100000001 -16.308953 2610</gx:coord>
				<gx:coord>-71.639453 -16.308906 2609.9</gx:coord>
				<gx:coord>-71.63947 -16.308878 2608.9</gx:coord>
				<gx:coord>-71.63939499999999 -16.308988 2613.1</gx:coord>
				<gx:coord>-71.639431 -16.308891 2608.6</gx:coord>
				<gx:coord>-71.63936099999999 -16.30889 2608.4</gx:coord>
				<gx:coord>-71.639386 -16.308908 2605</gx:coord>
				<gx:coord>-71.639505 -16.308871 2605</gx:coord>
				<gx:coord>-71.63939499999999 -16.308853 2604</gx:coord>
				<gx:coord>-71.63943999999999 -16.30881 2604.9</gx:coord>
				<gx:coord>-71.639493 -16.309188 2604.9</gx:coord>
				<gx:coord>-71.639605 -16.30942 2604.5</gx:coord>
				<gx:coord>-71.6397 -16.309523 2603</gx:coord>
				<gx:coord>-71.639715 -16.309693 2603.3</gx:coord>
				<gx:coord>-71.63979 -16.309883 2601.1</gx:coord>
				<gx:coord>-71.639836 -16.309861 2600.2</gx:coord>
				<gx:coord>-71.63978299999999 -16.309898 2598.8</gx:coord>
				<gx:coord>-71.63972099999999 -16.309885 2595.1</gx:coord>
				<gx:coord>-71.639765 -16.309878 2594.9</gx:coord>
				<gx:coord>-71.639793 -16.309871 2596.4</gx:coord>
				<gx:coord>-71.639763 -16.310068 2596.3</gx:coord>
				<gx:coord>-71.63988000000001 -16.309905 2596.3</gx:coord>
				<gx:coord>-71.639855 -16.309918 2596.3</gx:coord>
				<gx:coord>-71.63977 -16.309851 2596.4</gx:coord>
				<gx:coord>-71.639725 -16.30993 2596.1</gx:coord>
				<gx:coord>-71.639731 -16.309875 2596</gx:coord>
				<gx:coord>-71.63976 -16.309893 2590.5</gx:coord>
				<gx:coord>-71.639765 -16.309876 2592</gx:coord>
				<gx:coord>-71.63984600000001 -16.309915 2594.7</gx:coord>
				<gx:coord>-71.639753 -16.309888 2593.2</gx:coord>
				<gx:coord>-71.639815 -16.309945 2594.3</gx:coord>
				<gx:coord>-71.639788 -16.309888 2587.9</gx:coord>
				<gx:coord>-71.639771 -16.309848 2590.2</gx:coord>
				<gx:coord>-71.639798 -16.309891 2591.9</gx:coord>
				<gx:coord>-71.63973799999999 -16.309866 2591.5</gx:coord>
				<gx:coord>-71.639763 -16.309868 2590.9</gx:coord>
				<gx:coord>-71.639726 -16.309903 2592.6</gx:coord>
				<gx:coord>-71.63984600000001 -16.309923 2591.9</gx:coord>
				<gx:coord>-71.63981 -16.309953 2591.7</gx:coord>
				<gx:coord>-71.639775 -16.309853 2589</gx:coord>
				<gx:coord>-71.63981099999999 -16.30988 2591.5</gx:coord>
				<gx:coord>-71.639746 -16.309908 2594.8</gx:coord>
				<gx:coord>-71.639803 -16.309815 2594.3</gx:coord>
				<gx:coord>-71.639753 -16.309895 2594.6</gx:coord>
				<gx:coord>-71.639881 -16.310136 2595.3</gx:coord>
				<gx:coord>-71.639753 -16.31025 2595.2</gx:coord>
				<gx:coord>-71.639566 -16.31039 2596.6</gx:coord>
				<gx:coord>-71.639245 -16.310465 2596.6</gx:coord>
				<gx:coord>-71.639038 -16.310665 2594.2</gx:coord>
				<gx:coord>-71.639201 -16.310805 2594</gx:coord>
				<gx:coord>-71.63914 -16.310736 2587.2</gx:coord>
				<gx:coord>-71.639178 -16.310711 2587.2</gx:coord>
				<gx:coord>-71.63909099999999 -16.310736 2583.3</gx:coord>
				<gx:coord>-71.63905800000001 -16.310748 2583.6</gx:coord>
				<gx:coord>-71.639053 -16.31078 2583.4</gx:coord>
				<gx:coord>-71.639171 -16.31072 2589.5</gx:coord>
				<gx:coord>-71.63906 -16.310738 2592.1</gx:coord>
				<gx:coord>-71.639043 -16.310641 2594.7</gx:coord>
				<gx:coord>-71.639118 -16.310753 2596.3</gx:coord>
				<gx:coord>-71.63911 -16.310705 2594.2</gx:coord>
				<gx:coord>-71.639116 -16.31095 2594.4</gx:coord>
				<gx:coord>-71.63930000000001 -16.311063 2594.5</gx:coord>
				<gx:coord>-71.639196 -16.311043 2594.3</gx:coord>
				<gx:coord>-71.639116 -16.310921 2592.8</gx:coord>
				<gx:coord>-71.639168 -16.31101 2594.8</gx:coord>
				<gx:coord>-71.639216 -16.310996 2594.2</gx:coord>
				<gx:coord>-71.638991 -16.310998 2588.3</gx:coord>
				<gx:coord>-71.639341 -16.311188 2594.3</gx:coord>
				<gx:coord>-71.63925999999999 -16.311123 2594.5</gx:coord>
				<gx:coord>-71.639155 -16.31113 2588.2</gx:coord>
				<gx:coord>-71.63913100000001 -16.311033 2587.3</gx:coord>
				<gx:coord>-71.639195 -16.310993 2589.4</gx:coord>
				<gx:coord>-71.639078 -16.311026 2585.2</gx:coord>
				<gx:coord>-71.63922100000001 -16.310995 2586.6</gx:coord>
				<gx:coord>-71.639106 -16.311023 2584</gx:coord>
				<gx:coord>-71.639205 -16.311228 2584.5</gx:coord>
				<gx:coord>-71.63937799999999 -16.311556 2584.3</gx:coord>
				<gx:coord>-71.63948600000001 -16.311605 2583.2</gx:coord>
				<gx:coord>-71.639323 -16.311638 2584.3</gx:coord>
				<gx:coord>-71.639353 -16.311616 2582</gx:coord>
				<gx:coord>-71.63939999999999 -16.311575 2579.4</gx:coord>
				<gx:coord>-71.639421 -16.311578 2579.5</gx:coord>
				<gx:coord>-71.63943500000001 -16.311618 2582.4</gx:coord>
				<gx:coord>-71.639396 -16.311601 2580.8</gx:coord>
				<gx:coord>-71.63936 -16.311583 2581.9</gx:coord>
				<gx:coord>-71.639323 -16.311546 2577.5</gx:coord>
				<gx:coord>-71.639495 -16.31165 2578.2</gx:coord>
				<gx:coord>-71.639368 -16.311585 2583</gx:coord>
				<gx:coord>-71.639393 -16.31162 2583.5</gx:coord>
				<gx:coord>-71.63940100000001 -16.311625 2583.4</gx:coord>
				<gx:coord>-71.639515 -16.311455 2587.4</gx:coord>
				<gx:coord>-71.639503 -16.311501 2589.4</gx:coord>
				<gx:coord>-71.639431 -16.311786 2589.2</gx:coord>
				<gx:coord>-71.639481 -16.312041 2589.8</gx:coord>
				<gx:coord>-71.6396 -16.31198 2589.4</gx:coord>
				<gx:coord>-71.639613 -16.311973 2590.4</gx:coord>
				<gx:coord>-71.639556 -16.312006 2586.9</gx:coord>
				<gx:coord>-71.639506 -16.31196 2586.4</gx:coord>
				<gx:coord>-71.639528 -16.31202 2585.9</gx:coord>
				<gx:coord>-71.639696 -16.312243 2586.9</gx:coord>
				<gx:coord>-71.639933 -16.312363 2585.8</gx:coord>
				<gx:coord>-71.64011499999999 -16.312283 2585.6</gx:coord>
				<gx:coord>-71.640141 -16.312266 2587.4</gx:coord>
				<gx:coord>-71.640171 -16.312401 2587.3</gx:coord>
				<gx:coord>-71.640113 -16.312286 2587.5</gx:coord>
				<gx:coord>-71.640176 -16.312241 2590.3</gx:coord>
				<gx:coord>-71.640181 -16.31223 2590.5</gx:coord>
				<gx:coord>-71.6401 -16.312123 2590.599999999999</gx:coord>
				<gx:coord>-71.64015000000001 -16.312263 2590.5</gx:coord>
				<gx:coord>-71.64008800000001 -16.312083 2595</gx:coord>
				<gx:coord>-71.64019 -16.312185 2595</gx:coord>
				<gx:coord>-71.64009299999999 -16.312146 2597.6</gx:coord>
				<gx:coord>-71.64013 -16.312288 2595.7</gx:coord>
				<gx:coord>-71.640063 -16.312225 2596.1</gx:coord>
				<gx:coord>-71.64009299999999 -16.312118 2593</gx:coord>
				<gx:coord>-71.640298 -16.312171 2589.8</gx:coord>
				<gx:coord>-71.640418 -16.311981 2588.8</gx:coord>
				<gx:coord>-71.64061100000001 -16.31202 2588.1</gx:coord>
				<gx:coord>-71.6407 -16.312138 2584.4</gx:coord>
				<gx:coord>-71.640748 -16.312488 2585</gx:coord>
				<gx:coord>-71.64097599999999 -16.31279 2586.1</gx:coord>
				<gx:coord>-71.64091999999999 -16.312791 2583.5</gx:coord>
				<gx:coord>-71.641013 -16.312931 2582.4</gx:coord>
				<gx:coord>-71.641023 -16.312708 2582.5</gx:coord>
				<gx:coord>-71.64074100000001 -16.312745 2581</gx:coord>
				<gx:coord>-71.64101599999999 -16.312821 2582.2</gx:coord>
				<gx:coord>-71.640883 -16.312786 2579.4</gx:coord>
				<gx:coord>-71.641023 -16.312871 2574.2</gx:coord>
				<gx:coord>-71.640928 -16.312781 2576.6</gx:coord>
				<gx:coord>-71.641138 -16.312925 2577.8</gx:coord>
				<gx:coord>-71.641041 -16.312751 2577.5</gx:coord>
				<gx:coord>-71.64093099999999 -16.31279 2577.9</gx:coord>
				<gx:coord>-71.640845 -16.312691 2579.4</gx:coord>
				<gx:coord>-71.640863 -16.312715 2577.4</gx:coord>
				<gx:coord>-71.640878 -16.31281 2587.7</gx:coord>
				<gx:coord>-71.640986 -16.312818 2587.2</gx:coord>
				<gx:coord>-71.641035 -16.312863 2587.4</gx:coord>
				<gx:coord>-71.641008 -16.312878 2586.8</gx:coord>
				<gx:coord>-71.641043 -16.312871 2586.2</gx:coord>
				<gx:coord>-71.640818 -16.312753 2584.7</gx:coord>
				<gx:coord>-71.64111800000001 -16.312896 2585.8</gx:coord>
				<gx:coord>-71.641071 -16.312906 2585.6</gx:coord>
				<gx:coord>-71.64089300000001 -16.312795 2585.5</gx:coord>
				<gx:coord>-71.640936 -16.31286 2585.7</gx:coord>
				<gx:coord>-71.64097599999999 -16.312785 2584.3</gx:coord>
				<gx:coord>-71.640816 -16.31273 2573.1</gx:coord>
				<gx:coord>-71.640986 -16.312943 2576.6</gx:coord>
				<gx:coord>-71.641051 -16.313145 2578.6</gx:coord>
				<gx:coord>-71.64114600000001 -16.313478 2581.7</gx:coord>
				<gx:coord>-71.64136499999999 -16.31369 2585.6</gx:coord>
				<gx:coord>-71.64131 -16.313856 2586.1</gx:coord>
				<gx:coord>-71.64152300000001 -16.314083 2584.4</gx:coord>
				<gx:coord>-71.64165800000001 -16.314118 2584</gx:coord>
				<gx:coord>-71.64166299999999 -16.314178 2551.5</gx:coord>
				<gx:coord>-71.641565 -16.314143 2577.8</gx:coord>
				<gx:coord>-71.641558 -16.314118 2575.9</gx:coord>
				<gx:coord>-71.64176500000001 -16.31413 2569.1</gx:coord>
				<gx:coord>-71.64151099999999 -16.31413 2567.3</gx:coord>
				<gx:coord>-71.64150100000001 -16.31416 2554</gx:coord>
				<gx:coord>-71.641543 -16.314255 2559</gx:coord>
				<gx:coord>-71.641696 -16.314276 2576.9</gx:coord>
				<gx:coord>-71.64161799999999 -16.314325 2576.9</gx:coord>
				<gx:coord>-71.64161 -16.314298 2579.5</gx:coord>
				<gx:coord>-71.64165 -16.314363 2579.5</gx:coord>
				<gx:coord>-71.641718 -16.314245 2579.3</gx:coord>
				<gx:coord>-71.641643 -16.31435 2588.3</gx:coord>
				<gx:coord>-71.641831 -16.314246 2585.5</gx:coord>
				<gx:coord>-71.64176999999999 -16.314201 2587.1</gx:coord>
				<gx:coord>-71.641786 -16.314216 2585.3</gx:coord>
				<gx:coord>-71.6417 -16.314278 2578.8</gx:coord>
				<gx:coord>-71.641745 -16.314245 2578.5</gx:coord>
				<gx:coord>-71.64172600000001 -16.314203 2570.5</gx:coord>
				<gx:coord>-71.641498 -16.314178 2571</gx:coord>
				<gx:coord>-71.641503 -16.314183 2591</gx:coord>
				<gx:coord>-71.6417 -16.314303 2593.6</gx:coord>
				<gx:coord>-71.641586 -16.314171 2576.8</gx:coord>
				<gx:coord>-71.64165800000001 -16.314571 2583.6</gx:coord>
				<gx:coord>-71.641746 -16.31483 2578.1</gx:coord>
				<gx:coord>-71.64196800000001 -16.315155 2577.2</gx:coord>
				<gx:coord>-71.642298 -16.315168 2576.3</gx:coord>
				<gx:coord>-71.642248 -16.315033 2577.2</gx:coord>
				<gx:coord>-71.64203999999999 -16.315295 2570.9</gx:coord>
				<gx:coord>-71.64234 -16.31555 2568.9</gx:coord>
				<gx:coord>-71.642633 -16.315395 2568.6</gx:coord>
				<gx:coord>-71.642843 -16.315333 2562.4</gx:coord>
				<gx:coord>-71.64312099999999 -16.315201 2562.2</gx:coord>
				<gx:coord>-71.643193 -16.31519 2560.5</gx:coord>
				<gx:coord>-71.643123 -16.315083 2552.6</gx:coord>
				<gx:coord>-71.64329600000001 -16.315058 2552.7</gx:coord>
				<gx:coord>-71.643125 -16.315103 2546.9</gx:coord>
				<gx:coord>-71.64327 -16.314986 2558.7</gx:coord>
				<gx:coord>-71.64313799999999 -16.315106 2548.8</gx:coord>
				<gx:coord>-71.643163 -16.315283 2548.3</gx:coord>
				<gx:coord>-71.643325 -16.315168 2537.5</gx:coord>
				<gx:coord>-71.643248 -16.314961 2537.5</gx:coord>
				<gx:coord>-71.643126 -16.315195 2522.3</gx:coord>
				<gx:coord>-71.643221 -16.315065 2544.7</gx:coord>
				<gx:coord>-71.643181 -16.31521 2553.8</gx:coord>
				<gx:coord>-71.64335 -16.315238 2543.7</gx:coord>
				<gx:coord>-71.643158 -16.31518 2518.5</gx:coord>
				<gx:coord>-71.643113 -16.315128 2538.6</gx:coord>
				<gx:coord>-71.64332 -16.315081 2555.4</gx:coord>
				<gx:coord>-71.643298 -16.315081 2555.9</gx:coord>
				<gx:coord>-71.643201 -16.315013 2555.3</gx:coord>
				<gx:coord>-71.643308 -16.315105 2554.4</gx:coord>
				<gx:coord>-71.643248 -16.315101 2546.4</gx:coord>
				<gx:coord>-71.64309 -16.315201 2555.7</gx:coord>
				<gx:coord>-71.643278 -16.315051 2550.8</gx:coord>
				<gx:coord>-71.64379099999999 -16.31487 2581.7</gx:coord>
				<gx:coord>-71.643715 -16.31501 2566.3</gx:coord>
				<gx:coord>-71.64393 -16.315091 2558.7</gx:coord>
				<gx:coord>-71.644171 -16.315346 2564.2</gx:coord>
				<gx:coord>-71.64422999999999 -16.31558 2551.8</gx:coord>
				<gx:coord>-71.64438 -16.315636 2552.6</gx:coord>
				<gx:coord>-71.64422500000001 -16.315695 2564.7</gx:coord>
				<gx:coord>-71.64412 -16.31571 2550.9</gx:coord>
				<gx:coord>-71.64400999999999 -16.315765 2551.8</gx:coord>
				<gx:coord>-71.644155 -16.315831 2562.5</gx:coord>
				<gx:coord>-71.644093 -16.315813 2547.5</gx:coord>
				<gx:coord>-71.644026 -16.31588 2559.6</gx:coord>
				<gx:coord>-71.64414600000001 -16.315781 2554.5</gx:coord>
				<gx:coord>-71.64410599999999 -16.315738 2551.9</gx:coord>
				<gx:coord>-71.643951 -16.315865 2546.3</gx:coord>
				<gx:coord>-71.643625 -16.316001 2553.4</gx:coord>
				<gx:coord>-71.643685 -16.316006 2551</gx:coord>
				<gx:coord>-71.643433 -16.316128 2550</gx:coord>
				<gx:coord>-71.643148 -16.316175 2561.9</gx:coord>
				<gx:coord>-71.642821 -16.316283 2570.7</gx:coord>
				<gx:coord>-71.64272099999999 -16.316396 2577.7</gx:coord>
				<gx:coord>-71.642686 -16.316356 2569.3</gx:coord>
				<gx:coord>-71.642805 -16.316423 2568.1</gx:coord>
				<gx:coord>-71.642831 -16.316313 2569.2</gx:coord>
				<gx:coord>-71.64262600000001 -16.31639 2560</gx:coord>
				<gx:coord>-71.642505 -16.316535 2578.9</gx:coord>
				<gx:coord>-71.64252 -16.316916 2576.5</gx:coord>
				<gx:coord>-71.64286300000001 -16.316861 2584</gx:coord>
				<gx:coord>-71.642996 -16.316913 2584.1</gx:coord>
				<gx:coord>-71.642781 -16.31696 2587.6</gx:coord>
				<gx:coord>-71.642931 -16.316841 2584.1</gx:coord>
				<gx:coord>-71.642866 -16.316796 2624.1</gx:coord>
				<gx:coord>-71.64263099999999 -16.316901 0</gx:coord>
				<gx:coord>-71.64285 -16.316868 2599</gx:coord>
				<gx:coord>-71.64277800000001 -16.3169 2602.9</gx:coord>
				<gx:coord>-71.642726 -16.31692 2582.9</gx:coord>
				<gx:coord>-71.642923 -16.316863 2584.9</gx:coord>
				<gx:coord>-71.642843 -16.316861 2598.4</gx:coord>
				<gx:coord>-71.64259300000001 -16.316878 2599.4</gx:coord>
				<gx:coord>-71.643045 -16.316895 2602.6</gx:coord>
				<gx:coord>-71.643051 -16.316778 2609.2</gx:coord>
				<gx:coord>-71.642903 -16.316705 2620.6</gx:coord>
				<gx:coord>-71.642533 -16.316906 2581.2</gx:coord>
				<gx:coord>-71.64295 -16.316565 2581.7</gx:coord>
				<gx:coord>-71.643061 -16.316878 2585.2</gx:coord>
				<gx:coord>-71.642751 -16.316873 2595.9</gx:coord>
				<gx:coord>-71.642793 -16.316886 2583.6</gx:coord>
				<gx:coord>-71.64275000000001 -16.316863 2578.2</gx:coord>
				<gx:coord>-71.64314 -16.31684 2620.2</gx:coord>
				<gx:coord>-71.64296299999999 -16.316866 2605.8</gx:coord>
				<gx:coord>-71.64297500000001 -16.316846 2569</gx:coord>
				<gx:coord>-71.642735 -16.316963 2569</gx:coord>
				<gx:coord>-71.642768 -16.317005 2569.2</gx:coord>
				<gx:coord>-71.642855 -16.317083 2569</gx:coord>
				<gx:coord>-71.64309299999999 -16.316883 2613.9</gx:coord>
				<gx:coord>-71.642791 -16.316843 2610.2</gx:coord>
				<gx:coord>-71.64277300000001 -16.316896 2585.7</gx:coord>
				<gx:coord>-71.642591 -16.316933 2583.6</gx:coord>
				<gx:coord>-71.64255 -16.31695 2547</gx:coord>
				<gx:coord>-71.642741 -16.316956 2569.2</gx:coord>
				<gx:coord>-71.642763 -16.31681 2594.5</gx:coord>
				<gx:coord>-71.642706 -16.316978 2596.2</gx:coord>
				<gx:coord>-71.64259800000001 -16.316943 2593.7</gx:coord>
				<gx:coord>-71.642836 -16.317043 2593.5</gx:coord>
				<gx:coord>-71.642825 -16.31698 2593.5</gx:coord>
				<gx:coord>-71.642706 -16.317021 2593.4</gx:coord>
				<gx:coord>-71.64284499999999 -16.317073 2593.7</gx:coord>
				<gx:coord>-71.64282799999999 -16.316963 2593.6</gx:coord>
				<gx:coord>-71.642798 -16.317113 2593.8</gx:coord>
				<gx:coord>-71.642883 -16.31702 2593.6</gx:coord>
				<gx:coord>-71.642906 -16.317028 2593.8</gx:coord>
				<gx:coord>-71.642695 -16.317025 2588.7</gx:coord>
				<gx:coord>-71.64268300000001 -16.317091 2587.7</gx:coord>
				<gx:coord>-71.642633 -16.317023 2594.3</gx:coord>
				<gx:coord>-71.64285099999999 -16.3168 2592.8</gx:coord>
				<gx:coord>-71.64267100000001 -16.31681 2574.9</gx:coord>
			</gx:Track>
		</Placemark>
	</Folder>
</Document>
</kml>
