<?xml version="1.0" encoding="UTF-8"?>
<kml xmlns="http://www.opengis.net/kml/2.2" xmlns:gx="http://www.google.com/kml/ext/2.2" xmlns:kml="http://www.opengis.net/kml/2.2" xmlns:atom="http://www.w3.org/2005/Atom">
<Document>
	<name>GPS-49  30-11-2024 GRUPO 08</name>
	<visibility>0</visibility>
	<snippet>Created vie. Mar. 14 10:58:40 2025</snippet>
	<LookAt>
		<gx:TimeSpan>
			<begin>2024-11-30T13:15:24Z</begin>
			<end>2024-11-30T19:21:12.947Z</end>
		</gx:TimeSpan>
		<longitude>-71.62706300000001</longitude>
		<latitude>-16.2954</latitude>
		<altitude>0</altitude>
		<heading>0</heading>
		<tilt>0</tilt>
		<range>1300</range>
	</LookAt>
	<atom:link rel="app" href="https://www.google.com/earth/about/versions/#earth-pro" title="Google Earth Pro 7.3.6.10441"></atom:link>
	<StyleMap id="multiTrack71112">
		<Pair>
			<key>normal</key>
			<styleUrl>#multiTrack_n71112</styleUrl>
		</Pair>
		<Pair>
			<key>highlight</key>
			<styleUrl>#multiTrack_h71112</styleUrl>
		</Pair>
	</StyleMap>
	<Style id="multiTrack_h71112">
		<IconStyle>
			<scale>1.2</scale>
			<Icon>
				<href>https://earth.google.com/images/kml-icons/track-directional/track-0.png</href>
			</Icon>
		</IconStyle>
		<LineStyle>
			<color>99ffac59</color>
			<width>8</width>
		</LineStyle>
	</Style>
	<Style id="multiTrack_n71112">
		<IconStyle>
			<Icon>
				<href>https://earth.google.com/images/kml-icons/track-directional/track-0.png</href>
			</Icon>
		</IconStyle>
		<LineStyle>
			<color>99ffac59</color>
			<width>6</width>
		</LineStyle>
	</Style>
	<Folder>
		<name>Tracks</name>
		<visibility>0</visibility>
		<Placemark>
			<name>GT-49  30-11-2024 GRUPO 08</name>
			<visibility>0</visibility>
			<styleUrl>#multiTrack71112</styleUrl>
			<gx:Track>
				<when>2024-11-30T13:15:24Z</when>
				<when>2024-11-30T13:24:35.141Z</when>
				<when>2024-11-30T13:24:35.141Z</when>
				<when>2024-11-30T13:26:33.856Z</when>
				<when>2024-11-30T13:26:33.856Z</when>
				<when>2024-11-30T13:31:11.951Z</when>
				<when>2024-11-30T13:31:47.951Z</when>
				<when>2024-11-30T13:32:23.951Z</when>
				<when>2024-11-30T13:35:31.848Z</when>
				<when>2024-11-30T13:35:31.848Z</when>
				<when>2024-11-30T13:36:48.685Z</when>
				<when>2024-11-30T13:36:48.685Z</when>
				<when>2024-11-30T13:39:28.014Z</when>
				<when>2024-11-30T13:40:02.692Z</when>
				<when>2024-11-30T13:40:48.437Z</when>
				<when>2024-11-30T13:40:48.437Z</when>
				<when>2024-11-30T13:41:08.5Z</when>
				<when>2024-11-30T13:41:25.313Z</when>
				<when>2024-11-30T13:41:25.313Z</when>
				<when>2024-11-30T13:42:27.505Z</when>
				<when>2024-11-30T13:43:04.215Z</when>
				<when>2024-11-30T13:43:38.922Z</when>
				<when>2024-11-30T13:44:13.602Z</when>
				<when>2024-11-30T13:44:50.303Z</when>
				<when>2024-11-30T13:45:25.005Z</when>
				<when>2024-11-30T13:46:02.715Z</when>
				<when>2024-11-30T13:46:40.397Z</when>
				<when>2024-11-30T13:47:15.112Z</when>
				<when>2024-11-30T13:47:51.813Z</when>
				<when>2024-11-30T13:48:26.511Z</when>
				<when>2024-11-30T13:49:01.204Z</when>
				<when>2024-11-30T13:49:35.91Z</when>
				<when>2024-11-30T13:50:12.598Z</when>
				<when>2024-11-30T13:50:47.305Z</when>
				<when>2024-11-30T13:51:22.001Z</when>
				<when>2024-11-30T13:52:00.703Z</when>
				<when>2024-11-30T13:52:36.406Z</when>
				<when>2024-11-30T13:53:11.157Z</when>
				<when>2024-11-30T13:53:45.858Z</when>
				<when>2024-11-30T13:54:28.56Z</when>
				<when>2024-11-30T13:55:13.274Z</when>
				<when>2024-11-30T13:55:48.274Z</when>
				<when>2024-11-30T13:56:23.274Z</when>
				<when>2024-11-30T13:56:58.274Z</when>
				<when>2024-11-30T13:57:33.274Z</when>
				<when>2024-11-30T13:58:08.274Z</when>
				<when>2024-11-30T13:58:43.274Z</when>
				<when>2024-11-30T13:59:18.274Z</when>
				<when>2024-11-30T13:59:53.274Z</when>
				<when>2024-11-30T14:00:28.274Z</when>
				<when>2024-11-30T14:01:03.274Z</when>
				<when>2024-11-30T14:01:39.274Z</when>
				<when>2024-11-30T14:02:14.274Z</when>
				<when>2024-11-30T14:02:51.274Z</when>
				<when>2024-11-30T14:03:26.274Z</when>
				<when>2024-11-30T14:03:52.044Z</when>
				<when>2024-11-30T14:03:52.044Z</when>
				<when>2024-11-30T14:04:18.007Z</when>
				<when>2024-11-30T14:04:18.007Z</when>
				<when>2024-11-30T14:05:16.233Z</when>
				<when>2024-11-30T14:06:38.785Z</when>
				<when>2024-11-30T14:06:38.963Z</when>
				<when>2024-11-30T14:10:31.629Z</when>
				<when>2024-11-30T14:10:31.629Z</when>
				<when>2024-11-30T14:11:33.964Z</when>
				<when>2024-11-30T14:12:25.771Z</when>
				<when>2024-11-30T14:12:25.771Z</when>
				<when>2024-11-30T14:13:22.091Z</when>
				<when>2024-11-30T14:13:56.67Z</when>
				<when>2024-11-30T14:13:56.67Z</when>
				<when>2024-11-30T14:14:48.181Z</when>
				<when>2024-11-30T14:15:49.022Z</when>
				<when>2024-11-30T14:15:49.022Z</when>
				<when>2024-11-30T14:16:16.652Z</when>
				<when>2024-11-30T14:17:29.479Z</when>
				<when>2024-11-30T14:18:47.378Z</when>
				<when>2024-11-30T14:18:47.378Z</when>
				<when>2024-11-30T14:18:47.378Z</when>
				<when>2024-11-30T14:20:26.042Z</when>
				<when>2024-11-30T14:20:52.433Z</when>
				<when>2024-11-30T14:20:52.896Z</when>
				<when>2024-11-30T14:22:22.702Z</when>
				<when>2024-11-30T14:22:57.451Z</when>
				<when>2024-11-30T14:23:32.252Z</when>
				<when>2024-11-30T14:24:08.006Z</when>
				<when>2024-11-30T14:24:43.748Z</when>
				<when>2024-11-30T14:25:18.506Z</when>
				<when>2024-11-30T14:25:55.303Z</when>
				<when>2024-11-30T14:26:33.077Z</when>
				<when>2024-11-30T14:27:08.849Z</when>
				<when>2024-11-30T14:27:44.561Z</when>
				<when>2024-11-30T14:28:20.307Z</when>
				<when>2024-11-30T14:28:55.053Z</when>
				<when>2024-11-30T14:29:32.863Z</when>
				<when>2024-11-30T14:30:09.542Z</when>
				<when>2024-11-30T14:30:45.242Z</when>
				<when>2024-11-30T14:31:19.953Z</when>
				<when>2024-11-30T14:31:55.647Z</when>
				<when>2024-11-30T14:32:31.398Z</when>
				<when>2024-11-30T14:33:07.143Z</when>
				<when>2024-11-30T14:33:42.897Z</when>
				<when>2024-11-30T14:34:17.644Z</when>
				<when>2024-11-30T14:34:57.452Z</when>
				<when>2024-11-30T14:35:34.142Z</when>
				<when>2024-11-30T14:36:09.834Z</when>
				<when>2024-11-30T14:36:45.553Z</when>
				<when>2024-11-30T14:37:20.283Z</when>
				<when>2024-11-30T14:37:56.001Z</when>
				<when>2024-11-30T14:38:30.742Z</when>
				<when>2024-11-30T14:39:07.445Z</when>
				<when>2024-11-30T14:39:43.144Z</when>
				<when>2024-11-30T14:40:19.839Z</when>
				<when>2024-11-30T14:40:57.585Z</when>
				<when>2024-11-30T14:41:36.335Z</when>
				<when>2024-11-30T14:42:13.093Z</when>
				<when>2024-11-30T14:42:50.775Z</when>
				<when>2024-11-30T14:43:26.49Z</when>
				<when>2024-11-30T14:44:03.256Z</when>
				<when>2024-11-30T14:44:37.987Z</when>
				<when>2024-11-30T14:45:13.783Z</when>
				<when>2024-11-30T14:45:50.523Z</when>
				<when>2024-11-30T14:46:27.233Z</when>
				<when>2024-11-30T14:47:04.937Z</when>
				<when>2024-11-30T14:47:41.634Z</when>
				<when>2024-11-30T14:48:16.335Z</when>
				<when>2024-11-30T14:48:53.052Z</when>
				<when>2024-11-30T14:49:29.732Z</when>
				<when>2024-11-30T14:50:06.44Z</when>
				<when>2024-11-30T14:50:43.238Z</when>
				<when>2024-11-30T14:51:17.935Z</when>
				<when>2024-11-30T14:51:52.684Z</when>
				<when>2024-11-30T14:52:28.431Z</when>
				<when>2024-11-30T14:53:05.183Z</when>
				<when>2024-11-30T14:53:42.881Z</when>
				<when>2024-11-30T14:54:20.697Z</when>
				<when>2024-11-30T14:54:55.391Z</when>
				<when>2024-11-30T14:55:33.226Z</when>
				<when>2024-11-30T14:56:18.657Z</when>
				<when>2024-11-30T14:56:18.657Z</when>
				<when>2024-11-30T14:57:37.779Z</when>
				<when>2024-11-30T14:58:14.532Z</when>
				<when>2024-11-30T14:58:14.844Z</when>
				<when>2024-11-30T15:00:35.208Z</when>
				<when>2024-11-30T15:00:35.208Z</when>
				<when>2024-11-30T15:01:21.714Z</when>
				<when>2024-11-30T15:02:36.626Z</when>
				<when>2024-11-30T15:02:36.626Z</when>
				<when>2024-11-30T15:06:39.432Z</when>
				<when>2024-11-30T15:07:15.133Z</when>
				<when>2024-11-30T15:07:50.869Z</when>
				<when>2024-11-30T15:08:26.62Z</when>
				<when>2024-11-30T15:09:01.368Z</when>
				<when>2024-11-30T15:09:37.17Z</when>
				<when>2024-11-30T15:10:12.907Z</when>
				<when>2024-11-30T15:10:47.726Z</when>
				<when>2024-11-30T15:11:23.446Z</when>
				<when>2024-11-30T15:11:59.26Z</when>
				<when>2024-11-30T15:12:33.962Z</when>
				<when>2024-11-30T15:13:09.71Z</when>
				<when>2024-11-30T15:13:44.472Z</when>
				<when>2024-11-30T15:14:53.247Z</when>
				<when>2024-11-30T15:14:53.638Z</when>
				<when>2024-11-30T15:15:52.74Z</when>
				<when>2024-11-30T15:15:52.74Z</when>
				<when>2024-11-30T15:17:04.861Z</when>
				<when>2024-11-30T15:17:40.591Z</when>
				<when>2024-11-30T15:18:16.32Z</when>
				<when>2024-11-30T15:18:54.004Z</when>
				<when>2024-11-30T15:19:29.705Z</when>
				<when>2024-11-30T15:20:04.365Z</when>
				<when>2024-11-30T15:20:39.088Z</when>
				<when>2024-11-30T15:21:13.79Z</when>
				<when>2024-11-30T15:21:48.478Z</when>
				<when>2024-11-30T15:22:24.192Z</when>
				<when>2024-11-30T15:22:58.892Z</when>
				<when>2024-11-30T15:23:35.557Z</when>
				<when>2024-11-30T15:24:11.276Z</when>
				<when>2024-11-30T15:24:46.946Z</when>
				<when>2024-11-30T15:25:21.678Z</when>
				<when>2024-11-30T15:25:58.391Z</when>
				<when>2024-11-30T15:26:34.139Z</when>
				<when>2024-11-30T15:27:08.839Z</when>
				<when>2024-11-30T15:27:44.54Z</when>
				<when>2024-11-30T15:28:19.249Z</when>
				<when>2024-11-30T15:30:25.795Z</when>
				<when>2024-11-30T15:30:25.795Z</when>
				<when>2024-11-30T15:31:16.289Z</when>
				<when>2024-11-30T15:31:16.289Z</when>
				<when>2024-11-30T15:32:40.546Z</when>
				<when>2024-11-30T15:33:15.209Z</when>
				<when>2024-11-30T15:33:50.973Z</when>
				<when>2024-11-30T15:34:25.747Z</when>
				<when>2024-11-30T15:35:02.418Z</when>
				<when>2024-11-30T15:35:38.182Z</when>
				<when>2024-11-30T15:36:12.886Z</when>
				<when>2024-11-30T15:36:47.599Z</when>
				<when>2024-11-30T15:37:23.276Z</when>
				<when>2024-11-30T15:37:57.967Z</when>
				<when>2024-11-30T15:38:35.687Z</when>
				<when>2024-11-30T15:39:10.344Z</when>
				<when>2024-11-30T15:39:46.083Z</when>
				<when>2024-11-30T15:40:21.804Z</when>
				<when>2024-11-30T15:40:57.463Z</when>
				<when>2024-11-30T15:41:34.244Z</when>
				<when>2024-11-30T15:42:10.913Z</when>
				<when>2024-11-30T15:42:47.653Z</when>
				<when>2024-11-30T15:43:25.388Z</when>
				<when>2024-11-30T15:44:01.109Z</when>
				<when>2024-11-30T15:44:36.712Z</when>
				<when>2024-11-30T15:45:11.457Z</when>
				<when>2024-11-30T15:45:46.181Z</when>
				<when>2024-11-30T15:46:21.889Z</when>
				<when>2024-11-30T15:47:00.578Z</when>
				<when>2024-11-30T15:47:38.331Z</when>
				<when>2024-11-30T15:48:02.245Z</when>
				<when>2024-11-30T15:48:02.318Z</when>
				<when>2024-11-30T15:48:21.312Z</when>
				<when>2024-11-30T15:48:35.052Z</when>
				<when>2024-11-30T15:48:35.052Z</when>
				<when>2024-11-30T15:50:41.8Z</when>
				<when>2024-11-30T15:51:19.514Z</when>
				<when>2024-11-30T15:51:56.261Z</when>
				<when>2024-11-30T15:52:31.868Z</when>
				<when>2024-11-30T15:53:08.776Z</when>
				<when>2024-11-30T15:53:44.408Z</when>
				<when>2024-11-30T15:54:22.121Z</when>
				<when>2024-11-30T15:55:01.811Z</when>
				<when>2024-11-30T15:55:07.523Z</when>
				<when>2024-11-30T15:55:07.523Z</when>
				<when>2024-11-30T15:55:12.221Z</when>
				<when>2024-11-30T15:55:22.624Z</when>
				<when>2024-11-30T15:55:22.643Z</when>
				<when>2024-11-30T15:57:36.636Z</when>
				<when>2024-11-30T15:58:16.33Z</when>
				<when>2024-11-30T15:59:01.032Z</when>
				<when>2024-11-30T15:59:36.719Z</when>
				<when>2024-11-30T16:03:27.685Z</when>
				<when>2024-11-30T16:03:27.685Z</when>
				<when>2024-11-30T16:04:06.182Z</when>
				<when>2024-11-30T16:04:07.068Z</when>
				<when>2024-11-30T16:09:16.98Z</when>
				<when>2024-11-30T16:09:52.98Z</when>
				<when>2024-11-30T16:10:28.98Z</when>
				<when>2024-11-30T16:11:05.71Z</when>
				<when>2024-11-30T16:13:55.463Z</when>
				<when>2024-11-30T16:13:55.463Z</when>
				<when>2024-11-30T16:14:55.376Z</when>
				<when>2024-11-30T16:14:55.376Z</when>
				<when>2024-11-30T16:21:12.733Z</when>
				<when>2024-11-30T16:21:13.048Z</when>
				<when>2024-11-30T16:22:24.861Z</when>
				<when>2024-11-30T16:22:24.861Z</when>
				<when>2024-11-30T16:23:21.363Z</when>
				<when>2024-11-30T16:24:12.396Z</when>
				<when>2024-11-30T16:24:12.665Z</when>
				<when>2024-11-30T16:25:24.051Z</when>
				<when>2024-11-30T16:25:24.221Z</when>
				<when>2024-11-30T16:25:41.523Z</when>
				<when>2024-11-30T16:25:42.639Z</when>
				<when>2024-11-30T16:27:23.948Z</when>
				<when>2024-11-30T16:29:21.251Z</when>
				<when>2024-11-30T16:29:21.809Z</when>
				<when>2024-11-30T16:32:30.392Z</when>
				<when>2024-11-30T16:32:30.392Z</when>
				<when>2024-11-30T16:45:27.254Z</when>
				<when>2024-11-30T16:46:02.254Z</when>
				<when>2024-11-30T16:46:37.254Z</when>
				<when>2024-11-30T16:47:13.254Z</when>
				<when>2024-11-30T16:47:49.254Z</when>
				<when>2024-11-30T16:48:26.987Z</when>
				<when>2024-11-30T16:49:02.766Z</when>
				<when>2024-11-30T16:49:38.506Z</when>
				<when>2024-11-30T16:50:14.269Z</when>
				<when>2024-11-30T16:50:50.022Z</when>
				<when>2024-11-30T16:51:26.768Z</when>
				<when>2024-11-30T16:52:02.519Z</when>
				<when>2024-11-30T16:52:38.264Z</when>
				<when>2024-11-30T16:53:14.025Z</when>
				<when>2024-11-30T16:53:20.676Z</when>
				<when>2024-11-30T16:53:20.978Z</when>
				<when>2024-11-30T16:54:26.614Z</when>
				<when>2024-11-30T16:55:55.008Z</when>
				<when>2024-11-30T16:55:55.008Z</when>
				<when>2024-11-30T17:01:09.256Z</when>
				<when>2024-11-30T17:01:31.58Z</when>
				<when>2024-11-30T17:01:31.58Z</when>
				<when>2024-11-30T17:02:08.724Z</when>
				<when>2024-11-30T17:02:31.54Z</when>
				<when>2024-11-30T17:02:31.54Z</when>
				<when>2024-11-30T17:02:31.54Z</when>
				<when>2024-11-30T17:02:32.516Z</when>
				<when>2024-11-30T17:02:33.59Z</when>
				<when>2024-11-30T17:02:33.59Z</when>
				<when>2024-11-30T17:06:34.359Z</when>
				<when>2024-11-30T17:07:10.153Z</when>
				<when>2024-11-30T17:07:45.959Z</when>
				<when>2024-11-30T17:08:21.729Z</when>
				<when>2024-11-30T17:08:57.547Z</when>
				<when>2024-11-30T17:09:29.162Z</when>
				<when>2024-11-30T17:09:29.162Z</when>
				<when>2024-11-30T17:09:43.772Z</when>
				<when>2024-11-30T17:09:43.772Z</when>
				<when>2024-11-30T17:10:03.657Z</when>
				<when>2024-11-30T17:10:25.375Z</when>
				<when>2024-11-30T17:10:25.375Z</when>
				<when>2024-11-30T17:13:37.299Z</when>
				<when>2024-11-30T17:13:39.965Z</when>
				<when>2024-11-30T17:13:40.056Z</when>
				<when>2024-11-30T17:15:33.242Z</when>
				<when>2024-11-30T17:15:42.833Z</when>
				<when>2024-11-30T17:15:42.943Z</when>
				<when>2024-11-30T17:15:58.612Z</when>
				<when>2024-11-30T17:16:10.973Z</when>
				<when>2024-11-30T17:16:10.973Z</when>
				<when>2024-11-30T17:17:21.466Z</when>
				<when>2024-11-30T17:17:21.466Z</when>
				<when>2024-11-30T17:18:22.368Z</when>
				<when>2024-11-30T17:18:47.487Z</when>
				<when>2024-11-30T17:18:47.487Z</when>
				<when>2024-11-30T17:21:51.153Z</when>
				<when>2024-11-30T17:22:26.424Z</when>
				<when>2024-11-30T17:23:12.947Z</when>
				<when>2024-11-30T17:23:12.947Z</when>
				<when>2024-11-30T17:24:36.207Z</when>
				<when>2024-11-30T17:25:11.995Z</when>
				<when>2024-11-30T17:25:48.796Z</when>
				<when>2024-11-30T17:26:24.598Z</when>
				<when>2024-11-30T17:27:00.398Z</when>
				<when>2024-11-30T17:27:36.196Z</when>
				<when>2024-11-30T17:28:12.997Z</when>
				<when>2024-11-30T17:28:49.796Z</when>
				<when>2024-11-30T17:29:24.595Z</when>
				<when>2024-11-30T17:30:00.396Z</when>
				<when>2024-11-30T17:30:37.133Z</when>
				<when>2024-11-30T17:31:12.947Z</when>
				<when>2024-11-30T17:31:48.75Z</when>
				<when>2024-11-30T17:32:23.542Z</when>
				<when>2024-11-30T17:33:33.211Z</when>
				<when>2024-11-30T17:33:33.211Z</when>
				<when>2024-11-30T17:34:36.13Z</when>
				<when>2024-11-30T17:34:36.13Z</when>
				<when>2024-11-30T17:35:34.738Z</when>
				<when>2024-11-30T17:36:11.538Z</when>
				<when>2024-11-30T17:36:47.285Z</when>
				<when>2024-11-30T17:37:23.084Z</when>
				<when>2024-11-30T17:37:59.881Z</when>
				<when>2024-11-30T17:38:39.676Z</when>
				<when>2024-11-30T17:39:17.476Z</when>
				<when>2024-11-30T17:39:54.288Z</when>
				<when>2024-11-30T17:40:33.04Z</when>
				<when>2024-11-30T17:41:10.796Z</when>
				<when>2024-11-30T17:41:47.583Z</when>
				<when>2024-11-30T17:42:23.382Z</when>
				<when>2024-11-30T17:42:59.133Z</when>
				<when>2024-11-30T17:43:34.927Z</when>
				<when>2024-11-30T17:44:10.682Z</when>
				<when>2024-11-30T17:44:46.413Z</when>
				<when>2024-11-30T17:45:22.217Z</when>
				<when>2024-11-30T17:45:58.024Z</when>
				<when>2024-11-30T17:46:32.776Z</when>
				<when>2024-11-30T17:47:07.467Z</when>
				<when>2024-11-30T17:47:43.222Z</when>
				<when>2024-11-30T17:48:18.979Z</when>
				<when>2024-11-30T17:48:54.724Z</when>
				<when>2024-11-30T17:49:31.468Z</when>
				<when>2024-11-30T17:50:06.273Z</when>
				<when>2024-11-30T17:50:43.013Z</when>
				<when>2024-11-30T17:51:18.78Z</when>
				<when>2024-11-30T17:51:54.526Z</when>
				<when>2024-11-30T17:52:31.278Z</when>
				<when>2024-11-30T17:53:08.027Z</when>
				<when>2024-11-30T17:53:44.77Z</when>
				<when>2024-11-30T17:54:22.577Z</when>
				<when>2024-11-30T17:54:59.316Z</when>
				<when>2024-11-30T17:55:36.065Z</when>
				<when>2024-11-30T17:56:11.831Z</when>
				<when>2024-11-30T17:56:46.618Z</when>
				<when>2024-11-30T17:57:22.381Z</when>
				<when>2024-11-30T17:57:58.12Z</when>
				<when>2024-11-30T17:58:35.815Z</when>
				<when>2024-11-30T17:59:12.576Z</when>
				<when>2024-11-30T17:59:47.258Z</when>
				<when>2024-11-30T18:00:22.013Z</when>
				<when>2024-11-30T18:00:57.772Z</when>
				<when>2024-11-30T18:01:34.521Z</when>
				<when>2024-11-30T18:02:11.263Z</when>
				<when>2024-11-30T18:02:46.016Z</when>
				<when>2024-11-30T18:03:09.958Z</when>
				<when>2024-11-30T18:03:09.958Z</when>
				<when>2024-11-30T18:04:20.98Z</when>
				<when>2024-11-30T18:04:20.98Z</when>
				<when>2024-11-30T18:05:05.28Z</when>
				<when>2024-11-30T18:05:39.97Z</when>
				<when>2024-11-30T18:06:15.674Z</when>
				<when>2024-11-30T18:06:53.464Z</when>
				<when>2024-11-30T18:07:29.216Z</when>
				<when>2024-11-30T18:08:06.972Z</when>
				<when>2024-11-30T18:08:41.713Z</when>
				<when>2024-11-30T18:09:17.466Z</when>
				<when>2024-11-30T18:09:53.22Z</when>
				<when>2024-11-30T18:10:27.959Z</when>
				<when>2024-11-30T18:11:08.613Z</when>
				<when>2024-11-30T18:11:43.367Z</when>
				<when>2024-11-30T18:12:21.131Z</when>
				<when>2024-11-30T18:12:55.869Z</when>
				<when>2024-11-30T18:13:30.668Z</when>
				<when>2024-11-30T18:14:03.702Z</when>
				<when>2024-11-30T18:14:57.678Z</when>
				<when>2024-11-30T18:15:33.42Z</when>
				<when>2024-11-30T18:16:08.174Z</when>
				<when>2024-11-30T18:16:42.92Z</when>
				<when>2024-11-30T18:17:17.621Z</when>
				<when>2024-11-30T18:17:53.324Z</when>
				<when>2024-11-30T18:18:31.018Z</when>
				<when>2024-11-30T18:19:05.719Z</when>
				<when>2024-11-30T18:19:40.414Z</when>
				<when>2024-11-30T18:20:16.164Z</when>
				<when>2024-11-30T18:20:51.934Z</when>
				<when>2024-11-30T18:21:27.733Z</when>
				<when>2024-11-30T18:22:02.423Z</when>
				<when>2024-11-30T18:22:38.132Z</when>
				<when>2024-11-30T18:23:12.815Z</when>
				<when>2024-11-30T18:23:47.565Z</when>
				<when>2024-11-30T18:24:25.261Z</when>
				<when>2024-11-30T18:25:00.015Z</when>
				<when>2024-11-30T18:25:34.765Z</when>
				<when>2024-11-30T18:26:10.522Z</when>
				<when>2024-11-30T18:26:45.257Z</when>
				<when>2024-11-30T18:27:12.864Z</when>
				<when>2024-11-30T18:27:12.864Z</when>
				<when>2024-11-30T18:28:01.015Z</when>
				<when>2024-11-30T18:29:14.783Z</when>
				<when>2024-11-30T18:29:17.74Z</when>
				<when>2024-11-30T18:29:17.88Z</when>
				<when>2024-11-30T18:30:16.763Z</when>
				<when>2024-11-30T18:30:51.51Z</when>
				<when>2024-11-30T18:31:27.186Z</when>
				<when>2024-11-30T18:32:02.92Z</when>
				<when>2024-11-30T18:32:37.717Z</when>
				<when>2024-11-30T18:33:12.398Z</when>
				<when>2024-11-30T18:33:47.125Z</when>
				<when>2024-11-30T18:34:22.868Z</when>
				<when>2024-11-30T18:34:57.62Z</when>
				<when>2024-11-30T18:35:32.371Z</when>
				<when>2024-11-30T18:36:07.06Z</when>
				<when>2024-11-30T18:36:24.638Z</when>
				<when>2024-11-30T18:36:24.638Z</when>
				<when>2024-11-30T18:37:13.568Z</when>
				<when>2024-11-30T18:37:28.969Z</when>
				<when>2024-11-30T18:37:28.969Z</when>
				<when>2024-11-30T18:38:54.192Z</when>
				<when>2024-11-30T18:38:54.192Z</when>
				<when>2024-11-30T18:39:46.837Z</when>
				<when>2024-11-30T18:42:29.808Z</when>
				<when>2024-11-30T18:42:29.808Z</when>
				<when>2024-11-30T18:45:12.947Z</when>
				<when>2024-11-30T18:45:47.947Z</when>
				<when>2024-11-30T18:46:24.947Z</when>
				<when>2024-11-30T18:46:59.947Z</when>
				<when>2024-11-30T18:47:35.947Z</when>
				<when>2024-11-30T18:48:10.947Z</when>
				<when>2024-11-30T18:48:46.947Z</when>
				<when>2024-11-30T18:49:23.947Z</when>
				<when>2024-11-30T18:49:57.271Z</when>
				<when>2024-11-30T18:49:57.271Z</when>
				<when>2024-11-30T18:50:35.232Z</when>
				<when>2024-11-30T18:51:11.699Z</when>
				<when>2024-11-30T18:51:11.699Z</when>
				<when>2024-11-30T18:51:54.07Z</when>
				<when>2024-11-30T18:52:30.764Z</when>
				<when>2024-11-30T18:53:09.465Z</when>
				<when>2024-11-30T18:53:27.933Z</when>
				<when>2024-11-30T18:53:27.933Z</when>
				<when>2024-11-30T18:53:56.416Z</when>
				<when>2024-11-30T18:55:24.027Z</when>
				<when>2024-11-30T18:55:24.027Z</when>
				<when>2024-11-30T18:56:18.965Z</when>
				<when>2024-11-30T18:56:54.664Z</when>
				<when>2024-11-30T18:57:31.35Z</when>
				<when>2024-11-30T18:58:16.947Z</when>
				<when>2024-11-30T18:58:51.947Z</when>
				<when>2024-11-30T18:59:28.947Z</when>
				<when>2024-11-30T19:00:04.947Z</when>
				<when>2024-11-30T19:00:39.947Z</when>
				<when>2024-11-30T19:01:14.947Z</when>
				<when>2024-11-30T19:01:49.947Z</when>
				<when>2024-11-30T19:02:25.947Z</when>
				<when>2024-11-30T19:03:01.947Z</when>
				<when>2024-11-30T19:03:38.947Z</when>
				<when>2024-11-30T19:04:17.621Z</when>
				<when>2024-11-30T19:04:53.332Z</when>
				<when>2024-11-30T19:05:29.05Z</when>
				<when>2024-11-30T19:06:08.751Z</when>
				<when>2024-11-30T19:06:46.461Z</when>
				<when>2024-11-30T19:07:23.201Z</when>
				<when>2024-11-30T19:07:57.912Z</when>
				<when>2024-11-30T19:08:35.61Z</when>
				<when>2024-11-30T19:09:12.297Z</when>
				<when>2024-11-30T19:09:52.002Z</when>
				<when>2024-11-30T19:10:39.947Z</when>
				<when>2024-11-30T19:11:21.947Z</when>
				<when>2024-11-30T19:12:04.947Z</when>
				<when>2024-11-30T19:12:40.947Z</when>
				<when>2024-11-30T19:13:18.947Z</when>
				<when>2024-11-30T19:13:53.947Z</when>
				<when>2024-11-30T19:14:28.947Z</when>
				<when>2024-11-30T19:15:03.947Z</when>
				<when>2024-11-30T19:15:38.947Z</when>
				<when>2024-11-30T19:16:14.947Z</when>
				<when>2024-11-30T19:16:49.947Z</when>
				<when>2024-11-30T19:17:36.947Z</when>
				<when>2024-11-30T19:18:12.947Z</when>
				<when>2024-11-30T19:18:49.947Z</when>
				<when>2024-11-30T19:19:24.947Z</when>
				<when>2024-11-30T19:19:59.947Z</when>
				<when>2024-11-30T19:20:34.947Z</when>
				<when>2024-11-30T19:21:12.947Z</when>
				<gx:coord>-71.6263 -16.29565 2697.7</gx:coord>
				<gx:coord>-71.62653899999999 -16.295505 2697.62</gx:coord>
				<gx:coord>-71.62653899999999 -16.295505 2675.3</gx:coord>
				<gx:coord>-71.626514 -16.295451 2675.52</gx:coord>
				<gx:coord>-71.626514 -16.295451 2693.8</gx:coord>
				<gx:coord>-71.626408 -16.295543 2695.5</gx:coord>
				<gx:coord>-71.626571 -16.295558 2700.6</gx:coord>
				<gx:coord>-71.62643 -16.295523 2694.5</gx:coord>
				<gx:coord>-71.626347 -16.295644 2694.45</gx:coord>
				<gx:coord>-71.626347 -16.295644 2677.57</gx:coord>
				<gx:coord>-71.626361 -16.295586 2677.4</gx:coord>
				<gx:coord>-71.626361 -16.295586 2693.53</gx:coord>
				<gx:coord>-71.62643 -16.295483 2693.5</gx:coord>
				<gx:coord>-71.62649 -16.295131 2693.5</gx:coord>
				<gx:coord>-71.626138 -16.295125 2693.5</gx:coord>
				<gx:coord>-71.626138 -16.295125 2677.35</gx:coord>
				<gx:coord>-71.62628599999999 -16.295084 2674.87</gx:coord>
				<gx:coord>-71.626158 -16.2951 2676.84</gx:coord>
				<gx:coord>-71.626158 -16.2951 2687.4</gx:coord>
				<gx:coord>-71.626228 -16.295008 2689.2</gx:coord>
				<gx:coord>-71.62633599999999 -16.294761 2689.5</gx:coord>
				<gx:coord>-71.62629800000001 -16.294513 2690.8</gx:coord>
				<gx:coord>-71.62619100000001 -16.294478 2692.4</gx:coord>
				<gx:coord>-71.626186 -16.29422 2689.6</gx:coord>
				<gx:coord>-71.625923 -16.294348 2691</gx:coord>
				<gx:coord>-71.62602 -16.29424 2684</gx:coord>
				<gx:coord>-71.626018 -16.294253 2691.8</gx:coord>
				<gx:coord>-71.62605499999999 -16.294216 2691.1</gx:coord>
				<gx:coord>-71.62598800000001 -16.294188 2688.7</gx:coord>
				<gx:coord>-71.626048 -16.294113 2691.2</gx:coord>
				<gx:coord>-71.62593099999999 -16.294195 2691</gx:coord>
				<gx:coord>-71.625905 -16.294151 2690.6</gx:coord>
				<gx:coord>-71.625968 -16.294211 2687.6</gx:coord>
				<gx:coord>-71.625936 -16.294153 2691.1</gx:coord>
				<gx:coord>-71.625918 -16.294285 2690.9</gx:coord>
				<gx:coord>-71.626018 -16.294153 2685.7</gx:coord>
				<gx:coord>-71.625885 -16.294181 2690</gx:coord>
				<gx:coord>-71.62591500000001 -16.29422 2691.9</gx:coord>
				<gx:coord>-71.62591999999999 -16.294205 2688.6</gx:coord>
				<gx:coord>-71.62597599999999 -16.294166 2714.2</gx:coord>
				<gx:coord>-71.62594 -16.2942 2688.6</gx:coord>
				<gx:coord>-71.625945 -16.294205 2688.6</gx:coord>
				<gx:coord>-71.625958 -16.294208 2690.1</gx:coord>
				<gx:coord>-71.62591500000001 -16.29424 2691</gx:coord>
				<gx:coord>-71.62588599999999 -16.29431 2690.3</gx:coord>
				<gx:coord>-71.62569000000001 -16.294125 2688.2</gx:coord>
				<gx:coord>-71.625861 -16.29406 2690.2</gx:coord>
				<gx:coord>-71.625775 -16.293921 2689.8</gx:coord>
				<gx:coord>-71.62563299999999 -16.293875 2688.2</gx:coord>
				<gx:coord>-71.625463 -16.294005 2682.6</gx:coord>
				<gx:coord>-71.62572 -16.293995 2696.7</gx:coord>
				<gx:coord>-71.62578600000001 -16.294016 2706.6</gx:coord>
				<gx:coord>-71.625776 -16.293961 2703.4</gx:coord>
				<gx:coord>-71.625618 -16.294031 2688.5</gx:coord>
				<gx:coord>-71.62565600000001 -16.293808 2684.3</gx:coord>
				<gx:coord>-71.62556499999999 -16.293731 2693.4</gx:coord>
				<gx:coord>-71.62556499999999 -16.293731 2679.66</gx:coord>
				<gx:coord>-71.625693 -16.29375 2679.01</gx:coord>
				<gx:coord>-71.625693 -16.29375 2679.01</gx:coord>
				<gx:coord>-71.62541400000001 -16.293827 2680.19</gx:coord>
				<gx:coord>-71.625699 -16.293543 2681.81</gx:coord>
				<gx:coord>-71.625699 -16.293543 2681.81</gx:coord>
				<gx:coord>-71.625648 -16.293698 2679.72</gx:coord>
				<gx:coord>-71.625648 -16.293698 2679.72</gx:coord>
				<gx:coord>-71.62554900000001 -16.293549 2681.45</gx:coord>
				<gx:coord>-71.625685 -16.293481 2682.58</gx:coord>
				<gx:coord>-71.625685 -16.293481 2686.8</gx:coord>
				<gx:coord>-71.625578 -16.293645 2716</gx:coord>
				<gx:coord>-71.625586 -16.293773 2716.7</gx:coord>
				<gx:coord>-71.625586 -16.293773 2679.22</gx:coord>
				<gx:coord>-71.625388 -16.293759 2680.51</gx:coord>
				<gx:coord>-71.62560999999999 -16.293686 2679.95</gx:coord>
				<gx:coord>-71.62560999999999 -16.293686 2714.3</gx:coord>
				<gx:coord>-71.62560999999999 -16.293686 2679.95</gx:coord>
				<gx:coord>-71.62540199999999 -16.2937 2680.5</gx:coord>
				<gx:coord>-71.625621 -16.29374 2679.38</gx:coord>
				<gx:coord>-71.625621 -16.29374 2714.1</gx:coord>
				<gx:coord>-71.625621 -16.29374 2679.38</gx:coord>
				<gx:coord>-71.625446 -16.293669 2680.34</gx:coord>
				<gx:coord>-71.62542000000001 -16.293711 2680.32</gx:coord>
				<gx:coord>-71.62542000000001 -16.293711 2713.4</gx:coord>
				<gx:coord>-71.625596 -16.29381 2712.9</gx:coord>
				<gx:coord>-71.625775 -16.293538 2702</gx:coord>
				<gx:coord>-71.62602 -16.293395 2687.8</gx:coord>
				<gx:coord>-71.626051 -16.29331 2688.4</gx:coord>
				<gx:coord>-71.626131 -16.293193 2681.2</gx:coord>
				<gx:coord>-71.626221 -16.293393 2688.5</gx:coord>
				<gx:coord>-71.626121 -16.293311 2705.1</gx:coord>
				<gx:coord>-71.62631 -16.293093 2696.9</gx:coord>
				<gx:coord>-71.62635299999999 -16.29346 2705.1</gx:coord>
				<gx:coord>-71.62631500000001 -16.293525 2702.7</gx:coord>
				<gx:coord>-71.62632499999999 -16.293578 2690.4</gx:coord>
				<gx:coord>-71.626255 -16.293666 2694.6</gx:coord>
				<gx:coord>-71.626223 -16.293603 2702.7</gx:coord>
				<gx:coord>-71.62621300000001 -16.293671 2702.8</gx:coord>
				<gx:coord>-71.626231 -16.293618 2702.8</gx:coord>
				<gx:coord>-71.626206 -16.293723 2702.9</gx:coord>
				<gx:coord>-71.626221 -16.29375 2689.9</gx:coord>
				<gx:coord>-71.626261 -16.293663 2690</gx:coord>
				<gx:coord>-71.626385 -16.2936 2682.4</gx:coord>
				<gx:coord>-71.62651099999999 -16.2935 2664.3</gx:coord>
				<gx:coord>-71.62657799999999 -16.29348 2680.6</gx:coord>
				<gx:coord>-71.626611 -16.293425 2681.4</gx:coord>
				<gx:coord>-71.626681 -16.29351 2681.1</gx:coord>
				<gx:coord>-71.626593 -16.293376 2680.7</gx:coord>
				<gx:coord>-71.626616 -16.293421 2672</gx:coord>
				<gx:coord>-71.626615 -16.293525 2679.9</gx:coord>
				<gx:coord>-71.626656 -16.293556 2659.6</gx:coord>
				<gx:coord>-71.62667999999999 -16.293546 2679.4</gx:coord>
				<gx:coord>-71.626625 -16.293491 2663.3</gx:coord>
				<gx:coord>-71.62657299999999 -16.293355 2662.9</gx:coord>
				<gx:coord>-71.62672000000001 -16.293616 2659.6</gx:coord>
				<gx:coord>-71.62672499999999 -16.293611 2653</gx:coord>
				<gx:coord>-71.626711 -16.293481 2666.3</gx:coord>
				<gx:coord>-71.626553 -16.2934 2666.3</gx:coord>
				<gx:coord>-71.62672499999999 -16.293576 2667.8</gx:coord>
				<gx:coord>-71.626681 -16.293585 2661.9</gx:coord>
				<gx:coord>-71.626535 -16.293521 2661.2</gx:coord>
				<gx:coord>-71.62652 -16.293496 2663.6</gx:coord>
				<gx:coord>-71.626526 -16.293601 2674</gx:coord>
				<gx:coord>-71.62661 -16.293546 2660.7</gx:coord>
				<gx:coord>-71.626648 -16.293548 2660.7</gx:coord>
				<gx:coord>-71.6266 -16.29352 2661</gx:coord>
				<gx:coord>-71.626588 -16.293526 2660.9</gx:coord>
				<gx:coord>-71.626561 -16.293443 2661.9</gx:coord>
				<gx:coord>-71.62658500000001 -16.293556 2663.7</gx:coord>
				<gx:coord>-71.626558 -16.293463 2663</gx:coord>
				<gx:coord>-71.626606 -16.293688 2670</gx:coord>
				<gx:coord>-71.62663499999999 -16.293651 2670</gx:coord>
				<gx:coord>-71.62653299999999 -16.293631 2681.8</gx:coord>
				<gx:coord>-71.626681 -16.29373 2677.3</gx:coord>
				<gx:coord>-71.62664100000001 -16.293568 2701.1</gx:coord>
				<gx:coord>-71.62663999999999 -16.293555 2679</gx:coord>
				<gx:coord>-71.62658 -16.293556 2689.3</gx:coord>
				<gx:coord>-71.626508 -16.293756 2688.8</gx:coord>
				<gx:coord>-71.626605 -16.293731 2688.9</gx:coord>
				<gx:coord>-71.626735 -16.293665 2689.2</gx:coord>
				<gx:coord>-71.626718 -16.293788 2693</gx:coord>
				<gx:coord>-71.626718 -16.293788 2675.56</gx:coord>
				<gx:coord>-71.626755 -16.293575 2676.83</gx:coord>
				<gx:coord>-71.626655 -16.293603 2677.57</gx:coord>
				<gx:coord>-71.626655 -16.293603 2692.699999999999</gx:coord>
				<gx:coord>-71.62693 -16.2939 2703.6</gx:coord>
				<gx:coord>-71.62693 -16.2939 2673.95</gx:coord>
				<gx:coord>-71.62684400000001 -16.293805 2674.59</gx:coord>
				<gx:coord>-71.626908 -16.293998 2673.27</gx:coord>
				<gx:coord>-71.626908 -16.293998 2698.2</gx:coord>
				<gx:coord>-71.626981 -16.293793 2692.5</gx:coord>
				<gx:coord>-71.626718 -16.293898 2675.2</gx:coord>
				<gx:coord>-71.626723 -16.293945 2682.4</gx:coord>
				<gx:coord>-71.626783 -16.293978 2684.2</gx:coord>
				<gx:coord>-71.62683800000001 -16.293923 2680.9</gx:coord>
				<gx:coord>-71.626898 -16.29392 2672.1</gx:coord>
				<gx:coord>-71.62676 -16.293886 2685.8</gx:coord>
				<gx:coord>-71.626908 -16.293881 2669.8</gx:coord>
				<gx:coord>-71.626766 -16.293975 2692.9</gx:coord>
				<gx:coord>-71.62678099999999 -16.293981 2691.9</gx:coord>
				<gx:coord>-71.626701 -16.293921 2692.1</gx:coord>
				<gx:coord>-71.626785 -16.294003 2693.1</gx:coord>
				<gx:coord>-71.62693299999999 -16.293816 2687.8</gx:coord>
				<gx:coord>-71.626886 -16.293673 2687.82</gx:coord>
				<gx:coord>-71.626886 -16.293673 2675.45</gx:coord>
				<gx:coord>-71.627019 -16.293688 2675.23</gx:coord>
				<gx:coord>-71.627019 -16.293688 2688.39</gx:coord>
				<gx:coord>-71.627093 -16.293828 2688.5</gx:coord>
				<gx:coord>-71.62696099999999 -16.29382 2688.4</gx:coord>
				<gx:coord>-71.627031 -16.293763 2687.6</gx:coord>
				<gx:coord>-71.627126 -16.293808 2687.1</gx:coord>
				<gx:coord>-71.62704600000001 -16.293733 2688.2</gx:coord>
				<gx:coord>-71.62681499999999 -16.29368 2689.2</gx:coord>
				<gx:coord>-71.626985 -16.29402 2689</gx:coord>
				<gx:coord>-71.627126 -16.294318 2688.4</gx:coord>
				<gx:coord>-71.627246 -16.294298 2689.3</gx:coord>
				<gx:coord>-71.627173 -16.29436 2693.2</gx:coord>
				<gx:coord>-71.62704100000001 -16.294291 2682.4</gx:coord>
				<gx:coord>-71.627095 -16.294246 2707.6</gx:coord>
				<gx:coord>-71.627171 -16.294351 2681.3</gx:coord>
				<gx:coord>-71.627286 -16.294295 2754.5</gx:coord>
				<gx:coord>-71.627183 -16.294375 2690.6</gx:coord>
				<gx:coord>-71.627123 -16.294413 2691.2</gx:coord>
				<gx:coord>-71.627065 -16.294315 2692.1</gx:coord>
				<gx:coord>-71.627138 -16.29436 2685</gx:coord>
				<gx:coord>-71.62719300000001 -16.294426 2678.5</gx:coord>
				<gx:coord>-71.627216 -16.294308 2677.1</gx:coord>
				<gx:coord>-71.62716899999999 -16.294187 2683.67</gx:coord>
				<gx:coord>-71.62716899999999 -16.294187 2672.82</gx:coord>
				<gx:coord>-71.627219 -16.29417 2673</gx:coord>
				<gx:coord>-71.627219 -16.29417 2668.31</gx:coord>
				<gx:coord>-71.62726600000001 -16.294243 2659.2</gx:coord>
				<gx:coord>-71.627171 -16.294213 2687.3</gx:coord>
				<gx:coord>-71.627286 -16.294455 2689.4</gx:coord>
				<gx:coord>-71.627375 -16.294566 2685.5</gx:coord>
				<gx:coord>-71.62755799999999 -16.294381 2704.7</gx:coord>
				<gx:coord>-71.627763 -16.294256 2696.1</gx:coord>
				<gx:coord>-71.627825 -16.294263 2688.6</gx:coord>
				<gx:coord>-71.62786800000001 -16.294268 2668.7</gx:coord>
				<gx:coord>-71.62779500000001 -16.294275 2679.6</gx:coord>
				<gx:coord>-71.627911 -16.294415 2676.3</gx:coord>
				<gx:coord>-71.62795300000001 -16.294385 2685.3</gx:coord>
				<gx:coord>-71.627866 -16.294198 2706.3</gx:coord>
				<gx:coord>-71.62779500000001 -16.294236 2699.5</gx:coord>
				<gx:coord>-71.62785 -16.294355 2676.3</gx:coord>
				<gx:coord>-71.627791 -16.294313 2685.4</gx:coord>
				<gx:coord>-71.62772099999999 -16.29431 2693.2</gx:coord>
				<gx:coord>-71.627735 -16.294306 2703.1</gx:coord>
				<gx:coord>-71.627653 -16.294456 2684.2</gx:coord>
				<gx:coord>-71.62779 -16.294238 2687.7</gx:coord>
				<gx:coord>-71.627976 -16.294211 2667.3</gx:coord>
				<gx:coord>-71.62795300000001 -16.293918 2706.5</gx:coord>
				<gx:coord>-71.62782300000001 -16.294086 2701.1</gx:coord>
				<gx:coord>-71.627796 -16.294361 2675.7</gx:coord>
				<gx:coord>-71.627551 -16.294478 2676.5</gx:coord>
				<gx:coord>-71.62743500000001 -16.294633 2698</gx:coord>
				<gx:coord>-71.62758599999999 -16.294903 2671.1</gx:coord>
				<gx:coord>-71.62784600000001 -16.295026 2690.3</gx:coord>
				<gx:coord>-71.62784600000001 -16.295026 2661.38</gx:coord>
				<gx:coord>-71.627689 -16.294865 2662.57</gx:coord>
				<gx:coord>-71.627813 -16.294971 2661.7</gx:coord>
				<gx:coord>-71.627813 -16.294971 2712.2</gx:coord>
				<gx:coord>-71.627728 -16.294948 2691.9</gx:coord>
				<gx:coord>-71.627695 -16.294896 2694.2</gx:coord>
				<gx:coord>-71.62764300000001 -16.294771 2707.2</gx:coord>
				<gx:coord>-71.62762600000001 -16.294798 2719.7</gx:coord>
				<gx:coord>-71.627651 -16.295095 2681.8</gx:coord>
				<gx:coord>-71.62785 -16.294835 2680.8</gx:coord>
				<gx:coord>-71.628145 -16.294768 2677.3</gx:coord>
				<gx:coord>-71.62836799999999 -16.29463 2682.3</gx:coord>
				<gx:coord>-71.62862 -16.294663 2681.7</gx:coord>
				<gx:coord>-71.62862 -16.294663 2659.56</gx:coord>
				<gx:coord>-71.628472 -16.294521 2661.88</gx:coord>
				<gx:coord>-71.628738 -16.294885 2657.43</gx:coord>
				<gx:coord>-71.628738 -16.294885 2744.4</gx:coord>
				<gx:coord>-71.628445 -16.294783 2672.7</gx:coord>
				<gx:coord>-71.62824000000001 -16.294596 2669</gx:coord>
				<gx:coord>-71.628271 -16.294608 2660.4</gx:coord>
				<gx:coord>-71.62854 -16.294746 2660.4</gx:coord>
				<gx:coord>-71.62835800000001 -16.294609 2660.97</gx:coord>
				<gx:coord>-71.62835800000001 -16.294609 2661.6</gx:coord>
				<gx:coord>-71.628394 -16.294596 2661.51</gx:coord>
				<gx:coord>-71.628394 -16.294596 2661.41</gx:coord>
				<gx:coord>-71.628663 -16.294746 2661.3</gx:coord>
				<gx:coord>-71.62808099999999 -16.294665 2666.2</gx:coord>
				<gx:coord>-71.62789100000001 -16.294763 2662.8</gx:coord>
				<gx:coord>-71.627695 -16.295025 2666.2</gx:coord>
				<gx:coord>-71.62752 -16.295095 2665.9</gx:coord>
				<gx:coord>-71.62752 -16.295095 2663.94</gx:coord>
				<gx:coord>-71.627498 -16.295156 2664.74</gx:coord>
				<gx:coord>-71.627498 -16.295156 2669.45</gx:coord>
				<gx:coord>-71.628084 -16.295533 2669.22</gx:coord>
				<gx:coord>-71.628084 -16.295533 2662.58</gx:coord>
				<gx:coord>-71.628047 -16.295724 2664.02</gx:coord>
				<gx:coord>-71.628047 -16.295724 2664.02</gx:coord>
				<gx:coord>-71.627881 -16.295642 2665.33</gx:coord>
				<gx:coord>-71.627976 -16.295776 2665.01</gx:coord>
				<gx:coord>-71.627976 -16.295776 2666.9</gx:coord>
				<gx:coord>-71.627819 -16.29564 2668.16</gx:coord>
				<gx:coord>-71.627819 -16.29564 2665.96</gx:coord>
				<gx:coord>-71.627791 -16.295722 2666.51</gx:coord>
				<gx:coord>-71.627791 -16.295722 2666.51</gx:coord>
				<gx:coord>-71.62793499999999 -16.295792 2665.48</gx:coord>
				<gx:coord>-71.627775 -16.295698 2666.6</gx:coord>
				<gx:coord>-71.627775 -16.295698 2666.6</gx:coord>
				<gx:coord>-71.627916 -16.295823 2665.75</gx:coord>
				<gx:coord>-71.627916 -16.295823 2696.9</gx:coord>
				<gx:coord>-71.62786800000001 -16.295805 2702.4</gx:coord>
				<gx:coord>-71.62785599999999 -16.295721 2702.7</gx:coord>
				<gx:coord>-71.62793600000001 -16.29561 2691</gx:coord>
				<gx:coord>-71.62791300000001 -16.295738 2674.6</gx:coord>
				<gx:coord>-71.627965 -16.295708 2676.5</gx:coord>
				<gx:coord>-71.627933 -16.29578 2683.4</gx:coord>
				<gx:coord>-71.627858 -16.295728 2680.4</gx:coord>
				<gx:coord>-71.627785 -16.295815 2676.7</gx:coord>
				<gx:coord>-71.627911 -16.295818 2675.9</gx:coord>
				<gx:coord>-71.62795 -16.295755 2676.9</gx:coord>
				<gx:coord>-71.627978 -16.295745 2674.9</gx:coord>
				<gx:coord>-71.627938 -16.295801 2682.4</gx:coord>
				<gx:coord>-71.62787299999999 -16.295795 2679.8</gx:coord>
				<gx:coord>-71.627955 -16.295776 2679.4</gx:coord>
				<gx:coord>-71.627968 -16.29579 2680.7</gx:coord>
				<gx:coord>-71.627968 -16.29579 2665.14</gx:coord>
				<gx:coord>-71.627775 -16.295778 2666.8</gx:coord>
				<gx:coord>-71.627968 -16.29561 2664.31</gx:coord>
				<gx:coord>-71.627968 -16.29561 2690.3</gx:coord>
				<gx:coord>-71.627948 -16.295758 2677.2</gx:coord>
				<gx:coord>-71.627826 -16.29573 2674.1</gx:coord>
				<gx:coord>-71.627826 -16.29573 2666.19</gx:coord>
				<gx:coord>-71.628028 -16.295779 2664.47</gx:coord>
				<gx:coord>-71.627916 -16.29572 2665.34</gx:coord>
				<gx:coord>-71.627916 -16.29572 2691.2</gx:coord>
				<gx:coord>-71.627916 -16.29572 2665.34</gx:coord>
				<gx:coord>-71.62798600000001 -16.295713 2664.62</gx:coord>
				<gx:coord>-71.627938 -16.295771 2665.38</gx:coord>
				<gx:coord>-71.627938 -16.295771 2681.9</gx:coord>
				<gx:coord>-71.628046 -16.295878 2683.6</gx:coord>
				<gx:coord>-71.62798600000001 -16.295856 2686.1</gx:coord>
				<gx:coord>-71.628038 -16.295941 2678</gx:coord>
				<gx:coord>-71.628106 -16.29609 2673.8</gx:coord>
				<gx:coord>-71.62773300000001 -16.296141 2673.9</gx:coord>
				<gx:coord>-71.627596 -16.296215 2684.8</gx:coord>
				<gx:coord>-71.627596 -16.296215 2667.12</gx:coord>
				<gx:coord>-71.627757 -16.296247 2666.94</gx:coord>
				<gx:coord>-71.627757 -16.296247 2666.94</gx:coord>
				<gx:coord>-71.627636 -16.296066 2667.54</gx:coord>
				<gx:coord>-71.62781200000001 -16.296229 2666.85</gx:coord>
				<gx:coord>-71.62781200000001 -16.296229 2666.85</gx:coord>
				<gx:coord>-71.62742900000001 -16.29597 2667.96</gx:coord>
				<gx:coord>-71.627408 -16.295956 2668.05</gx:coord>
				<gx:coord>-71.627408 -16.295956 2688</gx:coord>
				<gx:coord>-71.627396 -16.295995 2689.1</gx:coord>
				<gx:coord>-71.627375 -16.296066 2690.6</gx:coord>
				<gx:coord>-71.627375 -16.296066 2667.55</gx:coord>
				<gx:coord>-71.627478 -16.295997 2667.82</gx:coord>
				<gx:coord>-71.627421 -16.296075 2667.46</gx:coord>
				<gx:coord>-71.627421 -16.296075 2686.5</gx:coord>
				<gx:coord>-71.627456 -16.29585 2684.5</gx:coord>
				<gx:coord>-71.627456 -16.29585 2668.31</gx:coord>
				<gx:coord>-71.627252 -16.29587 2668.65</gx:coord>
				<gx:coord>-71.62733299999999 -16.295846 2668.59</gx:coord>
				<gx:coord>-71.62733299999999 -16.295846 2691.2</gx:coord>
				<gx:coord>-71.62733299999999 -16.295846 2668.59</gx:coord>
				<gx:coord>-71.627465 -16.295909 2668.18</gx:coord>
				<gx:coord>-71.627286 -16.295981 2668.07</gx:coord>
				<gx:coord>-71.627286 -16.295981 2684.3</gx:coord>
				<gx:coord>-71.627351 -16.295965 2692.3</gx:coord>
				<gx:coord>-71.627353 -16.295951 2687.3</gx:coord>
				<gx:coord>-71.627275 -16.295946 2693.7</gx:coord>
				<gx:coord>-71.62736599999999 -16.295901 2683.7</gx:coord>
				<gx:coord>-71.62733 -16.295998 2687.5</gx:coord>
				<gx:coord>-71.62732099999999 -16.295798 2681.6</gx:coord>
				<gx:coord>-71.627123 -16.295753 2694.5</gx:coord>
				<gx:coord>-71.62713599999999 -16.295721 2690.4</gx:coord>
				<gx:coord>-71.627206 -16.295738 2692.1</gx:coord>
				<gx:coord>-71.62711 -16.295746 2685.9</gx:coord>
				<gx:coord>-71.627256 -16.295815 2691.1</gx:coord>
				<gx:coord>-71.627143 -16.295706 2685.8</gx:coord>
				<gx:coord>-71.627163 -16.295781 2688.7</gx:coord>
				<gx:coord>-71.627155 -16.295701 2690.4</gx:coord>
				<gx:coord>-71.62709700000001 -16.295746 2691.89</gx:coord>
				<gx:coord>-71.62709700000001 -16.295746 2669.57</gx:coord>
				<gx:coord>-71.62713599999999 -16.295798 2669.2</gx:coord>
				<gx:coord>-71.62713599999999 -16.295798 2684.9</gx:coord>
				<gx:coord>-71.62719800000001 -16.295805 2687</gx:coord>
				<gx:coord>-71.62734500000001 -16.295865 2685.1</gx:coord>
				<gx:coord>-71.627313 -16.295868 2686.6</gx:coord>
				<gx:coord>-71.627285 -16.295881 2690</gx:coord>
				<gx:coord>-71.62710800000001 -16.295623 2693.5</gx:coord>
				<gx:coord>-71.627363 -16.295605 2677.9</gx:coord>
				<gx:coord>-71.627156 -16.295541 2687.5</gx:coord>
				<gx:coord>-71.62708600000001 -16.295408 2683.6</gx:coord>
				<gx:coord>-71.627045 -16.295508 2673.5</gx:coord>
				<gx:coord>-71.62714 -16.295385 2685.4</gx:coord>
				<gx:coord>-71.62706 -16.295386 2692.5</gx:coord>
				<gx:coord>-71.627028 -16.2954 2685.2</gx:coord>
				<gx:coord>-71.626785 -16.29538 2684.2</gx:coord>
				<gx:coord>-71.626896 -16.295386 2677.2</gx:coord>
				<gx:coord>-71.62690499999999 -16.295431 2668.7</gx:coord>
				<gx:coord>-71.626788 -16.295391 2686.8</gx:coord>
				<gx:coord>-71.626836 -16.295411 2686.4</gx:coord>
				<gx:coord>-71.626915 -16.295438 2675.7</gx:coord>
				<gx:coord>-71.626988 -16.295458 2675.4</gx:coord>
				<gx:coord>-71.62688 -16.29535 2698.8</gx:coord>
				<gx:coord>-71.62684299999999 -16.295368 2688.6</gx:coord>
				<gx:coord>-71.62681499999999 -16.295455 2696.7</gx:coord>
				<gx:coord>-71.626938 -16.295393 2689.2</gx:coord>
				<gx:coord>-71.62681000000001 -16.29534 2696.6</gx:coord>
				<gx:coord>-71.626863 -16.295306 2692.8</gx:coord>
				<gx:coord>-71.626921 -16.295335 2693.5</gx:coord>
				<gx:coord>-71.62689 -16.295376 2696.2</gx:coord>
				<gx:coord>-71.62702 -16.29539 2673.8</gx:coord>
				<gx:coord>-71.62697799999999 -16.295466 2679.8</gx:coord>
				<gx:coord>-71.62697 -16.295421 2691.9</gx:coord>
				<gx:coord>-71.626848 -16.295343 2698.2</gx:coord>
				<gx:coord>-71.62692 -16.295451 2690.5</gx:coord>
				<gx:coord>-71.626931 -16.295463 2690.2</gx:coord>
				<gx:coord>-71.626803 -16.295391 2698.8</gx:coord>
				<gx:coord>-71.626975 -16.295305 2699.1</gx:coord>
				<gx:coord>-71.626841 -16.29527 2727.6</gx:coord>
				<gx:coord>-71.627155 -16.295381 2691.9</gx:coord>
				<gx:coord>-71.627308 -16.295295 2692.1</gx:coord>
				<gx:coord>-71.62718 -16.295176 2714</gx:coord>
				<gx:coord>-71.627225 -16.295326 2713.9</gx:coord>
				<gx:coord>-71.626986 -16.29538 2693.8</gx:coord>
				<gx:coord>-71.626643 -16.295518 2703</gx:coord>
				<gx:coord>-71.626538 -16.295628 2708.6</gx:coord>
				<gx:coord>-71.626598 -16.295656 2675.3</gx:coord>
				<gx:coord>-71.626716 -16.295758 2695.2</gx:coord>
				<gx:coord>-71.626735 -16.295641 2700.5</gx:coord>
				<gx:coord>-71.626746 -16.295648 2700.57</gx:coord>
				<gx:coord>-71.626746 -16.295648 2673.09</gx:coord>
				<gx:coord>-71.626745 -16.295687 2672.99</gx:coord>
				<gx:coord>-71.626745 -16.295687 2702.8</gx:coord>
				<gx:coord>-71.626723 -16.295675 2702.8</gx:coord>
				<gx:coord>-71.62670300000001 -16.295708 2702.6</gx:coord>
				<gx:coord>-71.62667500000001 -16.295733 2696.1</gx:coord>
				<gx:coord>-71.62654000000001 -16.295751 2699</gx:coord>
				<gx:coord>-71.62664599999999 -16.295761 2686.1</gx:coord>
				<gx:coord>-71.626661 -16.295775 2688.7</gx:coord>
				<gx:coord>-71.626783 -16.295945 2687.2</gx:coord>
				<gx:coord>-71.62691 -16.296168 2680.2</gx:coord>
				<gx:coord>-71.626981 -16.29642 2695.3</gx:coord>
				<gx:coord>-71.62721500000001 -16.29665 2686</gx:coord>
				<gx:coord>-71.627015 -16.29684 2681.6</gx:coord>
				<gx:coord>-71.62676999999999 -16.29678 2692.5</gx:coord>
				<gx:coord>-71.626946 -16.296795 2692.6</gx:coord>
				<gx:coord>-71.626696 -16.296656 2712.6</gx:coord>
				<gx:coord>-71.626611 -16.296516 2702.4</gx:coord>
				<gx:coord>-71.6264 -16.296316 2734.9</gx:coord>
				<gx:coord>-71.626526 -16.296221 2688</gx:coord>
				<gx:coord>-71.626335 -16.296333 2694.6</gx:coord>
				<gx:coord>-71.62614000000001 -16.296481 2708.4</gx:coord>
				<gx:coord>-71.626086 -16.296481 2708.5</gx:coord>
				<gx:coord>-71.626133 -16.296463 2708.4</gx:coord>
				<gx:coord>-71.62610100000001 -16.296496 2708.6</gx:coord>
				<gx:coord>-71.626031 -16.296511 2710.3</gx:coord>
				<gx:coord>-71.626096 -16.296486 2710.4</gx:coord>
				<gx:coord>-71.626063 -16.296458 2724.3</gx:coord>
				<gx:coord>-71.626088 -16.296415 2705.7</gx:coord>
				<gx:coord>-71.626126 -16.296468 2691.6</gx:coord>
				<gx:coord>-71.62619100000001 -16.29643 2691</gx:coord>
				<gx:coord>-71.626091 -16.296455 2691.7</gx:coord>
				<gx:coord>-71.62618500000001 -16.296475 2691.7</gx:coord>
				<gx:coord>-71.62611800000001 -16.296525 2701.3</gx:coord>
				<gx:coord>-71.626135 -16.296466 2691.3</gx:coord>
				<gx:coord>-71.626131 -16.296445 2703.3</gx:coord>
				<gx:coord>-71.62611800000001 -16.296511 2718</gx:coord>
				<gx:coord>-71.626165 -16.29649 2713.1</gx:coord>
				<gx:coord>-71.626233 -16.296511 2695</gx:coord>
				<gx:coord>-71.625868 -16.296446 2717.4</gx:coord>
				<gx:coord>-71.62573999999999 -16.296331 2723.7</gx:coord>
				<gx:coord>-71.62573999999999 -16.296331 2682.13</gx:coord>
				<gx:coord>-71.625969 -16.296525 2679.88</gx:coord>
				<gx:coord>-71.626311 -16.296218 2676.86</gx:coord>
				<gx:coord>-71.62632499999999 -16.296206 2676.68</gx:coord>
				<gx:coord>-71.62632499999999 -16.296206 2700.1</gx:coord>
				<gx:coord>-71.626288 -16.29622 2703</gx:coord>
				<gx:coord>-71.62625800000001 -16.296203 2703.1</gx:coord>
				<gx:coord>-71.626203 -16.29623 2703</gx:coord>
				<gx:coord>-71.62646100000001 -16.29627 2691.3</gx:coord>
				<gx:coord>-71.626268 -16.296153 2703</gx:coord>
				<gx:coord>-71.626233 -16.29622 2703.3</gx:coord>
				<gx:coord>-71.62638099999999 -16.296215 2683.1</gx:coord>
				<gx:coord>-71.626361 -16.296251 2699.4</gx:coord>
				<gx:coord>-71.626305 -16.296255 2681.2</gx:coord>
				<gx:coord>-71.626356 -16.296235 2681.4</gx:coord>
				<gx:coord>-71.626373 -16.296218 2681.4</gx:coord>
				<gx:coord>-71.62635 -16.296356 2681.5</gx:coord>
				<gx:coord>-71.62635 -16.296356 2675.99</gx:coord>
				<gx:coord>-71.62607300000001 -16.29664 2678.24</gx:coord>
				<gx:coord>-71.626175 -16.296713 2676.86</gx:coord>
				<gx:coord>-71.626175 -16.296713 2676.86</gx:coord>
				<gx:coord>-71.626223 -16.29684 2675.95</gx:coord>
				<gx:coord>-71.626223 -16.29684 2675.95</gx:coord>
				<gx:coord>-71.62633 -16.296796 2675.36</gx:coord>
				<gx:coord>-71.62597100000001 -16.296831 2677.65</gx:coord>
				<gx:coord>-71.62597100000001 -16.296831 2707.6</gx:coord>
				<gx:coord>-71.62598300000001 -16.296793 2719.7</gx:coord>
				<gx:coord>-71.62610100000001 -16.29669 2718.7</gx:coord>
				<gx:coord>-71.62610599999999 -16.296843 2715.8</gx:coord>
				<gx:coord>-71.626103 -16.296726 2716.7</gx:coord>
				<gx:coord>-71.626228 -16.296821 2716.4</gx:coord>
				<gx:coord>-71.62599 -16.29676 2712.5</gx:coord>
				<gx:coord>-71.626023 -16.296853 2711.1</gx:coord>
				<gx:coord>-71.62597100000001 -16.29671 2719.2</gx:coord>
				<gx:coord>-71.626195 -16.2968 2699.6</gx:coord>
				<gx:coord>-71.626195 -16.2968 2676.31</gx:coord>
				<gx:coord>-71.625919 -16.296786 2678.33</gx:coord>
				<gx:coord>-71.626138 -16.29693 2676</gx:coord>
				<gx:coord>-71.626138 -16.29693 2699.4</gx:coord>
				<gx:coord>-71.626093 -16.29678 2699</gx:coord>
				<gx:coord>-71.62623600000001 -16.296728 2699</gx:coord>
				<gx:coord>-71.626053 -16.296761 2698.9</gx:coord>
				<gx:coord>-71.626103 -16.296836 2699</gx:coord>
				<gx:coord>-71.626103 -16.296836 2676.79</gx:coord>
				<gx:coord>-71.626035 -16.296715 2678.11</gx:coord>
				<gx:coord>-71.62641600000001 -16.296926 2674.65</gx:coord>
				<gx:coord>-71.62641600000001 -16.296926 2701.5</gx:coord>
				<gx:coord>-71.62625 -16.296831 2701.8</gx:coord>
				<gx:coord>-71.62667999999999 -16.297323 2702</gx:coord>
				<gx:coord>-71.626265 -16.296913 2702</gx:coord>
				<gx:coord>-71.626318 -16.297005 2700.3</gx:coord>
				<gx:coord>-71.626333 -16.296876 2703.7</gx:coord>
				<gx:coord>-71.626296 -16.296848 2708.1</gx:coord>
				<gx:coord>-71.626413 -16.296956 2712.2</gx:coord>
				<gx:coord>-71.626373 -16.296868 2710</gx:coord>
				<gx:coord>-71.62635 -16.296888 2708.9</gx:coord>
				<gx:coord>-71.626231 -16.296815 2710.1</gx:coord>
				<gx:coord>-71.626248 -16.29686 2708.6</gx:coord>
				<gx:coord>-71.626088 -16.296781 2710</gx:coord>
				<gx:coord>-71.62624 -16.296806 2711.2</gx:coord>
				<gx:coord>-71.626285 -16.296655 2711.2</gx:coord>
				<gx:coord>-71.625845 -16.296525 2711.2</gx:coord>
				<gx:coord>-71.62574600000001 -16.29634 2711.1</gx:coord>
				<gx:coord>-71.625666 -16.29619 2711.2</gx:coord>
				<gx:coord>-71.625936 -16.29619 2708.3</gx:coord>
				<gx:coord>-71.62587600000001 -16.296445 2708.1</gx:coord>
				<gx:coord>-71.626361 -16.296771 2708.1</gx:coord>
				<gx:coord>-71.62636500000001 -16.296936 2708.3</gx:coord>
				<gx:coord>-71.626256 -16.296908 2708.2</gx:coord>
				<gx:coord>-71.626451 -16.296968 2708.5</gx:coord>
				<gx:coord>-71.626363 -16.296871 2707.7</gx:coord>
				<gx:coord>-71.626583 -16.297156 2709.6</gx:coord>
				<gx:coord>-71.6267 -16.297315 2705.6</gx:coord>
				<gx:coord>-71.62622 -16.297441 2705.8</gx:coord>
				<gx:coord>-71.62599299999999 -16.297516 2704.8</gx:coord>
				<gx:coord>-71.626115 -16.29756 2694.3</gx:coord>
				<gx:coord>-71.626103 -16.297548 2688.5</gx:coord>
				<gx:coord>-71.626268 -16.297625 2691.6</gx:coord>
				<gx:coord>-71.62612799999999 -16.297605 2688.7</gx:coord>
				<gx:coord>-71.62614499999999 -16.297575 2694.7</gx:coord>
				<gx:coord>-71.6259 -16.297456 2694.6</gx:coord>
				<gx:coord>-71.626181 -16.297585 2694.9</gx:coord>
				<gx:coord>-71.62620099999999 -16.297595 2690.1</gx:coord>
				<gx:coord>-71.626153 -16.29758 2694.7</gx:coord>
				<gx:coord>-71.626126 -16.29763 2691.1</gx:coord>
				<gx:coord>-71.62629099999999 -16.29767 2693.9</gx:coord>
				<gx:coord>-71.62628599999999 -16.297631 2693.5</gx:coord>
				<gx:coord>-71.625986 -16.297706 2695.6</gx:coord>
			</gx:Track>
		</Placemark>
	</Folder>
</Document>
</kml>
