<?xml version="1.0" encoding="UTF-8"?>
<kml xmlns="http://www.opengis.net/kml/2.2" xmlns:gx="http://www.google.com/kml/ext/2.2" xmlns:kml="http://www.opengis.net/kml/2.2" xmlns:atom="http://www.w3.org/2005/Atom">
<Document>
	<name>GPS-25 30-11-2024 GRUPO 04</name>
	<visibility>0</visibility>
	<snippet>Created vie. Mar. 14 09:00:57 2025</snippet>
	<LookAt>
		<gx:TimeSpan>
			<begin>2024-11-30T13:42:24.43Z</begin>
			<end>2024-11-30T18:12:07.778Z</end>
		</gx:TimeSpan>
		<longitude>-71.63708099999999</longitude>
		<latitude>-16.304311</latitude>
		<altitude>0</altitude>
		<heading>0</heading>
		<tilt>0</tilt>
		<range>1300</range>
	</LookAt>
	<atom:link rel="app" href="https://www.google.com/earth/about/versions/#earth-pro" title="Google Earth Pro 7.3.6.10441"></atom:link>
	<StyleMap id="multiTrack10144">
		<Pair>
			<key>normal</key>
			<styleUrl>#multiTrack_n10144</styleUrl>
		</Pair>
		<Pair>
			<key>highlight</key>
			<styleUrl>#multiTrack_h10144</styleUrl>
		</Pair>
	</StyleMap>
	<Style id="multiTrack_h10144">
		<IconStyle>
			<scale>1.2</scale>
			<Icon>
				<href>https://earth.google.com/images/kml-icons/track-directional/track-0.png</href>
			</Icon>
		</IconStyle>
		<LineStyle>
			<color>99ffac59</color>
			<width>8</width>
		</LineStyle>
	</Style>
	<Style id="multiTrack_n10144">
		<IconStyle>
			<Icon>
				<href>https://earth.google.com/images/kml-icons/track-directional/track-0.png</href>
			</Icon>
		</IconStyle>
		<LineStyle>
			<color>99ffac59</color>
			<width>6</width>
		</LineStyle>
	</Style>
	<Folder>
		<name>Tracks</name>
		<visibility>0</visibility>
		<Placemark>
			<name>GT-25 30-11-2024 GRUPO 04</name>
			<visibility>0</visibility>
			<styleUrl>#multiTrack10144</styleUrl>
			<gx:Track>
				<when>2024-11-30T13:42:24.43Z</when>
				<when>2024-11-30T13:43:00.18Z</when>
				<when>2024-11-30T13:43:15.171Z</when>
				<when>2024-11-30T13:43:15.361Z</when>
				<when>2024-11-30T13:44:15.477Z</when>
				<when>2024-11-30T13:44:52.788Z</when>
				<when>2024-11-30T13:44:52.978Z</when>
				<when>2024-11-30T13:46:35.809Z</when>
				<when>2024-11-30T13:47:18.175Z</when>
				<when>2024-11-30T13:48:18.669Z</when>
				<when>2024-11-30T13:48:18.669Z</when>
				<when>2024-11-30T13:49:03.502Z</when>
				<when>2024-11-30T13:50:27.89Z</when>
				<when>2024-11-30T13:50:27.89Z</when>
				<when>2024-11-30T13:51:26.944Z</when>
				<when>2024-11-30T13:51:39.564Z</when>
				<when>2024-11-30T13:51:39.564Z</when>
				<when>2024-11-30T13:52:06.839Z</when>
				<when>2024-11-30T13:52:06.839Z</when>
				<when>2024-11-30T13:52:24.51Z</when>
				<when>2024-11-30T13:52:57.817Z</when>
				<when>2024-11-30T13:52:57.817Z</when>
				<when>2024-11-30T13:55:37.404Z</when>
				<when>2024-11-30T13:55:53.37Z</when>
				<when>2024-11-30T13:56:13.605Z</when>
				<when>2024-11-30T13:56:13.605Z</when>
				<when>2024-11-30T13:58:02.492Z</when>
				<when>2024-11-30T13:58:41.205Z</when>
				<when>2024-11-30T13:58:55.229Z</when>
				<when>2024-11-30T13:58:55.229Z</when>
				<when>2024-11-30T13:59:08.588Z</when>
				<when>2024-11-30T13:59:08.588Z</when>
				<when>2024-11-30T13:59:36.919Z</when>
				<when>2024-11-30T13:59:41.887Z</when>
				<when>2024-11-30T13:59:41.887Z</when>
				<when>2024-11-30T14:02:29Z</when>
				<when>2024-11-30T14:03:04Z</when>
				<when>2024-11-30T14:03:44Z</when>
				<when>2024-11-30T14:04:20.703Z</when>
				<when>2024-11-30T14:04:58.383Z</when>
				<when>2024-11-30T14:05:43.095Z</when>
				<when>2024-11-30T14:06:30Z</when>
				<when>2024-11-30T14:07:10Z</when>
				<when>2024-11-30T14:07:52Z</when>
				<when>2024-11-30T14:08:33Z</when>
				<when>2024-11-30T14:09:10Z</when>
				<when>2024-11-30T14:09:48Z</when>
				<when>2024-11-30T14:10:36Z</when>
				<when>2024-11-30T14:11:16Z</when>
				<when>2024-11-30T14:11:55.699Z</when>
				<when>2024-11-30T14:12:01.019Z</when>
				<when>2024-11-30T14:12:01.149Z</when>
				<when>2024-11-30T14:12:31.958Z</when>
				<when>2024-11-30T14:12:40.925Z</when>
				<when>2024-11-30T14:12:40.925Z</when>
				<when>2024-11-30T14:16:57.71Z</when>
				<when>2024-11-30T14:17:42.414Z</when>
				<when>2024-11-30T14:18:26.127Z</when>
				<when>2024-11-30T14:19:01.794Z</when>
				<when>2024-11-30T14:19:39.499Z</when>
				<when>2024-11-30T14:20:21.179Z</when>
				<when>2024-11-30T14:21:00.882Z</when>
				<when>2024-11-30T14:21:11.801Z</when>
				<when>2024-11-30T14:21:11.801Z</when>
				<when>2024-11-30T14:22:22.08Z</when>
				<when>2024-11-30T14:22:22.08Z</when>
				<when>2024-11-30T14:23:15.078Z</when>
				<when>2024-11-30T14:23:15.078Z</when>
				<when>2024-11-30T14:24:52.871Z</when>
				<when>2024-11-30T14:24:52.871Z</when>
				<when>2024-11-30T14:26:32.509Z</when>
				<when>2024-11-30T14:27:16.902Z</when>
				<when>2024-11-30T14:27:16.902Z</when>
				<when>2024-11-30T14:27:24Z</when>
				<when>2024-11-30T14:28:05Z</when>
				<when>2024-11-30T14:28:49.668Z</when>
				<when>2024-11-30T14:29:29.406Z</when>
				<when>2024-11-30T14:30:20Z</when>
				<when>2024-11-30T14:31:20Z</when>
				<when>2024-11-30T14:31:48.676Z</when>
				<when>2024-11-30T14:31:48.852Z</when>
				<when>2024-11-30T14:32:07.527Z</when>
				<when>2024-11-30T14:32:07.527Z</when>
				<when>2024-11-30T14:32:34.332Z</when>
				<when>2024-11-30T14:33:29.416Z</when>
				<when>2024-11-30T14:33:29.416Z</when>
				<when>2024-11-30T14:34:59Z</when>
				<when>2024-11-30T14:35:37Z</when>
				<when>2024-11-30T14:36:17Z</when>
				<when>2024-11-30T14:37:05.393Z</when>
				<when>2024-11-30T14:37:05.9Z</when>
				<when>2024-11-30T14:38:00.76Z</when>
				<when>2024-11-30T14:39:05.743Z</when>
				<when>2024-11-30T14:39:05.743Z</when>
				<when>2024-11-30T14:40:32.795Z</when>
				<when>2024-11-30T14:42:09.031Z</when>
				<when>2024-11-30T14:42:09.031Z</when>
				<when>2024-11-30T14:43:43Z</when>
				<when>2024-11-30T14:44:25Z</when>
				<when>2024-11-30T14:45:06.664Z</when>
				<when>2024-11-30T14:45:47.392Z</when>
				<when>2024-11-30T14:46:28.084Z</when>
				<when>2024-11-30T14:47:06.785Z</when>
				<when>2024-11-30T14:47:47.51Z</when>
				<when>2024-11-30T14:48:27.173Z</when>
				<when>2024-11-30T14:49:04.876Z</when>
				<when>2024-11-30T14:49:43.218Z</when>
				<when>2024-11-30T14:49:43.218Z</when>
				<when>2024-11-30T14:49:55.679Z</when>
				<when>2024-11-30T14:50:30.431Z</when>
				<when>2024-11-30T14:50:30.431Z</when>
				<when>2024-11-30T14:50:30.431Z</when>
				<when>2024-11-30T14:51:31.748Z</when>
				<when>2024-11-30T14:52:20.678Z</when>
				<when>2024-11-30T14:53:03.916Z</when>
				<when>2024-11-30T14:53:04.032Z</when>
				<when>2024-11-30T14:56:23Z</when>
				<when>2024-11-30T14:57:07Z</when>
				<when>2024-11-30T14:57:40.858Z</when>
				<when>2024-11-30T14:57:40.858Z</when>
				<when>2024-11-30T14:58:43.265Z</when>
				<when>2024-11-30T14:59:09.857Z</when>
				<when>2024-11-30T14:59:09.857Z</when>
				<when>2024-11-30T15:00:18.611Z</when>
				<when>2024-11-30T15:01:05Z</when>
				<when>2024-11-30T15:01:53Z</when>
				<when>2024-11-30T15:02:32Z</when>
				<when>2024-11-30T15:03:21Z</when>
				<when>2024-11-30T15:04:10.601Z</when>
				<when>2024-11-30T15:04:10.601Z</when>
				<when>2024-11-30T15:04:54.243Z</when>
				<when>2024-11-30T15:05:17.158Z</when>
				<when>2024-11-30T15:05:17.302Z</when>
				<when>2024-11-30T15:05:17.446Z</when>
				<when>2024-11-30T15:06:05.344Z</when>
				<when>2024-11-30T15:06:28.234Z</when>
				<when>2024-11-30T15:06:28.234Z</when>
				<when>2024-11-30T15:08:26.634Z</when>
				<when>2024-11-30T15:09:21.634Z</when>
				<when>2024-11-30T15:10:01.634Z</when>
				<when>2024-11-30T15:10:49.634Z</when>
				<when>2024-11-30T15:11:28.634Z</when>
				<when>2024-11-30T15:12:06.634Z</when>
				<when>2024-11-30T15:12:08.257Z</when>
				<when>2024-11-30T15:12:08.266Z</when>
				<when>2024-11-30T15:12:11.125Z</when>
				<when>2024-11-30T15:12:13.15Z</when>
				<when>2024-11-30T15:12:13.15Z</when>
				<when>2024-11-30T15:15:00.634Z</when>
				<when>2024-11-30T15:15:49.634Z</when>
				<when>2024-11-30T15:16:27.634Z</when>
				<when>2024-11-30T15:17:09.634Z</when>
				<when>2024-11-30T15:17:54.634Z</when>
				<when>2024-11-30T15:18:39.634Z</when>
				<when>2024-11-30T15:19:18.634Z</when>
				<when>2024-11-30T15:19:54.634Z</when>
				<when>2024-11-30T15:20:32.634Z</when>
				<when>2024-11-30T15:21:30.634Z</when>
				<when>2024-11-30T15:22:05.634Z</when>
				<when>2024-11-30T15:22:51.634Z</when>
				<when>2024-11-30T15:23:39.634Z</when>
				<when>2024-11-30T15:24:14.634Z</when>
				<when>2024-11-30T15:24:49.634Z</when>
				<when>2024-11-30T15:25:28.634Z</when>
				<when>2024-11-30T15:26:21.634Z</when>
				<when>2024-11-30T15:27:06.634Z</when>
				<when>2024-11-30T15:28:14.634Z</when>
				<when>2024-11-30T15:29:52.323Z</when>
				<when>2024-11-30T15:29:52.323Z</when>
				<when>2024-11-30T15:31:38.291Z</when>
				<when>2024-11-30T15:31:38.669Z</when>
				<when>2024-11-30T15:33:18.187Z</when>
				<when>2024-11-30T15:35:09.174Z</when>
				<when>2024-11-30T15:35:09.552Z</when>
				<when>2024-11-30T15:37:20.06Z</when>
				<when>2024-11-30T15:37:20.06Z</when>
				<when>2024-11-30T15:38:08.695Z</when>
				<when>2024-11-30T15:39:51.782Z</when>
				<when>2024-11-30T15:41:17.972Z</when>
				<when>2024-11-30T15:41:17.972Z</when>
				<when>2024-11-30T15:43:32.017Z</when>
				<when>2024-11-30T15:44:15.706Z</when>
				<when>2024-11-30T15:51:28.849Z</when>
				<when>2024-11-30T15:51:28.849Z</when>
				<when>2024-11-30T15:52:28.115Z</when>
				<when>2024-11-30T15:52:28.115Z</when>
				<when>2024-11-30T15:53:11.178Z</when>
				<when>2024-11-30T15:53:50.178Z</when>
				<when>2024-11-30T16:01:47.728Z</when>
				<when>2024-11-30T16:01:47.728Z</when>
				<when>2024-11-30T16:03:08.599Z</when>
				<when>2024-11-30T16:03:08.599Z</when>
				<when>2024-11-30T16:11:59.778Z</when>
				<when>2024-11-30T16:12:39.778Z</when>
				<when>2024-11-30T16:13:18.485Z</when>
				<when>2024-11-30T16:13:22.907Z</when>
				<when>2024-11-30T16:13:22.907Z</when>
				<when>2024-11-30T16:13:49.977Z</when>
				<when>2024-11-30T16:14:12.296Z</when>
				<when>2024-11-30T16:14:12.435Z</when>
				<when>2024-11-30T16:17:14.686Z</when>
				<when>2024-11-30T16:17:53.382Z</when>
				<when>2024-11-30T16:18:33.092Z</when>
				<when>2024-11-30T16:19:13.773Z</when>
				<when>2024-11-30T16:19:59.495Z</when>
				<when>2024-11-30T16:20:47.778Z</when>
				<when>2024-11-30T16:21:24.778Z</when>
				<when>2024-11-30T16:22:01.778Z</when>
				<when>2024-11-30T16:22:37.778Z</when>
				<when>2024-11-30T16:23:23.778Z</when>
				<when>2024-11-30T16:24:00.459Z</when>
				<when>2024-11-30T16:24:38.177Z</when>
				<when>2024-11-30T16:25:19.882Z</when>
				<when>2024-11-30T16:25:59.561Z</when>
				<when>2024-11-30T16:26:39.267Z</when>
				<when>2024-11-30T16:27:27.973Z</when>
				<when>2024-11-30T16:28:08.673Z</when>
				<when>2024-11-30T16:28:46.363Z</when>
				<when>2024-11-30T16:29:26.062Z</when>
				<when>2024-11-30T16:30:05.749Z</when>
				<when>2024-11-30T16:30:49.448Z</when>
				<when>2024-11-30T16:31:32.166Z</when>
				<when>2024-11-30T16:32:10.839Z</when>
				<when>2024-11-30T16:32:56.563Z</when>
				<when>2024-11-30T16:33:45.778Z</when>
				<when>2024-11-30T16:34:27.501Z</when>
				<when>2024-11-30T16:35:07.174Z</when>
				<when>2024-11-30T16:35:49.888Z</when>
				<when>2024-11-30T16:36:29.594Z</when>
				<when>2024-11-30T16:37:17.778Z</when>
				<when>2024-11-30T16:37:46.451Z</when>
				<when>2024-11-30T16:37:46.451Z</when>
				<when>2024-11-30T16:38:16.079Z</when>
				<when>2024-11-30T16:38:44.475Z</when>
				<when>2024-11-30T16:38:44.475Z</when>
				<when>2024-11-30T16:40:17.778Z</when>
				<when>2024-11-30T16:40:56.778Z</when>
				<when>2024-11-30T16:41:41.461Z</when>
				<when>2024-11-30T16:42:42.783Z</when>
				<when>2024-11-30T16:42:42.783Z</when>
				<when>2024-11-30T16:44:02.29Z</when>
				<when>2024-11-30T16:44:49.006Z</when>
				<when>2024-11-30T16:44:49.006Z</when>
				<when>2024-11-30T16:47:08.778Z</when>
				<when>2024-11-30T16:47:21.326Z</when>
				<when>2024-11-30T16:47:21.326Z</when>
				<when>2024-11-30T16:47:29.703Z</when>
				<when>2024-11-30T16:47:48.483Z</when>
				<when>2024-11-30T16:47:48.483Z</when>
				<when>2024-11-30T16:47:48.483Z</when>
				<when>2024-11-30T16:48:36.905Z</when>
				<when>2024-11-30T16:49:30.981Z</when>
				<when>2024-11-30T16:51:26.213Z</when>
				<when>2024-11-30T16:53:43.631Z</when>
				<when>2024-11-30T16:54:12.734Z</when>
				<when>2024-11-30T16:54:48.725Z</when>
				<when>2024-11-30T16:54:48.985Z</when>
				<when>2024-11-30T16:59:48.71Z</when>
				<when>2024-11-30T17:00:26.453Z</when>
				<when>2024-11-30T17:01:03.206Z</when>
				<when>2024-11-30T17:01:39.881Z</when>
				<when>2024-11-30T17:02:17.648Z</when>
				<when>2024-11-30T17:02:57.392Z</when>
				<when>2024-11-30T17:03:35.094Z</when>
				<when>2024-11-30T17:04:13.792Z</when>
				<when>2024-11-30T17:04:53.544Z</when>
				<when>2024-11-30T17:05:33.299Z</when>
				<when>2024-11-30T17:06:12.042Z</when>
				<when>2024-11-30T17:06:58.778Z</when>
				<when>2024-11-30T17:07:41.496Z</when>
				<when>2024-11-30T17:08:20.185Z</when>
				<when>2024-11-30T17:08:58.884Z</when>
				<when>2024-11-30T17:09:37.585Z</when>
				<when>2024-11-30T17:10:15.29Z</when>
				<when>2024-11-30T17:11:00.778Z</when>
				<when>2024-11-30T17:11:36.778Z</when>
				<when>2024-11-30T17:12:17.47Z</when>
				<when>2024-11-30T17:12:58.181Z</when>
				<when>2024-11-30T17:13:38.883Z</when>
				<when>2024-11-30T17:14:19.578Z</when>
				<when>2024-11-30T17:14:59.275Z</when>
				<when>2024-11-30T17:15:50.778Z</when>
				<when>2024-11-30T17:16:27.778Z</when>
				<when>2024-11-30T17:17:07.778Z</when>
				<when>2024-11-30T17:17:51.455Z</when>
				<when>2024-11-30T17:18:39.778Z</when>
				<when>2024-11-30T17:19:22.462Z</when>
				<when>2024-11-30T17:20:03.778Z</when>
				<when>2024-11-30T17:20:47.778Z</when>
				<when>2024-11-30T17:21:27.778Z</when>
				<when>2024-11-30T17:22:06.778Z</when>
				<when>2024-11-30T17:22:44.778Z</when>
				<when>2024-11-30T17:23:21.778Z</when>
				<when>2024-11-30T17:23:59.778Z</when>
				<when>2024-11-30T17:24:38.778Z</when>
				<when>2024-11-30T17:25:19.449Z</when>
				<when>2024-11-30T17:26:01.157Z</when>
				<when>2024-11-30T17:26:49.857Z</when>
				<when>2024-11-30T17:27:32.601Z</when>
				<when>2024-11-30T17:28:20.299Z</when>
				<when>2024-11-30T17:28:58.991Z</when>
				<when>2024-11-30T17:29:41.69Z</when>
				<when>2024-11-30T17:30:18.389Z</when>
				<when>2024-11-30T17:31:05.778Z</when>
				<when>2024-11-30T17:31:40.778Z</when>
				<when>2024-11-30T17:32:20.778Z</when>
				<when>2024-11-30T17:33:08.778Z</when>
				<when>2024-11-30T17:33:43.778Z</when>
				<when>2024-11-30T17:34:23.778Z</when>
				<when>2024-11-30T17:35:05.778Z</when>
				<when>2024-11-30T17:35:49.471Z</when>
				<when>2024-11-30T17:36:38.778Z</when>
				<when>2024-11-30T17:37:17.778Z</when>
				<when>2024-11-30T17:37:57.778Z</when>
				<when>2024-11-30T17:38:45.778Z</when>
				<when>2024-11-30T17:39:24.778Z</when>
				<when>2024-11-30T17:40:02.778Z</when>
				<when>2024-11-30T17:40:43.778Z</when>
				<when>2024-11-30T17:41:25.509Z</when>
				<when>2024-11-30T17:42:06.201Z</when>
				<when>2024-11-30T17:42:41.886Z</when>
				<when>2024-11-30T17:43:23.61Z</when>
				<when>2024-11-30T17:44:01.291Z</when>
				<when>2024-11-30T17:44:38.99Z</when>
				<when>2024-11-30T17:45:15.686Z</when>
				<when>2024-11-30T17:45:59.778Z</when>
				<when>2024-11-30T17:46:34.778Z</when>
				<when>2024-11-30T17:47:09.778Z</when>
				<when>2024-11-30T17:47:47.778Z</when>
				<when>2024-11-30T17:48:31.778Z</when>
				<when>2024-11-30T17:49:08.778Z</when>
				<when>2024-11-30T17:49:46.778Z</when>
				<when>2024-11-30T17:50:24.778Z</when>
				<when>2024-11-30T17:51:03.476Z</when>
				<when>2024-11-30T17:51:42.204Z</when>
				<when>2024-11-30T17:52:26.907Z</when>
				<when>2024-11-30T17:53:07.589Z</when>
				<when>2024-11-30T17:53:47.299Z</when>
				<when>2024-11-30T17:54:31.009Z</when>
				<when>2024-11-30T17:55:13.687Z</when>
				<when>2024-11-30T17:55:59.778Z</when>
				<when>2024-11-30T17:56:43.778Z</when>
				<when>2024-11-30T17:57:18.778Z</when>
				<when>2024-11-30T17:57:57.778Z</when>
				<when>2024-11-30T17:58:37.778Z</when>
				<when>2024-11-30T17:59:24.778Z</when>
				<when>2024-11-30T18:00:01.778Z</when>
				<when>2024-11-30T18:00:41.778Z</when>
				<when>2024-11-30T18:01:32.778Z</when>
				<when>2024-11-30T18:02:07.468Z</when>
				<when>2024-11-30T18:02:45.778Z</when>
				<when>2024-11-30T18:03:29.778Z</when>
				<when>2024-11-30T18:04:06.778Z</when>
				<when>2024-11-30T18:04:43.778Z</when>
				<when>2024-11-30T18:05:22.778Z</when>
				<when>2024-11-30T18:06:03.778Z</when>
				<when>2024-11-30T18:06:47.778Z</when>
				<when>2024-11-30T18:07:28.778Z</when>
				<when>2024-11-30T18:08:04.778Z</when>
				<when>2024-11-30T18:08:46.778Z</when>
				<when>2024-11-30T18:09:23.778Z</when>
				<when>2024-11-30T18:10:04.778Z</when>
				<when>2024-11-30T18:10:46.778Z</when>
				<when>2024-11-30T18:11:28.778Z</when>
				<when>2024-11-30T18:12:07.778Z</when>
				<gx:coord>-71.637125 -16.305328 2618.9</gx:coord>
				<gx:coord>-71.637061 -16.305278 2619</gx:coord>
				<gx:coord>-71.63699099999999 -16.305276 2618.9</gx:coord>
				<gx:coord>-71.63699099999999 -16.305276 2594.31</gx:coord>
				<gx:coord>-71.637185 -16.305081 2597</gx:coord>
				<gx:coord>-71.63714 -16.305243 2595.8</gx:coord>
				<gx:coord>-71.63714 -16.305243 2618.7</gx:coord>
				<gx:coord>-71.63714 -16.305243 2595.8</gx:coord>
				<gx:coord>-71.637182 -16.305054 2597.13</gx:coord>
				<gx:coord>-71.637018 -16.305281 2594.53</gx:coord>
				<gx:coord>-71.637018 -16.305281 2587.7</gx:coord>
				<gx:coord>-71.63715000000001 -16.305075 2620.6</gx:coord>
				<gx:coord>-71.6371 -16.305213 2617.5</gx:coord>
				<gx:coord>-71.6371 -16.305213 2595.62</gx:coord>
				<gx:coord>-71.63717 -16.305136 2596.58</gx:coord>
				<gx:coord>-71.637148 -16.30514 2596.4</gx:coord>
				<gx:coord>-71.637148 -16.30514 2627</gx:coord>
				<gx:coord>-71.637058 -16.305296 2652.4</gx:coord>
				<gx:coord>-71.637058 -16.305296 2594.82</gx:coord>
				<gx:coord>-71.63695 -16.305244 2594.03</gx:coord>
				<gx:coord>-71.637125 -16.305105 2596.4</gx:coord>
				<gx:coord>-71.637125 -16.305105 2645.1</gx:coord>
				<gx:coord>-71.637125 -16.305105 2596.4</gx:coord>
				<gx:coord>-71.637092 -16.305028 2596.61</gx:coord>
				<gx:coord>-71.63704799999999 -16.305125 2595.64</gx:coord>
				<gx:coord>-71.63704799999999 -16.305125 2645</gx:coord>
				<gx:coord>-71.63715000000001 -16.305076 2645.1</gx:coord>
				<gx:coord>-71.637011 -16.30502 2645.1</gx:coord>
				<gx:coord>-71.63706999999999 -16.305133 2645.2</gx:coord>
				<gx:coord>-71.63706999999999 -16.305133 2595.78</gx:coord>
				<gx:coord>-71.637146 -16.305034 2596.96</gx:coord>
				<gx:coord>-71.637146 -16.305034 2596.96</gx:coord>
				<gx:coord>-71.63698599999999 -16.305245 2594.36</gx:coord>
				<gx:coord>-71.637005 -16.305203 2594.76</gx:coord>
				<gx:coord>-71.637005 -16.305203 2644.7</gx:coord>
				<gx:coord>-71.637118 -16.305155 2644.2</gx:coord>
				<gx:coord>-71.637165 -16.305133 2645.2</gx:coord>
				<gx:coord>-71.637168 -16.305245 2599.7</gx:coord>
				<gx:coord>-71.63703599999999 -16.30527 2599.8</gx:coord>
				<gx:coord>-71.63718799999999 -16.305138 2599.7</gx:coord>
				<gx:coord>-71.63706000000001 -16.305138 2599.7</gx:coord>
				<gx:coord>-71.637038 -16.305205 2599.4</gx:coord>
				<gx:coord>-71.637078 -16.305161 2599.5</gx:coord>
				<gx:coord>-71.63707100000001 -16.3053 2599.3</gx:coord>
				<gx:coord>-71.63704300000001 -16.305156 2599.9</gx:coord>
				<gx:coord>-71.637045 -16.30528 2599.4</gx:coord>
				<gx:coord>-71.637063 -16.305308 2600</gx:coord>
				<gx:coord>-71.63692 -16.305091 2600.2</gx:coord>
				<gx:coord>-71.637016 -16.30499 2601.2</gx:coord>
				<gx:coord>-71.63711000000001 -16.305201 2599.9</gx:coord>
				<gx:coord>-71.63709 -16.30523 2600.7</gx:coord>
				<gx:coord>-71.63709 -16.30523 2595.43</gx:coord>
				<gx:coord>-71.637124 -16.305031 2596.79</gx:coord>
				<gx:coord>-71.637163 -16.305076 2596.85</gx:coord>
				<gx:coord>-71.637163 -16.305076 2600.6</gx:coord>
				<gx:coord>-71.637028 -16.30515 2600.6</gx:coord>
				<gx:coord>-71.63710500000001 -16.305323 2600.6</gx:coord>
				<gx:coord>-71.63711499999999 -16.305123 2600.5</gx:coord>
				<gx:coord>-71.63699099999999 -16.305253 2600.5</gx:coord>
				<gx:coord>-71.63709 -16.305181 2600.5</gx:coord>
				<gx:coord>-71.63718299999999 -16.305181 2600.6</gx:coord>
				<gx:coord>-71.63708 -16.30524 2600.6</gx:coord>
				<gx:coord>-71.637041 -16.305248 2604.3</gx:coord>
				<gx:coord>-71.637041 -16.305248 2594.85</gx:coord>
				<gx:coord>-71.636999 -16.305115 2595.33</gx:coord>
				<gx:coord>-71.636999 -16.305115 2595.33</gx:coord>
				<gx:coord>-71.637109 -16.305199 2595.78</gx:coord>
				<gx:coord>-71.637109 -16.305199 2595.78</gx:coord>
				<gx:coord>-71.637062 -16.305379 2594.52</gx:coord>
				<gx:coord>-71.637062 -16.305379 2594.52</gx:coord>
				<gx:coord>-71.6371 -16.305194 2595.73</gx:coord>
				<gx:coord>-71.637013 -16.305186 2594.94</gx:coord>
				<gx:coord>-71.637013 -16.305186 2583.6</gx:coord>
				<gx:coord>-71.63708800000001 -16.305253 2584.9</gx:coord>
				<gx:coord>-71.637106 -16.305315 2586.1</gx:coord>
				<gx:coord>-71.637055 -16.30514 2584.1</gx:coord>
				<gx:coord>-71.636855 -16.304903 2584.1</gx:coord>
				<gx:coord>-71.636791 -16.3048 2584.1</gx:coord>
				<gx:coord>-71.636853 -16.304736 2583.3</gx:coord>
				<gx:coord>-71.63683 -16.304873 2585.3</gx:coord>
				<gx:coord>-71.63683 -16.304873 2596.47</gx:coord>
				<gx:coord>-71.636805 -16.304837 2596.64</gx:coord>
				<gx:coord>-71.636805 -16.304837 2596.64</gx:coord>
				<gx:coord>-71.63685099999999 -16.304881 2596.48</gx:coord>
				<gx:coord>-71.63673300000001 -16.304821 2596.56</gx:coord>
				<gx:coord>-71.63673300000001 -16.304821 2588.2</gx:coord>
				<gx:coord>-71.63682 -16.30478 2590.599999999999</gx:coord>
				<gx:coord>-71.63683 -16.304773 2588.3</gx:coord>
				<gx:coord>-71.63680600000001 -16.304773 2591.8</gx:coord>
				<gx:coord>-71.636886 -16.3048 2588.1</gx:coord>
				<gx:coord>-71.636886 -16.3048 2597.24</gx:coord>
				<gx:coord>-71.63680600000001 -16.304749 2597.29</gx:coord>
				<gx:coord>-71.636883 -16.30483 2597</gx:coord>
				<gx:coord>-71.636883 -16.30483 2597</gx:coord>
				<gx:coord>-71.63682799999999 -16.304718 2597.59</gx:coord>
				<gx:coord>-71.636848 -16.304853 2596.67</gx:coord>
				<gx:coord>-71.636848 -16.304853 2577.9</gx:coord>
				<gx:coord>-71.63681 -16.304703 2603.7</gx:coord>
				<gx:coord>-71.636781 -16.3047 2604.1</gx:coord>
				<gx:coord>-71.636685 -16.304465 2603.8</gx:coord>
				<gx:coord>-71.636763 -16.304446 2603.7</gx:coord>
				<gx:coord>-71.636641 -16.304443 2603.7</gx:coord>
				<gx:coord>-71.636663 -16.304463 2603.7</gx:coord>
				<gx:coord>-71.636478 -16.304415 2603.9</gx:coord>
				<gx:coord>-71.636741 -16.304405 2603.7</gx:coord>
				<gx:coord>-71.63664300000001 -16.304178 2615.5</gx:coord>
				<gx:coord>-71.636515 -16.303883 2613.4</gx:coord>
				<gx:coord>-71.636515 -16.303883 2601.75</gx:coord>
				<gx:coord>-71.63661399999999 -16.303925 2602.89</gx:coord>
				<gx:coord>-71.636351 -16.303783 2602.25</gx:coord>
				<gx:coord>-71.636351 -16.303783 2630.1</gx:coord>
				<gx:coord>-71.636351 -16.303783 2602.25</gx:coord>
				<gx:coord>-71.636336 -16.303334 2606.31</gx:coord>
				<gx:coord>-71.636324 -16.302975 2609.36</gx:coord>
				<gx:coord>-71.636393 -16.303285 2607</gx:coord>
				<gx:coord>-71.636393 -16.303285 2605</gx:coord>
				<gx:coord>-71.63614 -16.303096 2607.9</gx:coord>
				<gx:coord>-71.636173 -16.303256 2604.9</gx:coord>
				<gx:coord>-71.63608000000001 -16.303148 2680.6</gx:coord>
				<gx:coord>-71.63608000000001 -16.303148 2610.42</gx:coord>
				<gx:coord>-71.63622599999999 -16.302931 2609.47</gx:coord>
				<gx:coord>-71.636233 -16.303041 2609.2</gx:coord>
				<gx:coord>-71.636233 -16.303041 2684.1</gx:coord>
				<gx:coord>-71.63687 -16.303273 2680.1</gx:coord>
				<gx:coord>-71.636421 -16.302723 2679.1</gx:coord>
				<gx:coord>-71.636076 -16.303188 2676.5</gx:coord>
				<gx:coord>-71.636308 -16.30345 2676.6</gx:coord>
				<gx:coord>-71.636433 -16.30342 0</gx:coord>
				<gx:coord>-71.636188 -16.303246 2673.8</gx:coord>
				<gx:coord>-71.636188 -16.303246 2608.34</gx:coord>
				<gx:coord>-71.636447 -16.303314 2606.81</gx:coord>
				<gx:coord>-71.636405 -16.303443 2605.38</gx:coord>
				<gx:coord>-71.636405 -16.303443 2671.7</gx:coord>
				<gx:coord>-71.636405 -16.303443 2605.38</gx:coord>
				<gx:coord>-71.636235 -16.303108 2608.85</gx:coord>
				<gx:coord>-71.63605 -16.303108 2610.97</gx:coord>
				<gx:coord>-71.63605 -16.303108 2671.9</gx:coord>
				<gx:coord>-71.63620299999999 -16.303236 2671</gx:coord>
				<gx:coord>-71.63614099999999 -16.303211 2670.8</gx:coord>
				<gx:coord>-71.636206 -16.303136 2671</gx:coord>
				<gx:coord>-71.63612500000001 -16.302978 2670.1</gx:coord>
				<gx:coord>-71.636081 -16.30323 2608.5</gx:coord>
				<gx:coord>-71.636076 -16.303206 2609.6</gx:coord>
				<gx:coord>-71.63612000000001 -16.303343 2609.6</gx:coord>
				<gx:coord>-71.63612000000001 -16.303343 2608.7</gx:coord>
				<gx:coord>-71.636021 -16.303109 2611.29</gx:coord>
				<gx:coord>-71.636048 -16.303286 2610.2</gx:coord>
				<gx:coord>-71.636048 -16.303286 2610</gx:coord>
				<gx:coord>-71.63606799999999 -16.303253 2609.8</gx:coord>
				<gx:coord>-71.63610799999999 -16.30305 2609.6</gx:coord>
				<gx:coord>-71.636205 -16.303181 2611.9</gx:coord>
				<gx:coord>-71.63615299999999 -16.303153 2611.1</gx:coord>
				<gx:coord>-71.636138 -16.303088 2612.1</gx:coord>
				<gx:coord>-71.636016 -16.303015 2612.4</gx:coord>
				<gx:coord>-71.63590499999999 -16.302895 2625.2</gx:coord>
				<gx:coord>-71.635963 -16.30293 2616</gx:coord>
				<gx:coord>-71.635845 -16.302648 2624.1</gx:coord>
				<gx:coord>-71.635778 -16.302641 2611.7</gx:coord>
				<gx:coord>-71.635696 -16.302595 2621.7</gx:coord>
				<gx:coord>-71.635665 -16.302553 2639.2</gx:coord>
				<gx:coord>-71.635806 -16.30267 2606.8</gx:coord>
				<gx:coord>-71.63588 -16.302596 2609.1</gx:coord>
				<gx:coord>-71.63574 -16.302503 2607.6</gx:coord>
				<gx:coord>-71.635823 -16.302633 2606.5</gx:coord>
				<gx:coord>-71.635733 -16.302606 2606.9</gx:coord>
				<gx:coord>-71.635818 -16.30249 2606.6</gx:coord>
				<gx:coord>-71.63570799999999 -16.302633 2606.8</gx:coord>
				<gx:coord>-71.63589 -16.302466 2625.3</gx:coord>
				<gx:coord>-71.63589 -16.302466 2611.35</gx:coord>
				<gx:coord>-71.635822 -16.302696 2611.16</gx:coord>
				<gx:coord>-71.635822 -16.302696 2611.16</gx:coord>
				<gx:coord>-71.63570900000001 -16.302499 2611.34</gx:coord>
				<gx:coord>-71.63595100000001 -16.302592 2610.61</gx:coord>
				<gx:coord>-71.63595100000001 -16.302592 2610.61</gx:coord>
				<gx:coord>-71.635715 -16.302591 2611.2</gx:coord>
				<gx:coord>-71.635715 -16.302591 2611.2</gx:coord>
				<gx:coord>-71.635741 -16.30238 2611.77</gx:coord>
				<gx:coord>-71.635487 -16.302002 2613.77</gx:coord>
				<gx:coord>-71.63527499999999 -16.301686 2616.68</gx:coord>
				<gx:coord>-71.63527499999999 -16.301686 2596.9</gx:coord>
				<gx:coord>-71.63528100000001 -16.301641 2596.8</gx:coord>
				<gx:coord>-71.63534 -16.301788 2596.7</gx:coord>
				<gx:coord>-71.635412 -16.301539 2596.76</gx:coord>
				<gx:coord>-71.635412 -16.301539 2619.97</gx:coord>
				<gx:coord>-71.63543 -16.30157 2619.62</gx:coord>
				<gx:coord>-71.63543 -16.30157 2612.93</gx:coord>
				<gx:coord>-71.635426 -16.301595 2614.9</gx:coord>
				<gx:coord>-71.635351 -16.301638 2608</gx:coord>
				<gx:coord>-71.63537100000001 -16.30175 2609.7</gx:coord>
				<gx:coord>-71.63537100000001 -16.30175 2616.47</gx:coord>
				<gx:coord>-71.63539 -16.301757 2616.49</gx:coord>
				<gx:coord>-71.63539 -16.301757 2610.42</gx:coord>
				<gx:coord>-71.63526299999999 -16.301791 2609.7</gx:coord>
				<gx:coord>-71.63522 -16.301608 2661.5</gx:coord>
				<gx:coord>-71.63513 -16.301496 2661.4</gx:coord>
				<gx:coord>-71.635103 -16.301488 2661.4</gx:coord>
				<gx:coord>-71.635103 -16.301488 2617.23</gx:coord>
				<gx:coord>-71.635257 -16.301413 2620.21</gx:coord>
				<gx:coord>-71.63512 -16.30145 2617.89</gx:coord>
				<gx:coord>-71.63512 -16.30145 2659.1</gx:coord>
				<gx:coord>-71.634895 -16.301656 2658.5</gx:coord>
				<gx:coord>-71.634946 -16.301943 2654.8</gx:coord>
				<gx:coord>-71.635098 -16.302155 2654.6</gx:coord>
				<gx:coord>-71.635193 -16.302373 2655</gx:coord>
				<gx:coord>-71.63532499999999 -16.302308 2655</gx:coord>
				<gx:coord>-71.63520800000001 -16.302416 2654</gx:coord>
				<gx:coord>-71.635211 -16.302293 2654.8</gx:coord>
				<gx:coord>-71.63521799999999 -16.302306 2654.2</gx:coord>
				<gx:coord>-71.635295 -16.302298 2654</gx:coord>
				<gx:coord>-71.63527999999999 -16.302276 2654.2</gx:coord>
				<gx:coord>-71.635206 -16.302286 2654.099999999999</gx:coord>
				<gx:coord>-71.635231 -16.302401 2654.099999999999</gx:coord>
				<gx:coord>-71.63522500000001 -16.30239 2654.3</gx:coord>
				<gx:coord>-71.635161 -16.302335 2654.099999999999</gx:coord>
				<gx:coord>-71.635261 -16.302335 2654.099999999999</gx:coord>
				<gx:coord>-71.635251 -16.302391 2654.099999999999</gx:coord>
				<gx:coord>-71.63523000000001 -16.30245 2654.099999999999</gx:coord>
				<gx:coord>-71.635246 -16.302488 2654</gx:coord>
				<gx:coord>-71.63533099999999 -16.302675 2654</gx:coord>
				<gx:coord>-71.635306 -16.302651 2654.099999999999</gx:coord>
				<gx:coord>-71.63528100000001 -16.302645 2654.099999999999</gx:coord>
				<gx:coord>-71.63526 -16.302745 2652.4</gx:coord>
				<gx:coord>-71.635435 -16.30278 2652.4</gx:coord>
				<gx:coord>-71.63551 -16.302825 2652.3</gx:coord>
				<gx:coord>-71.635436 -16.302845 2647.4</gx:coord>
				<gx:coord>-71.635443 -16.30288 2647.5</gx:coord>
				<gx:coord>-71.635533 -16.30288 2647.3</gx:coord>
				<gx:coord>-71.635606 -16.302986 2647.4</gx:coord>
				<gx:coord>-71.63579300000001 -16.303353 2647.3</gx:coord>
				<gx:coord>-71.63601800000001 -16.303461 2647.1</gx:coord>
				<gx:coord>-71.635811 -16.303453 2646.7</gx:coord>
				<gx:coord>-71.635811 -16.303453 2609.28</gx:coord>
				<gx:coord>-71.635982 -16.303576 2607.06</gx:coord>
				<gx:coord>-71.635813 -16.303465 2609.09</gx:coord>
				<gx:coord>-71.635813 -16.303465 2651.5</gx:coord>
				<gx:coord>-71.635865 -16.303425 2650.2</gx:coord>
				<gx:coord>-71.63594999999999 -16.303458 2650.1</gx:coord>
				<gx:coord>-71.63582599999999 -16.303366 2650.1</gx:coord>
				<gx:coord>-71.636055 -16.30353 2650.1</gx:coord>
				<gx:coord>-71.636055 -16.30353 2607.17</gx:coord>
				<gx:coord>-71.635965 -16.303185 2611.34</gx:coord>
				<gx:coord>-71.636163 -16.303271 2608.54</gx:coord>
				<gx:coord>-71.636163 -16.303271 2650.3</gx:coord>
				<gx:coord>-71.63598 -16.303418 2641</gx:coord>
				<gx:coord>-71.636126 -16.303331 2641.3</gx:coord>
				<gx:coord>-71.636126 -16.303331 2608.72</gx:coord>
				<gx:coord>-71.63603500000001 -16.303398 2609.37</gx:coord>
				<gx:coord>-71.63620299999999 -16.303211 2608.39</gx:coord>
				<gx:coord>-71.63620299999999 -16.303211 2630.3</gx:coord>
				<gx:coord>-71.63620299999999 -16.303211 2608.39</gx:coord>
				<gx:coord>-71.636073 -16.303308 2609.71</gx:coord>
				<gx:coord>-71.636224 -16.303208 2608.12</gx:coord>
				<gx:coord>-71.636224 -16.303208 2608.12</gx:coord>
				<gx:coord>-71.635864 -16.303495 2608.53</gx:coord>
				<gx:coord>-71.63578800000001 -16.303556 2607.59</gx:coord>
				<gx:coord>-71.63591 -16.30357 2607.29</gx:coord>
				<gx:coord>-71.63591 -16.30357 2651</gx:coord>
				<gx:coord>-71.635828 -16.303371 2647.8</gx:coord>
				<gx:coord>-71.636093 -16.303415 2644.6</gx:coord>
				<gx:coord>-71.63607500000001 -16.303456 2655</gx:coord>
				<gx:coord>-71.636245 -16.303315 2634.5</gx:coord>
				<gx:coord>-71.636138 -16.303388 2633.4</gx:coord>
				<gx:coord>-71.63618099999999 -16.30346 2634.9</gx:coord>
				<gx:coord>-71.636455 -16.303215 2634.3</gx:coord>
				<gx:coord>-71.636633 -16.303401 2636.1</gx:coord>
				<gx:coord>-71.636765 -16.303553 2629.5</gx:coord>
				<gx:coord>-71.636883 -16.303865 2631.8</gx:coord>
				<gx:coord>-71.63706500000001 -16.304143 2632</gx:coord>
				<gx:coord>-71.63707599999999 -16.304208 2631.8</gx:coord>
				<gx:coord>-71.637103 -16.30421 2629.6</gx:coord>
				<gx:coord>-71.637241 -16.30434 2635</gx:coord>
				<gx:coord>-71.63727 -16.304568 2635.4</gx:coord>
				<gx:coord>-71.63741 -16.304698 2629.8</gx:coord>
				<gx:coord>-71.637361 -16.30476 2636.1</gx:coord>
				<gx:coord>-71.637396 -16.304675 2626.2</gx:coord>
				<gx:coord>-71.63731300000001 -16.304696 2617.2</gx:coord>
				<gx:coord>-71.637478 -16.304915 2626.5</gx:coord>
				<gx:coord>-71.637525 -16.305163 2629.6</gx:coord>
				<gx:coord>-71.637623 -16.305145 2622.9</gx:coord>
				<gx:coord>-71.63780800000001 -16.30549 2630.6</gx:coord>
				<gx:coord>-71.637838 -16.305601 2626.2</gx:coord>
				<gx:coord>-71.637925 -16.305713 2625.9</gx:coord>
				<gx:coord>-71.637738 -16.305701 2654.7</gx:coord>
				<gx:coord>-71.63791999999999 -16.305551 2600.1</gx:coord>
				<gx:coord>-71.637935 -16.305548 2600.5</gx:coord>
				<gx:coord>-71.637901 -16.305568 2636.1</gx:coord>
				<gx:coord>-71.637905 -16.305568 2629.4</gx:coord>
				<gx:coord>-71.63784099999999 -16.305628 2628.7</gx:coord>
				<gx:coord>-71.63782500000001 -16.305553 2627.2</gx:coord>
				<gx:coord>-71.63785 -16.305546 2628.7</gx:coord>
				<gx:coord>-71.637788 -16.305523 2627.3</gx:coord>
				<gx:coord>-71.63784800000001 -16.305618 2627.9</gx:coord>
				<gx:coord>-71.637823 -16.305671 2629</gx:coord>
				<gx:coord>-71.63785799999999 -16.305603 2628.6</gx:coord>
				<gx:coord>-71.63784 -16.305538 2628.9</gx:coord>
				<gx:coord>-71.63795 -16.305613 2620.2</gx:coord>
				<gx:coord>-71.63792599999999 -16.30591 2618.3</gx:coord>
				<gx:coord>-71.637968 -16.306006 2627</gx:coord>
				<gx:coord>-71.63800000000001 -16.30595 2628</gx:coord>
				<gx:coord>-71.638003 -16.305895 2615</gx:coord>
				<gx:coord>-71.638025 -16.305881 2625.1</gx:coord>
				<gx:coord>-71.638341 -16.305756 2625.8</gx:coord>
				<gx:coord>-71.63847800000001 -16.305798 2586.8</gx:coord>
				<gx:coord>-71.63852 -16.306075 2615.5</gx:coord>
				<gx:coord>-71.638593 -16.30613 2653.1</gx:coord>
				<gx:coord>-71.63855599999999 -16.306143 2625.6</gx:coord>
				<gx:coord>-71.638533 -16.306098 2613.6</gx:coord>
				<gx:coord>-71.638631 -16.306093 2592.2</gx:coord>
				<gx:coord>-71.638723 -16.3062 2588.1</gx:coord>
				<gx:coord>-71.638603 -16.306473 2554.1</gx:coord>
				<gx:coord>-71.638785 -16.306536 2616</gx:coord>
				<gx:coord>-71.638828 -16.306333 2608.9</gx:coord>
				<gx:coord>-71.63876500000001 -16.306391 2607.6</gx:coord>
				<gx:coord>-71.638795 -16.306446 2606.3</gx:coord>
				<gx:coord>-71.638958 -16.306413 2571.9</gx:coord>
				<gx:coord>-71.638813 -16.30654 2586.3</gx:coord>
				<gx:coord>-71.638791 -16.306598 2626.4</gx:coord>
				<gx:coord>-71.63885000000001 -16.306548 2611.2</gx:coord>
				<gx:coord>-71.638931 -16.306766 2578.5</gx:coord>
				<gx:coord>-71.639073 -16.307178 2656.2</gx:coord>
				<gx:coord>-71.63906299999999 -16.307136 2633.3</gx:coord>
				<gx:coord>-71.639088 -16.307086 2614.7</gx:coord>
				<gx:coord>-71.63899499999999 -16.307108 2630.4</gx:coord>
				<gx:coord>-71.63897299999999 -16.307076 2635.4</gx:coord>
				<gx:coord>-71.63914800000001 -16.30721 2641.7</gx:coord>
				<gx:coord>-71.639126 -16.307166 2512.4</gx:coord>
				<gx:coord>-71.63913599999999 -16.307121 2587.2</gx:coord>
				<gx:coord>-71.63917499999999 -16.30718 2597.7</gx:coord>
				<gx:coord>-71.639135 -16.307088 2604.7</gx:coord>
				<gx:coord>-71.639178 -16.307065 2605</gx:coord>
				<gx:coord>-71.639083 -16.307181 2604.5</gx:coord>
				<gx:coord>-71.638868 -16.30716 2602.6</gx:coord>
				<gx:coord>-71.639171 -16.307031 2605.5</gx:coord>
				<gx:coord>-71.63892300000001 -16.306886 2604.8</gx:coord>
				<gx:coord>-71.63897799999999 -16.30717 2604.9</gx:coord>
				<gx:coord>-71.63904100000001 -16.307203 2604.7</gx:coord>
				<gx:coord>-71.638925 -16.307065 2604.8</gx:coord>
				<gx:coord>-71.63900599999999 -16.307111 2602.4</gx:coord>
				<gx:coord>-71.639008 -16.307113 2592</gx:coord>
				<gx:coord>-71.639161 -16.307081 2607.1</gx:coord>
				<gx:coord>-71.639161 -16.306888 2611.7</gx:coord>
				<gx:coord>-71.639268 -16.306913 2608.3</gx:coord>
				<gx:coord>-71.639195 -16.306918 2605.4</gx:coord>
				<gx:coord>-71.639138 -16.307031 2606</gx:coord>
				<gx:coord>-71.63910799999999 -16.3071 2591.7</gx:coord>
				<gx:coord>-71.639116 -16.307085 2611.2</gx:coord>
				<gx:coord>-71.639128 -16.307088 2588.9</gx:coord>
				<gx:coord>-71.63915799999999 -16.307063 2613.4</gx:coord>
				<gx:coord>-71.639073 -16.307046 2636.9</gx:coord>
				<gx:coord>-71.63908600000001 -16.307098 2607.3</gx:coord>
				<gx:coord>-71.639083 -16.307101 2608.7</gx:coord>
				<gx:coord>-71.639128 -16.307098 2612.5</gx:coord>
				<gx:coord>-71.639126 -16.307116 2620.1</gx:coord>
				<gx:coord>-71.639088 -16.30712 2618.4</gx:coord>
				<gx:coord>-71.639116 -16.307076 2623.2</gx:coord>
				<gx:coord>-71.639105 -16.307111 2585.1</gx:coord>
				<gx:coord>-71.639073 -16.30709 2599.2</gx:coord>
				<gx:coord>-71.639073 -16.307066 2607.8</gx:coord>
				<gx:coord>-71.639123 -16.307061 2600.5</gx:coord>
				<gx:coord>-71.63912500000001 -16.3071 2608.1</gx:coord>
				<gx:coord>-71.639205 -16.307025 2624</gx:coord>
				<gx:coord>-71.639186 -16.30691 2623.7</gx:coord>
				<gx:coord>-71.63912999999999 -16.307063 2614.5</gx:coord>
				<gx:coord>-71.63912999999999 -16.307131 2594.6</gx:coord>
				<gx:coord>-71.639088 -16.307103 2615.1</gx:coord>
			</gx:Track>
		</Placemark>
	</Folder>
</Document>
</kml>
