<?xml version="1.0" encoding="UTF-8"?>
<kml xmlns="http://www.opengis.net/kml/2.2" xmlns:gx="http://www.google.com/kml/ext/2.2" xmlns:kml="http://www.opengis.net/kml/2.2" xmlns:atom="http://www.w3.org/2005/Atom">
<Document>
	<name>GPS-80 30-11-2024 GRUPO 07</name>
	<visibility>0</visibility>
	<snippet>Created mié. Mar. 19 10:37:12 2025</snippet>
	<LookAt>
		<gx:TimeSpan>
			<begin>2024-11-30T13:26:45Z</begin>
			<end>2024-11-30T17:51:18.113Z</end>
		</gx:TimeSpan>
		<longitude>-71.627064</longitude>
		<latitude>-16.299602</latitude>
		<altitude>0</altitude>
		<heading>0</heading>
		<tilt>0</tilt>
		<range>1304.150652</range>
	</LookAt>
	<atom:link rel="app" href="https://www.google.com/earth/about/versions/#earth-pro" title="Google Earth Pro 7.3.6.10441"></atom:link>
	<StyleMap id="multiTrack4090">
		<Pair>
			<key>normal</key>
			<styleUrl>#multiTrack_n4090</styleUrl>
		</Pair>
		<Pair>
			<key>highlight</key>
			<styleUrl>#multiTrack_h4090</styleUrl>
		</Pair>
	</StyleMap>
	<Style id="multiTrack_h4090">
		<IconStyle>
			<scale>1.2</scale>
			<Icon>
				<href>https://earth.google.com/images/kml-icons/track-directional/track-0.png</href>
			</Icon>
		</IconStyle>
		<LineStyle>
			<color>99ffac59</color>
			<width>8</width>
		</LineStyle>
	</Style>
	<Style id="multiTrack_n4090">
		<IconStyle>
			<Icon>
				<href>https://earth.google.com/images/kml-icons/track-directional/track-0.png</href>
			</Icon>
		</IconStyle>
		<LineStyle>
			<color>99ffac59</color>
			<width>6</width>
		</LineStyle>
	</Style>
	<Folder>
		<name>Tracks</name>
		<visibility>0</visibility>
		<Placemark>
			<visibility>0</visibility>
			<styleUrl>#multiTrack4090</styleUrl>
			<gx:Track>
				<when>2024-11-30T13:26:45Z</when>
				<when>2024-11-30T13:27:21Z</when>
				<when>2024-11-30T13:27:57.699Z</when>
				<when>2024-11-30T13:28:34.443Z</when>
				<when>2024-11-30T13:29:19.081Z</when>
				<when>2024-11-30T13:30:25Z</when>
				<when>2024-11-30T13:31:02Z</when>
				<when>2024-11-30T13:31:39Z</when>
				<when>2024-11-30T13:32:15Z</when>
				<when>2024-11-30T13:32:50Z</when>
				<when>2024-11-30T13:33:25Z</when>
				<when>2024-11-30T13:34:03Z</when>
				<when>2024-11-30T13:34:47Z</when>
				<when>2024-11-30T13:35:25Z</when>
				<when>2024-11-30T13:36:06Z</when>
				<when>2024-11-30T13:36:41Z</when>
				<when>2024-11-30T13:37:24.667Z</when>
				<when>2024-11-30T13:38:09Z</when>
				<when>2024-11-30T13:38:46.701Z</when>
				<when>2024-11-30T13:39:24.452Z</when>
				<when>2024-11-30T13:40:01.156Z</when>
				<when>2024-11-30T13:40:36.825Z</when>
				<when>2024-11-30T13:41:12.547Z</when>
				<when>2024-11-30T13:41:48.235Z</when>
				<when>2024-11-30T13:42:35Z</when>
				<when>2024-11-30T13:43:09.729Z</when>
				<when>2024-11-30T13:43:56Z</when>
				<when>2024-11-30T13:44:45Z</when>
				<when>2024-11-30T13:45:57Z</when>
				<when>2024-11-30T13:46:32Z</when>
				<when>2024-11-30T13:47:07Z</when>
				<when>2024-11-30T13:47:43Z</when>
				<when>2024-11-30T13:48:18.757Z</when>
				<when>2024-11-30T13:48:53.525Z</when>
				<when>2024-11-30T13:49:28.279Z</when>
				<when>2024-11-30T13:50:03.079Z</when>
				<when>2024-11-30T13:50:36.828Z</when>
				<when>2024-11-30T13:51:11.629Z</when>
				<when>2024-11-30T13:51:46.434Z</when>
				<when>2024-11-30T13:52:21.231Z</when>
				<when>2024-11-30T13:52:54.977Z</when>
				<when>2024-11-30T13:53:28.773Z</when>
				<when>2024-11-30T13:54:04.566Z</when>
				<when>2024-11-30T13:54:40.385Z</when>
				<when>2024-11-30T13:55:16.121Z</when>
				<when>2024-11-30T13:55:51.876Z</when>
				<when>2024-11-30T13:56:26.667Z</when>
				<when>2024-11-30T13:57:02.479Z</when>
				<when>2024-11-30T13:57:38.23Z</when>
				<when>2024-11-30T13:58:18.012Z</when>
				<when>2024-11-30T13:58:53.706Z</when>
				<when>2024-11-30T13:59:30.522Z</when>
				<when>2024-11-30T14:00:05.33Z</when>
				<when>2024-11-30T14:00:39.121Z</when>
				<when>2024-11-30T14:01:15.921Z</when>
				<when>2024-11-30T14:01:51.721Z</when>
				<when>2024-11-30T14:02:26.532Z</when>
				<when>2024-11-30T14:03:01.325Z</when>
				<when>2024-11-30T14:03:36.131Z</when>
				<when>2024-11-30T14:04:13.908Z</when>
				<when>2024-11-30T14:04:49.626Z</when>
				<when>2024-11-30T14:05:25.379Z</when>
				<when>2024-11-30T14:06:01.152Z</when>
				<when>2024-11-30T14:06:36.924Z</when>
				<when>2024-11-30T14:07:12.736Z</when>
				<when>2024-11-30T14:07:50.544Z</when>
				<when>2024-11-30T14:08:26.333Z</when>
				<when>2024-11-30T14:09:01.129Z</when>
				<when>2024-11-30T14:09:36.935Z</when>
				<when>2024-11-30T14:10:12.687Z</when>
				<when>2024-11-30T14:10:48.484Z</when>
				<when>2024-11-30T14:11:24.28Z</when>
				<when>2024-11-30T14:12:00.083Z</when>
				<when>2024-11-30T14:12:33.875Z</when>
				<when>2024-11-30T14:13:09.674Z</when>
				<when>2024-11-30T14:13:44.486Z</when>
				<when>2024-11-30T14:14:20.273Z</when>
				<when>2024-11-30T14:14:57.071Z</when>
				<when>2024-11-30T14:15:32.868Z</when>
				<when>2024-11-30T14:16:08.675Z</when>
				<when>2024-11-30T14:16:44.477Z</when>
				<when>2024-11-30T14:17:21.258Z</when>
				<when>2024-11-30T14:17:59.07Z</when>
				<when>2024-11-30T14:18:35.864Z</when>
				<when>2024-11-30T14:19:11.613Z</when>
				<when>2024-11-30T14:19:46.418Z</when>
				<when>2024-11-30T14:20:20.223Z</when>
				<when>2024-11-30T14:20:54.02Z</when>
				<when>2024-11-30T14:21:28.82Z</when>
				<when>2024-11-30T14:22:03.616Z</when>
				<when>2024-11-30T14:22:38.419Z</when>
				<when>2024-11-30T14:23:12.218Z</when>
				<when>2024-11-30T14:23:46.011Z</when>
				<when>2024-11-30T14:24:20.822Z</when>
				<when>2024-11-30T14:24:56.581Z</when>
				<when>2024-11-30T14:25:31.367Z</when>
				<when>2024-11-30T14:26:06.174Z</when>
				<when>2024-11-30T14:26:40.925Z</when>
				<when>2024-11-30T14:27:15.724Z</when>
				<when>2024-11-30T14:27:51.491Z</when>
				<when>2024-11-30T14:28:26.269Z</when>
				<when>2024-11-30T14:29:02.082Z</when>
				<when>2024-11-30T14:29:36.889Z</when>
				<when>2024-11-30T14:30:11.687Z</when>
				<when>2024-11-30T14:30:48.498Z</when>
				<when>2024-11-30T14:31:24.252Z</when>
				<when>2024-11-30T14:31:58.923Z</when>
				<when>2024-11-30T14:32:33.635Z</when>
				<when>2024-11-30T14:33:16Z</when>
				<when>2024-11-30T14:33:50Z</when>
				<when>2024-11-30T14:34:24Z</when>
				<when>2024-11-30T14:34:58Z</when>
				<when>2024-11-30T14:35:32Z</when>
				<when>2024-11-30T14:36:06Z</when>
				<when>2024-11-30T14:36:40Z</when>
				<when>2024-11-30T14:37:14Z</when>
				<when>2024-11-30T14:37:48Z</when>
				<when>2024-11-30T14:38:22Z</when>
				<when>2024-11-30T14:38:56Z</when>
				<when>2024-11-30T14:39:31Z</when>
				<when>2024-11-30T14:40:05Z</when>
				<when>2024-11-30T14:40:39Z</when>
				<when>2024-11-30T14:41:13Z</when>
				<when>2024-11-30T14:41:47Z</when>
				<when>2024-11-30T14:42:21Z</when>
				<when>2024-11-30T14:42:55Z</when>
				<when>2024-11-30T14:43:29Z</when>
				<when>2024-11-30T14:44:04Z</when>
				<when>2024-11-30T14:44:39Z</when>
				<when>2024-11-30T14:45:14Z</when>
				<when>2024-11-30T14:45:49Z</when>
				<when>2024-11-30T14:46:26Z</when>
				<when>2024-11-30T14:47:02Z</when>
				<when>2024-11-30T14:47:37.755Z</when>
				<when>2024-11-30T14:48:13.585Z</when>
				<when>2024-11-30T14:48:49.37Z</when>
				<when>2024-11-30T14:49:25.169Z</when>
				<when>2024-11-30T14:50:07.98Z</when>
				<when>2024-11-30T14:50:44.782Z</when>
				<when>2024-11-30T14:51:20.557Z</when>
				<when>2024-11-30T14:51:56.279Z</when>
				<when>2024-11-30T14:52:32.084Z</when>
				<when>2024-11-30T14:53:06.869Z</when>
				<when>2024-11-30T14:53:41.608Z</when>
				<when>2024-11-30T14:54:16.367Z</when>
				<when>2024-11-30T14:54:52.166Z</when>
				<when>2024-11-30T14:55:28.922Z</when>
				<when>2024-11-30T14:56:04.729Z</when>
				<when>2024-11-30T14:56:41.529Z</when>
				<when>2024-11-30T14:57:17.341Z</when>
				<when>2024-11-30T14:57:55.068Z</when>
				<when>2024-11-30T14:58:29.798Z</when>
				<when>2024-11-30T14:59:06.517Z</when>
				<when>2024-11-30T14:59:42.269Z</when>
				<when>2024-11-30T15:00:19.086Z</when>
				<when>2024-11-30T15:00:56.869Z</when>
				<when>2024-11-30T15:01:31.676Z</when>
				<when>2024-11-30T15:02:06.463Z</when>
				<when>2024-11-30T15:02:41.263Z</when>
				<when>2024-11-30T15:03:17.021Z</when>
				<when>2024-11-30T15:03:51.77Z</when>
				<when>2024-11-30T15:04:27.575Z</when>
				<when>2024-11-30T15:05:02.324Z</when>
				<when>2024-11-30T15:05:37.107Z</when>
				<when>2024-11-30T15:06:12.925Z</when>
				<when>2024-11-30T15:07:00Z</when>
				<when>2024-11-30T15:07:35Z</when>
				<when>2024-11-30T15:08:10Z</when>
				<when>2024-11-30T15:08:46Z</when>
				<when>2024-11-30T15:09:21.757Z</when>
				<when>2024-11-30T15:09:57.525Z</when>
				<when>2024-11-30T15:10:34.27Z</when>
				<when>2024-11-30T15:11:10.067Z</when>
				<when>2024-11-30T15:11:45.858Z</when>
				<when>2024-11-30T15:12:21.622Z</when>
				<when>2024-11-30T15:12:56.381Z</when>
				<when>2024-11-30T15:13:32.102Z</when>
				<when>2024-11-30T15:14:07.871Z</when>
				<when>2024-11-30T15:14:43.669Z</when>
				<when>2024-11-30T15:15:18.408Z</when>
				<when>2024-11-30T15:15:53.228Z</when>
				<when>2024-11-30T15:16:30.002Z</when>
				<when>2024-11-30T15:17:05.821Z</when>
				<when>2024-11-30T15:17:41.634Z</when>
				<when>2024-11-30T15:18:18.471Z</when>
				<when>2024-11-30T15:18:54.097Z</when>
				<when>2024-11-30T15:19:30.935Z</when>
				<when>2024-11-30T15:20:07.66Z</when>
				<when>2024-11-30T15:20:44.471Z</when>
				<when>2024-11-30T15:21:20.207Z</when>
				<when>2024-11-30T15:21:57.028Z</when>
				<when>2024-11-30T15:22:34.81Z</when>
				<when>2024-11-30T15:23:11.575Z</when>
				<when>2024-11-30T15:23:48.316Z</when>
				<when>2024-11-30T15:24:24.095Z</when>
				<when>2024-11-30T15:24:59.946Z</when>
				<when>2024-11-30T15:25:36.732Z</when>
				<when>2024-11-30T15:26:13.516Z</when>
				<when>2024-11-30T15:26:49.306Z</when>
				<when>2024-11-30T15:27:28.077Z</when>
				<when>2024-11-30T15:28:04.894Z</when>
				<when>2024-11-30T15:28:40.661Z</when>
				<when>2024-11-30T15:29:17.468Z</when>
				<when>2024-11-30T15:29:54.217Z</when>
				<when>2024-11-30T15:30:31.028Z</when>
				<when>2024-11-30T15:31:07.743Z</when>
				<when>2024-11-30T15:31:46.508Z</when>
				<when>2024-11-30T15:32:24.312Z</when>
				<when>2024-11-30T15:33:04.019Z</when>
				<when>2024-11-30T15:33:40.737Z</when>
				<when>2024-11-30T15:34:16.55Z</when>
				<when>2024-11-30T15:34:52.366Z</when>
				<when>2024-11-30T15:35:28.132Z</when>
				<when>2024-11-30T15:36:02.846Z</when>
				<when>2024-11-30T15:36:38.641Z</when>
				<when>2024-11-30T15:37:14.476Z</when>
				<when>2024-11-30T15:37:49.218Z</when>
				<when>2024-11-30T15:38:25.015Z</when>
				<when>2024-11-30T15:39:01.777Z</when>
				<when>2024-11-30T15:39:37.569Z</when>
				<when>2024-11-30T15:40:13.345Z</when>
				<when>2024-11-30T15:40:54.069Z</when>
				<when>2024-11-30T15:41:31.836Z</when>
				<when>2024-11-30T15:42:11.513Z</when>
				<when>2024-11-30T15:42:48.234Z</when>
				<when>2024-11-30T15:43:22.999Z</when>
				<when>2024-11-30T15:44:03.697Z</when>
				<when>2024-11-30T15:44:41.433Z</when>
				<when>2024-11-30T15:45:20.192Z</when>
				<when>2024-11-30T15:45:55.908Z</when>
				<when>2024-11-30T15:46:32.654Z</when>
				<when>2024-11-30T15:47:08.419Z</when>
				<when>2024-11-30T15:47:47.227Z</when>
				<when>2024-11-30T15:48:29.893Z</when>
				<when>2024-11-30T15:49:15Z</when>
				<when>2024-11-30T15:49:57Z</when>
				<when>2024-11-30T15:50:40Z</when>
				<when>2024-11-30T15:51:15Z</when>
				<when>2024-11-30T15:51:50Z</when>
				<when>2024-11-30T15:52:25Z</when>
				<when>2024-11-30T15:53:00Z</when>
				<when>2024-11-30T15:53:35Z</when>
				<when>2024-11-30T15:54:11Z</when>
				<when>2024-11-30T15:54:53Z</when>
				<when>2024-11-30T15:55:27.726Z</when>
				<when>2024-11-30T15:56:03Z</when>
				<when>2024-11-30T15:56:38Z</when>
				<when>2024-11-30T15:57:13Z</when>
				<when>2024-11-30T15:57:49Z</when>
				<when>2024-11-30T15:58:24Z</when>
				<when>2024-11-30T15:58:59Z</when>
				<when>2024-11-30T15:59:35.724Z</when>
				<when>2024-11-30T16:00:17.465Z</when>
				<when>2024-11-30T16:00:55.15Z</when>
				<when>2024-11-30T16:01:29.786Z</when>
				<when>2024-11-30T16:02:05.545Z</when>
				<when>2024-11-30T16:02:43.247Z</when>
				<when>2024-11-30T16:03:30Z</when>
				<when>2024-11-30T16:04:05Z</when>
				<when>2024-11-30T16:04:40Z</when>
				<when>2024-11-30T16:05:18Z</when>
				<when>2024-11-30T16:05:55Z</when>
				<when>2024-11-30T16:06:31Z</when>
				<when>2024-11-30T16:07:08Z</when>
				<when>2024-11-30T16:07:43Z</when>
				<when>2024-11-30T16:08:20.698Z</when>
				<when>2024-11-30T16:09:05.438Z</when>
				<when>2024-11-30T16:09:43.128Z</when>
				<when>2024-11-30T16:10:20.819Z</when>
				<when>2024-11-30T16:10:55.499Z</when>
				<when>2024-11-30T16:11:38.231Z</when>
				<when>2024-11-30T16:12:25Z</when>
				<when>2024-11-30T16:13:02Z</when>
				<when>2024-11-30T16:13:49Z</when>
				<when>2024-11-30T16:14:34Z</when>
				<when>2024-11-30T16:15:20Z</when>
				<when>2024-11-30T16:15:55Z</when>
				<when>2024-11-30T16:16:30Z</when>
				<when>2024-11-30T16:17:05Z</when>
				<when>2024-11-30T16:17:41Z</when>
				<when>2024-11-30T16:18:16Z</when>
				<when>2024-11-30T16:18:51Z</when>
				<when>2024-11-30T16:19:35Z</when>
				<when>2024-11-30T16:20:11Z</when>
				<when>2024-11-30T16:20:47Z</when>
				<when>2024-11-30T16:21:26Z</when>
				<when>2024-11-30T16:22:15Z</when>
				<when>2024-11-30T16:22:51Z</when>
				<when>2024-11-30T16:23:44Z</when>
				<when>2024-11-30T16:24:26Z</when>
				<when>2024-11-30T16:25:03.714Z</when>
				<when>2024-11-30T16:25:40.383Z</when>
				<when>2024-11-30T16:26:17.121Z</when>
				<when>2024-11-30T16:27:07Z</when>
				<when>2024-11-30T16:27:46Z</when>
				<when>2024-11-30T16:28:25Z</when>
				<when>2024-11-30T16:29:05.808Z</when>
				<when>2024-11-30T16:29:46.435Z</when>
				<when>2024-11-30T16:30:30Z</when>
				<when>2024-11-30T16:31:06Z</when>
				<when>2024-11-30T16:31:45Z</when>
				<when>2024-11-30T16:32:31Z</when>
				<when>2024-11-30T16:33:06Z</when>
				<when>2024-11-30T16:33:52Z</when>
				<when>2024-11-30T16:34:28Z</when>
				<when>2024-11-30T16:35:15Z</when>
				<when>2024-11-30T16:36:04Z</when>
				<when>2024-11-30T16:36:45Z</when>
				<when>2024-11-30T16:37:22.71Z</when>
				<when>2024-11-30T16:38:05.439Z</when>
				<when>2024-11-30T16:38:41.164Z</when>
				<when>2024-11-30T16:39:33Z</when>
				<when>2024-11-30T16:40:12Z</when>
				<when>2024-11-30T16:40:47Z</when>
				<when>2024-11-30T16:41:33Z</when>
				<when>2024-11-30T16:42:13.717Z</when>
				<when>2024-11-30T16:42:56.397Z</when>
				<when>2024-11-30T16:43:51Z</when>
				<when>2024-11-30T16:44:34Z</when>
				<when>2024-11-30T16:45:34Z</when>
				<when>2024-11-30T16:46:14Z</when>
				<when>2024-11-30T16:46:49Z</when>
				<when>2024-11-30T16:47:35Z</when>
				<when>2024-11-30T16:48:10Z</when>
				<when>2024-11-30T16:48:47Z</when>
				<when>2024-11-30T16:49:37Z</when>
				<when>2024-11-30T16:50:25Z</when>
				<when>2024-11-30T16:51:11Z</when>
				<when>2024-11-30T16:51:48Z</when>
				<when>2024-11-30T16:52:23Z</when>
				<when>2024-11-30T16:53:03Z</when>
				<when>2024-11-30T16:53:47Z</when>
				<when>2024-11-30T16:54:24Z</when>
				<when>2024-11-30T16:55:03Z</when>
				<when>2024-11-30T16:55:47Z</when>
				<when>2024-11-30T16:56:29Z</when>
				<when>2024-11-30T16:57:17Z</when>
				<when>2024-11-30T16:57:54Z</when>
				<when>2024-11-30T16:58:31Z</when>
				<when>2024-11-30T16:59:08Z</when>
				<when>2024-11-30T16:59:45Z</when>
				<when>2024-11-30T17:00:24Z</when>
				<when>2024-11-30T17:01:12Z</when>
				<when>2024-11-30T17:02:04Z</when>
				<when>2024-11-30T17:02:49Z</when>
				<when>2024-11-30T17:03:30.687Z</when>
				<when>2024-11-30T17:04:12.438Z</when>
				<when>2024-11-30T17:05:12Z</when>
				<when>2024-11-30T17:05:54Z</when>
				<when>2024-11-30T17:06:38Z</when>
				<when>2024-11-30T17:07:25Z</when>
				<when>2024-11-30T17:08:15Z</when>
				<when>2024-11-30T17:08:53Z</when>
				<when>2024-11-30T17:09:35Z</when>
				<when>2024-11-30T17:10:24Z</when>
				<when>2024-11-30T17:11:08Z</when>
				<when>2024-11-30T17:12:04Z</when>
				<when>2024-11-30T17:12:39Z</when>
				<when>2024-11-30T17:13:14Z</when>
				<when>2024-11-30T17:13:49Z</when>
				<when>2024-11-30T17:14:24Z</when>
				<when>2024-11-30T17:14:59Z</when>
				<when>2024-11-30T17:15:34Z</when>
				<when>2024-11-30T17:16:09Z</when>
				<when>2024-11-30T17:16:46Z</when>
				<when>2024-11-30T17:17:21.772Z</when>
				<when>2024-11-30T17:17:56.533Z</when>
				<when>2024-11-30T17:18:33.272Z</when>
				<when>2024-11-30T17:19:08.031Z</when>
				<when>2024-11-30T17:19:44.783Z</when>
				<when>2024-11-30T17:20:21.596Z</when>
				<when>2024-11-30T17:20:59.376Z</when>
				<when>2024-11-30T17:21:34.213Z</when>
				<when>2024-11-30T17:22:09.007Z</when>
				<when>2024-11-30T17:22:43.793Z</when>
				<when>2024-11-30T17:23:18.603Z</when>
				<when>2024-11-30T17:23:53.374Z</when>
				<when>2024-11-30T17:24:31.16Z</when>
				<when>2024-11-30T17:25:07.936Z</when>
				<when>2024-11-30T17:25:42.676Z</when>
				<when>2024-11-30T17:26:19.473Z</when>
				<when>2024-11-30T17:26:54.281Z</when>
				<when>2024-11-30T17:27:32.013Z</when>
				<when>2024-11-30T17:28:07.732Z</when>
				<when>2024-11-30T17:28:43.488Z</when>
				<when>2024-11-30T17:29:20.275Z</when>
				<when>2024-11-30T17:29:57.075Z</when>
				<when>2024-11-30T17:30:33.828Z</when>
				<when>2024-11-30T17:31:08.576Z</when>
				<when>2024-11-30T17:31:45.328Z</when>
				<when>2024-11-30T17:32:20.073Z</when>
				<when>2024-11-30T17:32:54.821Z</when>
				<when>2024-11-30T17:33:30.576Z</when>
				<when>2024-11-30T17:34:05.332Z</when>
				<when>2024-11-30T17:34:40.076Z</when>
				<when>2024-11-30T17:35:16.832Z</when>
				<when>2024-11-30T17:35:51.569Z</when>
				<when>2024-11-30T17:36:26.316Z</when>
				<when>2024-11-30T17:37:01.023Z</when>
				<when>2024-11-30T17:37:36.736Z</when>
				<when>2024-11-30T17:38:12.487Z</when>
				<when>2024-11-30T17:38:47.173Z</when>
				<when>2024-11-30T17:39:22.885Z</when>
				<when>2024-11-30T17:39:58.572Z</when>
				<when>2024-11-30T17:40:36.277Z</when>
				<when>2024-11-30T17:41:13.022Z</when>
				<when>2024-11-30T17:41:53.785Z</when>
				<when>2024-11-30T17:42:31.578Z</when>
				<when>2024-11-30T17:43:09.324Z</when>
				<when>2024-11-30T17:43:45.013Z</when>
				<when>2024-11-30T17:44:19.713Z</when>
				<when>2024-11-30T17:44:54.409Z</when>
				<when>2024-11-30T17:45:29.113Z</when>
				<when>2024-11-30T17:46:03.82Z</when>
				<when>2024-11-30T17:46:38.516Z</when>
				<when>2024-11-30T17:47:13.217Z</when>
				<when>2024-11-30T17:47:47.918Z</when>
				<when>2024-11-30T17:48:22.616Z</when>
				<when>2024-11-30T17:48:57.315Z</when>
				<when>2024-11-30T17:49:32.013Z</when>
				<when>2024-11-30T17:50:06.722Z</when>
				<when>2024-11-30T17:50:42.407Z</when>
				<when>2024-11-30T17:51:18.113Z</when>
				<gx:coord>-71.62829000000001 -16.29741 2649.4</gx:coord>
				<gx:coord>-71.62831 -16.29751 2648.1</gx:coord>
				<gx:coord>-71.628276 -16.297401 2649.5</gx:coord>
				<gx:coord>-71.62790800000001 -16.29746 2649.4</gx:coord>
				<gx:coord>-71.62861100000001 -16.297421 2649.4</gx:coord>
				<gx:coord>-71.62836799999999 -16.297451 2645.9</gx:coord>
				<gx:coord>-71.62838499999999 -16.29744 2645.7</gx:coord>
				<gx:coord>-71.628355 -16.297476 2642.2</gx:coord>
				<gx:coord>-71.628298 -16.29743 2641.2</gx:coord>
				<gx:coord>-71.628353 -16.297423 2641</gx:coord>
				<gx:coord>-71.628333 -16.297376 2641.1</gx:coord>
				<gx:coord>-71.628315 -16.297565 2642.2</gx:coord>
				<gx:coord>-71.62829499999999 -16.29748 2642.3</gx:coord>
				<gx:coord>-71.628396 -16.297551 2642.8</gx:coord>
				<gx:coord>-71.628383 -16.297668 2640.9</gx:coord>
				<gx:coord>-71.62833999999999 -16.29753 2641.2</gx:coord>
				<gx:coord>-71.628956 -16.297305 2640.9</gx:coord>
				<gx:coord>-71.628343 -16.29744 2641</gx:coord>
				<gx:coord>-71.628445 -16.297405 2640.9</gx:coord>
				<gx:coord>-71.62862800000001 -16.297651 2640.9</gx:coord>
				<gx:coord>-71.628601 -16.297888 2640.9</gx:coord>
				<gx:coord>-71.62896000000001 -16.298041 2641</gx:coord>
				<gx:coord>-71.628803 -16.298016 2638.7</gx:coord>
				<gx:coord>-71.62918500000001 -16.29772 2634.2</gx:coord>
				<gx:coord>-71.62876300000001 -16.298071 2651.1</gx:coord>
				<gx:coord>-71.629006 -16.297808 2597.7</gx:coord>
				<gx:coord>-71.62891 -16.29792 2638.3</gx:coord>
				<gx:coord>-71.628838 -16.297953 2653.7</gx:coord>
				<gx:coord>-71.628745 -16.298163 2650.3</gx:coord>
				<gx:coord>-71.628686 -16.298195 2657.4</gx:coord>
				<gx:coord>-71.62875 -16.298126 2661.6</gx:coord>
				<gx:coord>-71.628748 -16.298123 2660</gx:coord>
				<gx:coord>-71.62881 -16.29819 2660.4</gx:coord>
				<gx:coord>-71.628773 -16.298171 2656.2</gx:coord>
				<gx:coord>-71.62877 -16.298145 2665.7</gx:coord>
				<gx:coord>-71.62872299999999 -16.298111 2657.8</gx:coord>
				<gx:coord>-71.62869499999999 -16.298123 2659.3</gx:coord>
				<gx:coord>-71.62876300000001 -16.298071 2653</gx:coord>
				<gx:coord>-71.628798 -16.298033 2670.9</gx:coord>
				<gx:coord>-71.628591 -16.297796 2663.4</gx:coord>
				<gx:coord>-71.62845 -16.297503 2661</gx:coord>
				<gx:coord>-71.62809300000001 -16.297538 2657.8</gx:coord>
				<gx:coord>-71.628061 -16.297811 2655.6</gx:coord>
				<gx:coord>-71.62802000000001 -16.297528 2647.3</gx:coord>
				<gx:coord>-71.628061 -16.297638 2652.6</gx:coord>
				<gx:coord>-71.62811499999999 -16.297748 2660.5</gx:coord>
				<gx:coord>-71.628058 -16.297691 2659.2</gx:coord>
				<gx:coord>-71.62803599999999 -16.297631 2664</gx:coord>
				<gx:coord>-71.62821099999999 -16.297946 2663.1</gx:coord>
				<gx:coord>-71.628085 -16.297626 2662.3</gx:coord>
				<gx:coord>-71.628165 -16.297831 2652.8</gx:coord>
				<gx:coord>-71.62813800000001 -16.297653 2658.9</gx:coord>
				<gx:coord>-71.62806999999999 -16.297625 2661.7</gx:coord>
				<gx:coord>-71.62811600000001 -16.2976 2659.6</gx:coord>
				<gx:coord>-71.628058 -16.297748 2661.9</gx:coord>
				<gx:coord>-71.628248 -16.297643 2660.2</gx:coord>
				<gx:coord>-71.628483 -16.297493 2654.8</gx:coord>
				<gx:coord>-71.62877 -16.297801 2657.3</gx:coord>
				<gx:coord>-71.628913 -16.298005 2661.8</gx:coord>
				<gx:coord>-71.62891 -16.298478 2661.9</gx:coord>
				<gx:coord>-71.62899 -16.298066 2670.2</gx:coord>
				<gx:coord>-71.629051 -16.297976 2657.4</gx:coord>
				<gx:coord>-71.62871800000001 -16.298288 2668.6</gx:coord>
				<gx:coord>-71.62902099999999 -16.298071 2663.9</gx:coord>
				<gx:coord>-71.628843 -16.29813 2663.8</gx:coord>
				<gx:coord>-71.628896 -16.298073 2660.3</gx:coord>
				<gx:coord>-71.62895 -16.298101 2667</gx:coord>
				<gx:coord>-71.62889 -16.298086 2671.3</gx:coord>
				<gx:coord>-71.628946 -16.298116 2666.7</gx:coord>
				<gx:coord>-71.628865 -16.298173 2659.1</gx:coord>
				<gx:coord>-71.62898300000001 -16.298125 2657.1</gx:coord>
				<gx:coord>-71.62918000000001 -16.298241 2655.6</gx:coord>
				<gx:coord>-71.629251 -16.298446 2659</gx:coord>
				<gx:coord>-71.62950499999999 -16.298563 2660.4</gx:coord>
				<gx:coord>-71.62961300000001 -16.298546 2654.4</gx:coord>
				<gx:coord>-71.629498 -16.298625 2656.2</gx:coord>
				<gx:coord>-71.62989 -16.298886 2652.2</gx:coord>
				<gx:coord>-71.63005099999999 -16.298788 2654</gx:coord>
				<gx:coord>-71.63024799999999 -16.298536 2674.1</gx:coord>
				<gx:coord>-71.630478 -16.298291 2665.2</gx:coord>
				<gx:coord>-71.630533 -16.298321 2671.3</gx:coord>
				<gx:coord>-71.630501 -16.298415 2657.5</gx:coord>
				<gx:coord>-71.630505 -16.298301 2653.2</gx:coord>
				<gx:coord>-71.63053600000001 -16.29836 2656.9</gx:coord>
				<gx:coord>-71.63048000000001 -16.298358 2654.7</gx:coord>
				<gx:coord>-71.63055 -16.298501 2657.5</gx:coord>
				<gx:coord>-71.630543 -16.298761 2655.1</gx:coord>
				<gx:coord>-71.630628 -16.299093 2659.7</gx:coord>
				<gx:coord>-71.63070999999999 -16.299343 2652</gx:coord>
				<gx:coord>-71.630788 -16.299648 2655.6</gx:coord>
				<gx:coord>-71.630816 -16.30002 2652</gx:coord>
				<gx:coord>-71.63089600000001 -16.300368 2648.8</gx:coord>
				<gx:coord>-71.630808 -16.300583 2658.5</gx:coord>
				<gx:coord>-71.63057499999999 -16.300635 2659.2</gx:coord>
				<gx:coord>-71.63061 -16.30056 2649.8</gx:coord>
				<gx:coord>-71.630638 -16.300558 2654.9</gx:coord>
				<gx:coord>-71.63042799999999 -16.300548 2648.1</gx:coord>
				<gx:coord>-71.630605 -16.30064 2642.9</gx:coord>
				<gx:coord>-71.63057499999999 -16.300671 2643.4</gx:coord>
				<gx:coord>-71.630543 -16.300571 2643.7</gx:coord>
				<gx:coord>-71.63059 -16.300773 2644.4</gx:coord>
				<gx:coord>-71.630651 -16.300803 2646.7</gx:coord>
				<gx:coord>-71.630561 -16.30079 2649.9</gx:coord>
				<gx:coord>-71.630628 -16.300735 2646.5</gx:coord>
				<gx:coord>-71.6305 -16.300743 2642.8</gx:coord>
				<gx:coord>-71.63049100000001 -16.3007 2644.5</gx:coord>
				<gx:coord>-71.63062600000001 -16.300885 2646.4</gx:coord>
				<gx:coord>-71.630495 -16.300795 2644.5</gx:coord>
				<gx:coord>-71.630681 -16.301001 2645.7</gx:coord>
				<gx:coord>-71.63057000000001 -16.300798 2645</gx:coord>
				<gx:coord>-71.63074 -16.300968 2647.7</gx:coord>
				<gx:coord>-71.630945 -16.301143 2648.7</gx:coord>
				<gx:coord>-71.631091 -16.301421 2660</gx:coord>
				<gx:coord>-71.631103 -16.301586 2645.7</gx:coord>
				<gx:coord>-71.63097 -16.301703 2629.8</gx:coord>
				<gx:coord>-71.630695 -16.301811 2630</gx:coord>
				<gx:coord>-71.63058100000001 -16.3019 2624.4</gx:coord>
				<gx:coord>-71.630498 -16.301736 2641.3</gx:coord>
				<gx:coord>-71.630515 -16.301746 2632.4</gx:coord>
				<gx:coord>-71.63042 -16.301811 2645.2</gx:coord>
				<gx:coord>-71.630398 -16.301638 2641.6</gx:coord>
				<gx:coord>-71.63028799999999 -16.301455 2646.2</gx:coord>
				<gx:coord>-71.63011 -16.301243 2638.3</gx:coord>
				<gx:coord>-71.629988 -16.301028 2639</gx:coord>
				<gx:coord>-71.629835 -16.3009 2646.7</gx:coord>
				<gx:coord>-71.629856 -16.300758 2649.5</gx:coord>
				<gx:coord>-71.629698 -16.300613 2647.4</gx:coord>
				<gx:coord>-71.62978099999999 -16.300583 2650.8</gx:coord>
				<gx:coord>-71.629851 -16.300631 2645.4</gx:coord>
				<gx:coord>-71.629796 -16.300585 2663.1</gx:coord>
				<gx:coord>-71.62950499999999 -16.300638 2627.2</gx:coord>
				<gx:coord>-71.629763 -16.300591 2675</gx:coord>
				<gx:coord>-71.62973599999999 -16.300598 2680.9</gx:coord>
				<gx:coord>-71.62982599999999 -16.300726 2680.5</gx:coord>
				<gx:coord>-71.6297 -16.300593 2673.4</gx:coord>
				<gx:coord>-71.62977100000001 -16.300696 2670</gx:coord>
				<gx:coord>-71.629835 -16.300753 2669.3</gx:coord>
				<gx:coord>-71.62986600000001 -16.300615 2669.5</gx:coord>
				<gx:coord>-71.629615 -16.300418 2665.9</gx:coord>
				<gx:coord>-71.62993 -16.300741 2666.2</gx:coord>
				<gx:coord>-71.62942099999999 -16.300193 2654.3</gx:coord>
				<gx:coord>-71.629335 -16.300038 2655</gx:coord>
				<gx:coord>-71.629428 -16.299888 2660.1</gx:coord>
				<gx:coord>-71.62937100000001 -16.299808 2661.9</gx:coord>
				<gx:coord>-71.629205 -16.299881 2658</gx:coord>
				<gx:coord>-71.629265 -16.299881 2664.6</gx:coord>
				<gx:coord>-71.62929 -16.299923 2657.6</gx:coord>
				<gx:coord>-71.629288 -16.299951 2646.2</gx:coord>
				<gx:coord>-71.62932499999999 -16.299945 2651.6</gx:coord>
				<gx:coord>-71.629098 -16.300048 2640.5</gx:coord>
				<gx:coord>-71.629256 -16.300083 2645.5</gx:coord>
				<gx:coord>-71.629188 -16.300235 2645.4</gx:coord>
				<gx:coord>-71.62939799999999 -16.300111 2651.6</gx:coord>
				<gx:coord>-71.629266 -16.299966 2650.4</gx:coord>
				<gx:coord>-71.62920800000001 -16.299801 2653.4</gx:coord>
				<gx:coord>-71.629081 -16.299758 2640.7</gx:coord>
				<gx:coord>-71.628968 -16.299746 2649.2</gx:coord>
				<gx:coord>-71.629006 -16.29987 2652.2</gx:coord>
				<gx:coord>-71.629075 -16.299946 2646.5</gx:coord>
				<gx:coord>-71.62894799999999 -16.299841 2646.8</gx:coord>
				<gx:coord>-71.628958 -16.29985 2644.6</gx:coord>
				<gx:coord>-71.628945 -16.29978 2657</gx:coord>
				<gx:coord>-71.628933 -16.299825 2633.6</gx:coord>
				<gx:coord>-71.629115 -16.299908 2653</gx:coord>
				<gx:coord>-71.62886 -16.29978 2655.9</gx:coord>
				<gx:coord>-71.62896600000001 -16.299848 2648.2</gx:coord>
				<gx:coord>-71.62898800000001 -16.299868 2636.7</gx:coord>
				<gx:coord>-71.628941 -16.299836 2643</gx:coord>
				<gx:coord>-71.628906 -16.299781 2649.1</gx:coord>
				<gx:coord>-71.62878499999999 -16.299916 2651.5</gx:coord>
				<gx:coord>-71.628686 -16.299931 2649.1</gx:coord>
				<gx:coord>-71.62844800000001 -16.299651 2646.9</gx:coord>
				<gx:coord>-71.628396 -16.29951 2649.8</gx:coord>
				<gx:coord>-71.628086 -16.299421 2656.7</gx:coord>
				<gx:coord>-71.62786800000001 -16.299465 2656.3</gx:coord>
				<gx:coord>-71.62760299999999 -16.299616 2653.3</gx:coord>
				<gx:coord>-71.627595 -16.299826 2658.3</gx:coord>
				<gx:coord>-71.62713100000001 -16.299913 2660.9</gx:coord>
				<gx:coord>-71.627045 -16.299761 2662.3</gx:coord>
				<gx:coord>-71.626881 -16.299731 2659.1</gx:coord>
				<gx:coord>-71.62686600000001 -16.299806 2671.2</gx:coord>
				<gx:coord>-71.626893 -16.299725 2672.6</gx:coord>
				<gx:coord>-71.62689 -16.299836 2668.9</gx:coord>
				<gx:coord>-71.626908 -16.299776 2668.7</gx:coord>
				<gx:coord>-71.626938 -16.29979 2668.7</gx:coord>
				<gx:coord>-71.626801 -16.299683 2673.4</gx:coord>
				<gx:coord>-71.626896 -16.299801 2668.8</gx:coord>
				<gx:coord>-71.626851 -16.299736 2675.2</gx:coord>
				<gx:coord>-71.626836 -16.299685 2676</gx:coord>
				<gx:coord>-71.627 -16.29978 2680.4</gx:coord>
				<gx:coord>-71.62687 -16.299795 2676.3</gx:coord>
				<gx:coord>-71.626851 -16.29962 2687.7</gx:coord>
				<gx:coord>-71.626845 -16.299735 2682.2</gx:coord>
				<gx:coord>-71.62690499999999 -16.299685 2685.6</gx:coord>
				<gx:coord>-71.626833 -16.299656 2690.3</gx:coord>
				<gx:coord>-71.626796 -16.299776 2687</gx:coord>
				<gx:coord>-71.626891 -16.29973 2678.9</gx:coord>
				<gx:coord>-71.62691 -16.299705 2679.9</gx:coord>
				<gx:coord>-71.626873 -16.29973 2681.3</gx:coord>
				<gx:coord>-71.62690600000001 -16.29966 2681.3</gx:coord>
				<gx:coord>-71.626946 -16.299696 2672.2</gx:coord>
				<gx:coord>-71.626895 -16.299725 2677.4</gx:coord>
				<gx:coord>-71.626711 -16.299583 2672.9</gx:coord>
				<gx:coord>-71.62688 -16.299771 2670.2</gx:coord>
				<gx:coord>-71.626856 -16.299771 2670.7</gx:coord>
				<gx:coord>-71.626931 -16.299843 2668.7</gx:coord>
				<gx:coord>-71.62695600000001 -16.29982 2672.8</gx:coord>
				<gx:coord>-71.626925 -16.29977 2670.2</gx:coord>
				<gx:coord>-71.6268 -16.299696 2670.9</gx:coord>
				<gx:coord>-71.627133 -16.30014 2663.5</gx:coord>
				<gx:coord>-71.626833 -16.299458 2672.6</gx:coord>
				<gx:coord>-71.626901 -16.299438 2669.3</gx:coord>
				<gx:coord>-71.62677499999999 -16.299358 2704.5</gx:coord>
				<gx:coord>-71.62686600000001 -16.299495 2679.6</gx:coord>
				<gx:coord>-71.626856 -16.299506 2671.9</gx:coord>
				<gx:coord>-71.626865 -16.299581 2668.5</gx:coord>
				<gx:coord>-71.626875 -16.299618 2669.3</gx:coord>
				<gx:coord>-71.626846 -16.299513 2672.4</gx:coord>
				<gx:coord>-71.62692 -16.299678 2671.7</gx:coord>
				<gx:coord>-71.626631 -16.299438 2674</gx:coord>
				<gx:coord>-71.626778 -16.29935 2672.7</gx:coord>
				<gx:coord>-71.62686600000001 -16.299465 2669.8</gx:coord>
				<gx:coord>-71.626503 -16.29921 2675</gx:coord>
				<gx:coord>-71.626795 -16.299485 2673.1</gx:coord>
				<gx:coord>-71.626538 -16.299235 2683.5</gx:coord>
				<gx:coord>-71.626403 -16.298881 2673.7</gx:coord>
				<gx:coord>-71.626358 -16.29902 2698.9</gx:coord>
				<gx:coord>-71.626636 -16.299131 2669.3</gx:coord>
				<gx:coord>-71.62656800000001 -16.299085 2677.6</gx:coord>
				<gx:coord>-71.626723 -16.299178 2661.9</gx:coord>
				<gx:coord>-71.62696099999999 -16.299215 2659</gx:coord>
				<gx:coord>-71.62682599999999 -16.299193 2655.8</gx:coord>
				<gx:coord>-71.626445 -16.29892 2645.5</gx:coord>
				<gx:coord>-71.62660099999999 -16.299193 2660.3</gx:coord>
				<gx:coord>-71.62656 -16.29895 2676.4</gx:coord>
				<gx:coord>-71.62658999999999 -16.298946 2675.5</gx:coord>
				<gx:coord>-71.62646599999999 -16.298928 2664.3</gx:coord>
				<gx:coord>-71.62640500000001 -16.298916 2664.9</gx:coord>
				<gx:coord>-71.62651099999999 -16.299023 2665.1</gx:coord>
				<gx:coord>-71.626711 -16.299131 2665.6</gx:coord>
				<gx:coord>-71.62652 -16.299005 2672.7</gx:coord>
				<gx:coord>-71.62646100000001 -16.29892 2673.5</gx:coord>
				<gx:coord>-71.626446 -16.299101 2676.6</gx:coord>
				<gx:coord>-71.626611 -16.299231 2676.5</gx:coord>
				<gx:coord>-71.62638 -16.299013 2676.4</gx:coord>
				<gx:coord>-71.626411 -16.299025 2671.4</gx:coord>
				<gx:coord>-71.626473 -16.29903 2677.3</gx:coord>
				<gx:coord>-71.626571 -16.299048 2679</gx:coord>
				<gx:coord>-71.62656 -16.299106 2683.4</gx:coord>
				<gx:coord>-71.626468 -16.29892 2676.8</gx:coord>
				<gx:coord>-71.62674800000001 -16.298958 2679</gx:coord>
				<gx:coord>-71.626833 -16.298891 2679</gx:coord>
				<gx:coord>-71.626428 -16.298615 2678.1</gx:coord>
				<gx:coord>-71.626785 -16.2989 2679</gx:coord>
				<gx:coord>-71.627251 -16.299131 2678.9</gx:coord>
				<gx:coord>-71.626795 -16.29877 2681</gx:coord>
				<gx:coord>-71.626796 -16.298736 2679</gx:coord>
				<gx:coord>-71.62701 -16.298928 2664.6</gx:coord>
				<gx:coord>-71.627178 -16.298631 2664.8</gx:coord>
				<gx:coord>-71.626808 -16.29823 2670.5</gx:coord>
				<gx:coord>-71.627021 -16.298691 2683.7</gx:coord>
				<gx:coord>-71.626786 -16.298701 2674.8</gx:coord>
				<gx:coord>-71.626661 -16.299003 2676</gx:coord>
				<gx:coord>-71.626471 -16.299006 2663.2</gx:coord>
				<gx:coord>-71.626541 -16.298995 2662.8</gx:coord>
				<gx:coord>-71.626696 -16.299065 2662.8</gx:coord>
				<gx:coord>-71.6264 -16.299086 2662.9</gx:coord>
				<gx:coord>-71.626301 -16.29873 2662.9</gx:coord>
				<gx:coord>-71.626366 -16.298821 2662.9</gx:coord>
				<gx:coord>-71.62647800000001 -16.298828 2662.8</gx:coord>
				<gx:coord>-71.62597 -16.29856 2664.5</gx:coord>
				<gx:coord>-71.62574600000001 -16.298343 2678.8</gx:coord>
				<gx:coord>-71.625906 -16.298451 2676.8</gx:coord>
				<gx:coord>-71.625663 -16.298351 2674.2</gx:coord>
				<gx:coord>-71.625805 -16.298443 2679.1</gx:coord>
				<gx:coord>-71.62569499999999 -16.29835 2683.7</gx:coord>
				<gx:coord>-71.625798 -16.298458 2681</gx:coord>
				<gx:coord>-71.626305 -16.298741 2679.2</gx:coord>
				<gx:coord>-71.62639799999999 -16.298806 2678.3</gx:coord>
				<gx:coord>-71.62622500000001 -16.298658 2675.8</gx:coord>
				<gx:coord>-71.62618000000001 -16.298663 2675.1</gx:coord>
				<gx:coord>-71.626065 -16.298625 2676.9</gx:coord>
				<gx:coord>-71.626268 -16.298678 2665.4</gx:coord>
				<gx:coord>-71.6263 -16.298716 2665</gx:coord>
				<gx:coord>-71.626186 -16.298688 2665.2</gx:coord>
				<gx:coord>-71.62593 -16.29861 2663.3</gx:coord>
				<gx:coord>-71.625878 -16.298496 2691.8</gx:coord>
				<gx:coord>-71.62545299999999 -16.298161 2691</gx:coord>
				<gx:coord>-71.625631 -16.298396 2687.6</gx:coord>
				<gx:coord>-71.625905 -16.298291 2689.4</gx:coord>
				<gx:coord>-71.62593 -16.298705 2689.7</gx:coord>
				<gx:coord>-71.62582999999999 -16.298685 2689.6</gx:coord>
				<gx:coord>-71.62609500000001 -16.298796 2689.6</gx:coord>
				<gx:coord>-71.62587000000001 -16.29863 2690</gx:coord>
				<gx:coord>-71.62604 -16.298628 2689.1</gx:coord>
				<gx:coord>-71.625871 -16.298526 2675.1</gx:coord>
				<gx:coord>-71.625586 -16.298303 2675</gx:coord>
				<gx:coord>-71.626045 -16.29861 2674.9</gx:coord>
				<gx:coord>-71.62587499999999 -16.298563 2653.4</gx:coord>
				<gx:coord>-71.626293 -16.298758 2654</gx:coord>
				<gx:coord>-71.62614000000001 -16.298693 2664.7</gx:coord>
				<gx:coord>-71.62630799999999 -16.298753 2661.4</gx:coord>
				<gx:coord>-71.626205 -16.298723 2662.099999999999</gx:coord>
				<gx:coord>-71.626131 -16.298683 2664.6</gx:coord>
				<gx:coord>-71.626155 -16.298648 2663.8</gx:coord>
				<gx:coord>-71.6263 -16.298766 2660.2</gx:coord>
				<gx:coord>-71.625911 -16.298548 2687.3</gx:coord>
				<gx:coord>-71.626183 -16.29864 2668.5</gx:coord>
				<gx:coord>-71.62607300000001 -16.298646 2668.5</gx:coord>
				<gx:coord>-71.62637599999999 -16.298815 2668.6</gx:coord>
				<gx:coord>-71.62621799999999 -16.298756 2668.5</gx:coord>
				<gx:coord>-71.62633599999999 -16.298835 2679.5</gx:coord>
				<gx:coord>-71.625985 -16.298586 2679.3</gx:coord>
				<gx:coord>-71.62606100000001 -16.298773 2679.2</gx:coord>
				<gx:coord>-71.62578999999999 -16.29883 2679.5</gx:coord>
				<gx:coord>-71.625711 -16.299038 2679.5</gx:coord>
				<gx:coord>-71.625643 -16.299181 2679.5</gx:coord>
				<gx:coord>-71.625698 -16.299053 2679.5</gx:coord>
				<gx:coord>-71.625883 -16.299253 2679.5</gx:coord>
				<gx:coord>-71.62569999999999 -16.299036 2682</gx:coord>
				<gx:coord>-71.625728 -16.299018 2674.1</gx:coord>
				<gx:coord>-71.62567 -16.299045 2678.2</gx:coord>
				<gx:coord>-71.62578999999999 -16.299105 2678.1</gx:coord>
				<gx:coord>-71.625811 -16.29914 2680.3</gx:coord>
				<gx:coord>-71.625828 -16.299083 2685.8</gx:coord>
				<gx:coord>-71.625596 -16.299093 2719.6</gx:coord>
				<gx:coord>-71.62564999999999 -16.299158 2740</gx:coord>
				<gx:coord>-71.625536 -16.299063 2719.7</gx:coord>
				<gx:coord>-71.625603 -16.299086 2721</gx:coord>
				<gx:coord>-71.625715 -16.299016 2706.5</gx:coord>
				<gx:coord>-71.625713 -16.29912 2672.7</gx:coord>
				<gx:coord>-71.625471 -16.299315 2665.7</gx:coord>
				<gx:coord>-71.625485 -16.299321 2674.4</gx:coord>
				<gx:coord>-71.625686 -16.299263 2677</gx:coord>
				<gx:coord>-71.625608 -16.299181 2661</gx:coord>
				<gx:coord>-71.62571 -16.299208 2678</gx:coord>
				<gx:coord>-71.625598 -16.299143 2678.3</gx:coord>
				<gx:coord>-71.625698 -16.299221 2674.6</gx:coord>
				<gx:coord>-71.625686 -16.299303 2716.4</gx:coord>
				<gx:coord>-71.625666 -16.2992 2686.6</gx:coord>
				<gx:coord>-71.625708 -16.299146 2673.9</gx:coord>
				<gx:coord>-71.62550299999999 -16.299043 2683.2</gx:coord>
				<gx:coord>-71.626403 -16.299063 2546.2</gx:coord>
				<gx:coord>-71.62603799999999 -16.298966 2602.3</gx:coord>
				<gx:coord>-71.625168 -16.299133 2719.2</gx:coord>
				<gx:coord>-71.625068 -16.299016 2746.7</gx:coord>
				<gx:coord>-71.625 -16.299045 2724.4</gx:coord>
				<gx:coord>-71.62540300000001 -16.299026 2686.3</gx:coord>
				<gx:coord>-71.625388 -16.299015 2690.7</gx:coord>
				<gx:coord>-71.625531 -16.29912 2661.2</gx:coord>
				<gx:coord>-71.62547499999999 -16.299066 2670.5</gx:coord>
				<gx:coord>-71.62530099999999 -16.29906 2706.6</gx:coord>
				<gx:coord>-71.625373 -16.29904 2633.2</gx:coord>
				<gx:coord>-71.625506 -16.299236 2678.9</gx:coord>
				<gx:coord>-71.625441 -16.299068 2690.5</gx:coord>
				<gx:coord>-71.625756 -16.298993 2647.9</gx:coord>
				<gx:coord>-71.62542999999999 -16.298961 2687.1</gx:coord>
				<gx:coord>-71.62526 -16.298851 2672.2</gx:coord>
				<gx:coord>-71.625445 -16.298978 2674.5</gx:coord>
				<gx:coord>-71.625303 -16.298836 2684.1</gx:coord>
				<gx:coord>-71.62537500000001 -16.298951 2684.7</gx:coord>
				<gx:coord>-71.625388 -16.298903 2682.6</gx:coord>
				<gx:coord>-71.625468 -16.298938 2668.7</gx:coord>
				<gx:coord>-71.625423 -16.298895 2656.9</gx:coord>
				<gx:coord>-71.625518 -16.298788 2680.4</gx:coord>
				<gx:coord>-71.625373 -16.298838 2674.7</gx:coord>
				<gx:coord>-71.625478 -16.298863 2665.8</gx:coord>
				<gx:coord>-71.62559 -16.298906 2673.3</gx:coord>
				<gx:coord>-71.62551499999999 -16.29898 2672.5</gx:coord>
				<gx:coord>-71.625456 -16.298946 2680.5</gx:coord>
				<gx:coord>-71.625326 -16.29923 2675.5</gx:coord>
				<gx:coord>-71.62555 -16.299181 2683.9</gx:coord>
				<gx:coord>-71.625176 -16.298941 2676.9</gx:coord>
				<gx:coord>-71.625376 -16.298933 2657</gx:coord>
				<gx:coord>-71.62536799999999 -16.298946 2663.2</gx:coord>
				<gx:coord>-71.62507600000001 -16.298996 2687.8</gx:coord>
				<gx:coord>-71.625353 -16.298931 2675.3</gx:coord>
				<gx:coord>-71.625276 -16.299093 2673.9</gx:coord>
				<gx:coord>-71.62535800000001 -16.299235 2689.5</gx:coord>
				<gx:coord>-71.62569499999999 -16.29904 2672.2</gx:coord>
				<gx:coord>-71.625575 -16.299051 2676.2</gx:coord>
				<gx:coord>-71.625501 -16.299078 2676.4</gx:coord>
				<gx:coord>-71.625711 -16.29876 2676.4</gx:coord>
				<gx:coord>-71.625513 -16.298981 2664.8</gx:coord>
				<gx:coord>-71.62532299999999 -16.298935 2670.1</gx:coord>
				<gx:coord>-71.62549300000001 -16.298891 2675.2</gx:coord>
				<gx:coord>-71.62555500000001 -16.29893 2674.2</gx:coord>
				<gx:coord>-71.62512599999999 -16.299105 2671.8</gx:coord>
				<gx:coord>-71.62489600000001 -16.299301 2672.8</gx:coord>
				<gx:coord>-71.624651 -16.299523 2696.4</gx:coord>
				<gx:coord>-71.624495 -16.299633 2705.2</gx:coord>
				<gx:coord>-71.624286 -16.299796 2707.8</gx:coord>
				<gx:coord>-71.62408600000001 -16.299953 2684.5</gx:coord>
				<gx:coord>-71.623926 -16.300121 2679.8</gx:coord>
				<gx:coord>-71.623671 -16.300263 2679.5</gx:coord>
				<gx:coord>-71.62353 -16.300441 2675.3</gx:coord>
				<gx:coord>-71.62334799999999 -16.300603 2683.4</gx:coord>
				<gx:coord>-71.623363 -16.300648 2679.7</gx:coord>
				<gx:coord>-71.62327000000001 -16.300776 2675.2</gx:coord>
				<gx:coord>-71.623131 -16.300911 2674.2</gx:coord>
				<gx:coord>-71.623096 -16.300843 2674.5</gx:coord>
				<gx:coord>-71.62323600000001 -16.3007 2670</gx:coord>
				<gx:coord>-71.623026 -16.300981 2676.5</gx:coord>
				<gx:coord>-71.62325 -16.300718 2670.6</gx:coord>
				<gx:coord>-71.623171 -16.300828 2671.6</gx:coord>
				<gx:coord>-71.62327500000001 -16.300741 2671.5</gx:coord>
				<gx:coord>-71.623093 -16.300923 2682.1</gx:coord>
				<gx:coord>-71.623141 -16.300848 2683.9</gx:coord>
				<gx:coord>-71.62318 -16.3008 2683.3</gx:coord>
				<gx:coord>-71.623233 -16.300815 2683.5</gx:coord>
				<gx:coord>-71.623295 -16.300783 2683.7</gx:coord>
				<gx:coord>-71.623375 -16.30071 2683.7</gx:coord>
				<gx:coord>-71.623261 -16.300756 2683.5</gx:coord>
				<gx:coord>-71.62325800000001 -16.30074 2683.3</gx:coord>
				<gx:coord>-71.623276 -16.300746 2683.6</gx:coord>
				<gx:coord>-71.623248 -16.300745 2683.6</gx:coord>
				<gx:coord>-71.623233 -16.30068 2675.8</gx:coord>
				<gx:coord>-71.623273 -16.300741 2679.1</gx:coord>
				<gx:coord>-71.62331 -16.300738 2680.5</gx:coord>
				<gx:coord>-71.62330799999999 -16.300701 2676.2</gx:coord>
				<gx:coord>-71.62325 -16.300725 2667.3</gx:coord>
				<gx:coord>-71.623456 -16.300743 2686.6</gx:coord>
				<gx:coord>-71.62318500000001 -16.300893 2657.5</gx:coord>
			</gx:Track>
		</Placemark>
	</Folder>
</Document>
</kml>
