<?xml version="1.0" encoding="UTF-8"?>
<kml xmlns="http://www.opengis.net/kml/2.2" xmlns:gx="http://www.google.com/kml/ext/2.2" xmlns:kml="http://www.opengis.net/kml/2.2" xmlns:atom="http://www.w3.org/2005/Atom">
<Document>
	<name>GPS-56 30-11-2024 GRUPO 03</name>
	<visibility>0</visibility>
	<snippet>Created vie. Mar. 14 08:43:00 2025</snippet>
	<LookAt>
		<gx:TimeSpan>
			<begin>2024-11-30T14:08:00Z</begin>
			<end>2024-11-30T19:16:24.904Z</end>
		</gx:TimeSpan>
		<longitude>-71.629555</longitude>
		<latitude>-16.317726</latitude>
		<altitude>0</altitude>
		<heading>0</heading>
		<tilt>0</tilt>
		<range>1300</range>
	</LookAt>
	<atom:link rel="app" href="https://www.google.com/earth/about/versions/#earth-pro" title="Google Earth Pro 7.3.6.10441"></atom:link>
	<StyleMap id="multiTrack11164">
		<Pair>
			<key>normal</key>
			<styleUrl>#multiTrack_n11164</styleUrl>
		</Pair>
		<Pair>
			<key>highlight</key>
			<styleUrl>#multiTrack_h11164</styleUrl>
		</Pair>
	</StyleMap>
	<Style id="multiTrack_h11164">
		<IconStyle>
			<scale>1.2</scale>
			<Icon>
				<href>https://earth.google.com/images/kml-icons/track-directional/track-0.png</href>
			</Icon>
		</IconStyle>
		<LineStyle>
			<color>99ffac59</color>
			<width>8</width>
		</LineStyle>
	</Style>
	<Style id="multiTrack_n11164">
		<IconStyle>
			<Icon>
				<href>https://earth.google.com/images/kml-icons/track-directional/track-0.png</href>
			</Icon>
		</IconStyle>
		<LineStyle>
			<color>99ffac59</color>
			<width>6</width>
		</LineStyle>
	</Style>
	<Folder>
		<name>Tracks</name>
		<visibility>0</visibility>
		<Placemark>
			<visibility>0</visibility>
			<styleUrl>#multiTrack11164</styleUrl>
			<gx:Track>
				<when>2024-11-30T14:08:00Z</when>
				<when>2024-11-30T14:08:39Z</when>
				<when>2024-11-30T14:09:16Z</when>
				<when>2024-11-30T14:09:53Z</when>
				<when>2024-11-30T14:10:06.44Z</when>
				<when>2024-11-30T14:10:06.44Z</when>
				<when>2024-11-30T14:10:37.855Z</when>
				<when>2024-11-30T14:12:28.648Z</when>
				<when>2024-11-30T14:13:25.877Z</when>
				<when>2024-11-30T14:13:25.877Z</when>
				<when>2024-11-30T14:15:47Z</when>
				<when>2024-11-30T14:16:23Z</when>
				<when>2024-11-30T14:17:02Z</when>
				<when>2024-11-30T14:17:47Z</when>
				<when>2024-11-30T14:18:23Z</when>
				<when>2024-11-30T14:18:27.194Z</when>
				<when>2024-11-30T14:18:27.194Z</when>
				<when>2024-11-30T14:18:34.725Z</when>
				<when>2024-11-30T14:18:43.015Z</when>
				<when>2024-11-30T14:18:43.015Z</when>
				<when>2024-11-30T14:21:05Z</when>
				<when>2024-11-30T14:21:36Z</when>
				<when>2024-11-30T14:21:36Z</when>
				<when>2024-11-30T14:22:37.824Z</when>
				<when>2024-11-30T14:22:38.235Z</when>
				<when>2024-11-30T14:22:38.235Z</when>
				<when>2024-11-30T14:25:44Z</when>
				<when>2024-11-30T14:26:51Z</when>
				<when>2024-11-30T14:27:25Z</when>
				<when>2024-11-30T14:27:59Z</when>
				<when>2024-11-30T14:28:33Z</when>
				<when>2024-11-30T14:28:45.727Z</when>
				<when>2024-11-30T14:28:45.727Z</when>
				<when>2024-11-30T14:29:25.986Z</when>
				<when>2024-11-30T14:30:12.852Z</when>
				<when>2024-11-30T14:30:12.852Z</when>
				<when>2024-11-30T14:32:34.625Z</when>
				<when>2024-11-30T14:33:09.37Z</when>
				<when>2024-11-30T14:33:44.128Z</when>
				<when>2024-11-30T14:34:18.866Z</when>
				<when>2024-11-30T14:34:53.615Z</when>
				<when>2024-11-30T14:35:29.374Z</when>
				<when>2024-11-30T14:36:04.173Z</when>
				<when>2024-11-30T14:36:39.93Z</when>
				<when>2024-11-30T14:37:15.674Z</when>
				<when>2024-11-30T14:37:51.412Z</when>
				<when>2024-11-30T14:38:25.157Z</when>
				<when>2024-11-30T14:38:59.916Z</when>
				<when>2024-11-30T14:39:34.661Z</when>
				<when>2024-11-30T14:40:08.424Z</when>
				<when>2024-11-30T14:40:43.217Z</when>
				<when>2024-11-30T14:41:17.976Z</when>
				<when>2024-11-30T14:41:51.776Z</when>
				<when>2024-11-30T14:42:25.566Z</when>
				<when>2024-11-30T14:43:00.376Z</when>
				<when>2024-11-30T14:43:35.171Z</when>
				<when>2024-11-30T14:44:08.916Z</when>
				<when>2024-11-30T14:44:42.727Z</when>
				<when>2024-11-30T14:45:16.527Z</when>
				<when>2024-11-30T14:45:51.323Z</when>
				<when>2024-11-30T14:46:25.127Z</when>
				<when>2024-11-30T14:46:59.92Z</when>
				<when>2024-11-30T14:47:33.719Z</when>
				<when>2024-11-30T14:48:07.514Z</when>
				<when>2024-11-30T14:48:42.32Z</when>
				<when>2024-11-30T14:49:16.075Z</when>
				<when>2024-11-30T14:49:50.889Z</when>
				<when>2024-11-30T14:50:25.675Z</when>
				<when>2024-11-30T14:50:48.653Z</when>
				<when>2024-11-30T14:50:48.653Z</when>
				<when>2024-11-30T14:51:45.256Z</when>
				<when>2024-11-30T14:52:44.213Z</when>
				<when>2024-11-30T14:52:44.213Z</when>
				<when>2024-11-30T14:56:15.627Z</when>
				<when>2024-11-30T14:56:49.435Z</when>
				<when>2024-11-30T14:57:24.163Z</when>
				<when>2024-11-30T14:57:57.872Z</when>
				<when>2024-11-30T14:58:32.634Z</when>
				<when>2024-11-30T14:59:07.423Z</when>
				<when>2024-11-30T14:59:42.22Z</when>
				<when>2024-11-30T15:00:17.043Z</when>
				<when>2024-11-30T15:00:52.837Z</when>
				<when>2024-11-30T15:01:29.633Z</when>
				<when>2024-11-30T15:02:05.435Z</when>
				<when>2024-11-30T15:02:42.233Z</when>
				<when>2024-11-30T15:03:18.028Z</when>
				<when>2024-11-30T15:03:51.838Z</when>
				<when>2024-11-30T15:04:26.595Z</when>
				<when>2024-11-30T15:05:02.341Z</when>
				<when>2024-11-30T15:05:38.124Z</when>
				<when>2024-11-30T15:06:12.939Z</when>
				<when>2024-11-30T15:06:48.73Z</when>
				<when>2024-11-30T15:07:23.527Z</when>
				<when>2024-11-30T15:08:01.337Z</when>
				<when>2024-11-30T15:08:38.135Z</when>
				<when>2024-11-30T15:09:17.935Z</when>
				<when>2024-11-30T15:09:54.683Z</when>
				<when>2024-11-30T15:10:31.472Z</when>
				<when>2024-11-30T15:11:07.274Z</when>
				<when>2024-11-30T15:11:43.077Z</when>
				<when>2024-11-30T15:12:19.884Z</when>
				<when>2024-11-30T15:12:56.623Z</when>
				<when>2024-11-30T15:13:32.434Z</when>
				<when>2024-11-30T15:14:08.225Z</when>
				<when>2024-11-30T15:14:44.018Z</when>
				<when>2024-11-30T15:15:20.835Z</when>
				<when>2024-11-30T15:15:58.636Z</when>
				<when>2024-11-30T15:16:36.426Z</when>
				<when>2024-11-30T15:17:15.176Z</when>
				<when>2024-11-30T15:17:52.947Z</when>
				<when>2024-11-30T15:18:29.724Z</when>
				<when>2024-11-30T15:19:08.48Z</when>
				<when>2024-11-30T15:19:45.224Z</when>
				<when>2024-11-30T15:20:21.024Z</when>
				<when>2024-11-30T15:20:56.825Z</when>
				<when>2024-11-30T15:21:31.619Z</when>
				<when>2024-11-30T15:22:10.416Z</when>
				<when>2024-11-30T15:22:37.319Z</when>
				<when>2024-11-30T15:22:37.319Z</when>
				<when>2024-11-30T15:23:12.483Z</when>
				<when>2024-11-30T15:23:36.117Z</when>
				<when>2024-11-30T15:23:36.117Z</when>
				<when>2024-11-30T15:25:10.427Z</when>
				<when>2024-11-30T15:25:45.235Z</when>
				<when>2024-11-30T15:26:21.016Z</when>
				<when>2024-11-30T15:26:56.813Z</when>
				<when>2024-11-30T15:27:32.572Z</when>
				<when>2024-11-30T15:28:07.378Z</when>
				<when>2024-11-30T15:28:43.179Z</when>
				<when>2024-11-30T15:29:19.982Z</when>
				<when>2024-11-30T15:29:54.756Z</when>
				<when>2024-11-30T15:30:30.508Z</when>
				<when>2024-11-30T15:31:06.315Z</when>
				<when>2024-11-30T15:31:44.099Z</when>
				<when>2024-11-30T15:32:21.868Z</when>
				<when>2024-11-30T15:32:57.663Z</when>
				<when>2024-11-30T15:33:33.465Z</when>
				<when>2024-11-30T15:34:09.274Z</when>
				<when>2024-11-30T15:34:47.019Z</when>
				<when>2024-11-30T15:35:22.818Z</when>
				<when>2024-11-30T15:35:57.607Z</when>
				<when>2024-11-30T15:36:32.413Z</when>
				<when>2024-11-30T15:37:07.212Z</when>
				<when>2024-11-30T15:37:43.012Z</when>
				<when>2024-11-30T15:38:18.837Z</when>
				<when>2024-11-30T15:38:53.621Z</when>
				<when>2024-11-30T15:39:30.419Z</when>
				<when>2024-11-30T15:40:05.205Z</when>
				<when>2024-11-30T15:40:40.021Z</when>
				<when>2024-11-30T15:41:15.813Z</when>
				<when>2024-11-30T15:41:50.611Z</when>
				<when>2024-11-30T15:42:26.407Z</when>
				<when>2024-11-30T15:43:03.214Z</when>
				<when>2024-11-30T15:43:42.034Z</when>
				<when>2024-11-30T15:44:17.725Z</when>
				<when>2024-11-30T15:44:52.515Z</when>
				<when>2024-11-30T15:45:28.224Z</when>
				<when>2024-11-30T15:46:04.028Z</when>
				<when>2024-11-30T15:46:38.817Z</when>
				<when>2024-11-30T15:47:13.573Z</when>
				<when>2024-11-30T15:47:51.371Z</when>
				<when>2024-11-30T15:48:28.175Z</when>
				<when>2024-11-30T15:49:03.965Z</when>
				<when>2024-11-30T15:49:38.76Z</when>
				<when>2024-11-30T15:49:50.83Z</when>
				<when>2024-11-30T15:49:50.83Z</when>
				<when>2024-11-30T15:50:31.645Z</when>
				<when>2024-11-30T15:51:09.817Z</when>
				<when>2024-11-30T15:51:09.937Z</when>
				<when>2024-11-30T15:53:18.577Z</when>
				<when>2024-11-30T15:54:10.728Z</when>
				<when>2024-11-30T15:54:10.728Z</when>
				<when>2024-11-30T15:54:59.027Z</when>
				<when>2024-11-30T15:55:21.079Z</when>
				<when>2024-11-30T15:55:21.327Z</when>
				<when>2024-11-30T15:55:40.669Z</when>
				<when>2024-11-30T15:56:16.46Z</when>
				<when>2024-11-30T15:56:53.283Z</when>
				<when>2024-11-30T15:57:30.058Z</when>
				<when>2024-11-30T15:58:08.882Z</when>
				<when>2024-11-30T16:04:54.336Z</when>
				<when>2024-11-30T16:04:54.336Z</when>
				<when>2024-11-30T16:06:49.537Z</when>
				<when>2024-11-30T16:08:01.559Z</when>
				<when>2024-11-30T16:08:03.077Z</when>
				<when>2024-11-30T16:12:17.105Z</when>
				<when>2024-11-30T16:12:53.901Z</when>
				<when>2024-11-30T16:13:29.705Z</when>
				<when>2024-11-30T16:14:05.507Z</when>
				<when>2024-11-30T16:14:40.312Z</when>
				<when>2024-11-30T16:15:17.115Z</when>
				<when>2024-11-30T16:15:53.872Z</when>
				<when>2024-11-30T16:16:29.615Z</when>
				<when>2024-11-30T16:17:05.373Z</when>
				<when>2024-11-30T16:17:40.119Z</when>
				<when>2024-11-30T16:18:16.868Z</when>
				<when>2024-11-30T16:18:52.603Z</when>
				<when>2024-11-30T16:19:28.364Z</when>
				<when>2024-11-30T16:20:04.11Z</when>
				<when>2024-11-30T16:20:38.858Z</when>
				<when>2024-11-30T16:21:13.604Z</when>
				<when>2024-11-30T16:21:28.786Z</when>
				<when>2024-11-30T16:21:28.786Z</when>
				<when>2024-11-30T16:21:52.249Z</when>
				<when>2024-11-30T16:22:09.183Z</when>
				<when>2024-11-30T16:22:09.183Z</when>
				<when>2024-11-30T16:23:25.023Z</when>
				<when>2024-11-30T16:23:25.023Z</when>
				<when>2024-11-30T16:23:51.914Z</when>
				<when>2024-11-30T16:24:17.808Z</when>
				<when>2024-11-30T16:24:17.808Z</when>
				<when>2024-11-30T16:25:57.505Z</when>
				<when>2024-11-30T16:25:57.505Z</when>
				<when>2024-11-30T16:26:50.697Z</when>
				<when>2024-11-30T16:27:39.71Z</when>
				<when>2024-11-30T16:27:39.911Z</when>
				<when>2024-11-30T16:29:03.403Z</when>
				<when>2024-11-30T16:29:40.152Z</when>
				<when>2024-11-30T16:30:16.906Z</when>
				<when>2024-11-30T16:30:54.671Z</when>
				<when>2024-11-30T16:31:34.387Z</when>
				<when>2024-11-30T16:32:16.137Z</when>
				<when>2024-11-30T16:32:59.808Z</when>
				<when>2024-11-30T16:33:38.561Z</when>
				<when>2024-11-30T16:34:16.255Z</when>
				<when>2024-11-30T16:34:59.927Z</when>
				<when>2024-11-30T16:35:45.899Z</when>
				<when>2024-11-30T16:36:22.899Z</when>
				<when>2024-11-30T16:36:57.899Z</when>
				<when>2024-11-30T16:37:34.899Z</when>
				<when>2024-11-30T16:38:12.672Z</when>
				<when>2024-11-30T16:38:50.441Z</when>
				<when>2024-11-30T16:39:28.192Z</when>
				<when>2024-11-30T16:40:06.94Z</when>
				<when>2024-11-30T16:40:45.675Z</when>
				<when>2024-11-30T16:41:22.439Z</when>
				<when>2024-11-30T16:42:03.177Z</when>
				<when>2024-11-30T16:42:03.177Z</when>
				<when>2024-11-30T16:43:14.189Z</when>
				<when>2024-11-30T16:44:44.376Z</when>
				<when>2024-11-30T16:44:44.882Z</when>
				<when>2024-11-30T16:45:04.202Z</when>
				<when>2024-11-30T16:45:04.202Z</when>
				<when>2024-11-30T16:45:12.137Z</when>
				<when>2024-11-30T16:45:12.137Z</when>
				<when>2024-11-30T16:45:58.899Z</when>
				<when>2024-11-30T16:46:37.899Z</when>
				<when>2024-11-30T16:47:16.676Z</when>
				<when>2024-11-30T16:47:53.434Z</when>
				<when>2024-11-30T16:49:10.102Z</when>
				<when>2024-11-30T16:49:10.102Z</when>
				<when>2024-11-30T16:50:14.738Z</when>
				<when>2024-11-30T16:51:35.492Z</when>
				<when>2024-11-30T16:51:35.93Z</when>
				<when>2024-11-30T16:51:36.368Z</when>
				<when>2024-11-30T16:53:07.189Z</when>
				<when>2024-11-30T16:53:35.158Z</when>
				<when>2024-11-30T16:53:35.158Z</when>
				<when>2024-11-30T16:54:45.763Z</when>
				<when>2024-11-30T16:55:39.763Z</when>
				<when>2024-11-30T16:56:17.763Z</when>
				<when>2024-11-30T16:56:33.499Z</when>
				<when>2024-11-30T16:56:33.499Z</when>
				<when>2024-11-30T16:57:18.119Z</when>
				<when>2024-11-30T16:57:18.599Z</when>
				<when>2024-11-30T16:57:46.19Z</when>
				<when>2024-11-30T16:57:46.19Z</when>
				<when>2024-11-30T16:58:12.998Z</when>
				<when>2024-11-30T16:59:01.855Z</when>
				<when>2024-11-30T16:59:01.855Z</when>
				<when>2024-11-30T17:00:26.763Z</when>
				<when>2024-11-30T17:01:01.763Z</when>
				<when>2024-11-30T17:01:39.763Z</when>
				<when>2024-11-30T17:01:46.407Z</when>
				<when>2024-11-30T17:01:46.407Z</when>
				<when>2024-11-30T17:01:49.639Z</when>
				<when>2024-11-30T17:01:50.836Z</when>
				<when>2024-11-30T17:01:50.836Z</when>
				<when>2024-11-30T17:04:12.467Z</when>
				<when>2024-11-30T17:04:51.184Z</when>
				<when>2024-11-30T17:05:30.882Z</when>
				<when>2024-11-30T17:06:07.571Z</when>
				<when>2024-11-30T17:06:43.322Z</when>
				<when>2024-11-30T17:07:24.027Z</when>
				<when>2024-11-30T17:08:02.724Z</when>
				<when>2024-11-30T17:08:41.419Z</when>
				<when>2024-11-30T17:09:17.111Z</when>
				<when>2024-11-30T17:09:55.823Z</when>
				<when>2024-11-30T17:10:35.526Z</when>
				<when>2024-11-30T17:11:14.284Z</when>
				<when>2024-11-30T17:11:53.969Z</when>
				<when>2024-11-30T17:12:28.671Z</when>
				<when>2024-11-30T17:13:08.37Z</when>
				<gx:coord>-71.628445 -16.316431 2604.9</gx:coord>
				<gx:coord>-71.628445 -16.316388 2581.6</gx:coord>
				<gx:coord>-71.628541 -16.316351 2636.4</gx:coord>
				<gx:coord>-71.628451 -16.31645 2624.1</gx:coord>
				<gx:coord>-71.628478 -16.316498 2603.9</gx:coord>
				<gx:coord>-71.628478 -16.316498 2561.01</gx:coord>
				<gx:coord>-71.628452 -16.316373 2561.92</gx:coord>
				<gx:coord>-71.628643 -16.316784 2562.19</gx:coord>
				<gx:coord>-71.62874100000001 -16.316996 2564.47</gx:coord>
				<gx:coord>-71.62874100000001 -16.316996 2685.9</gx:coord>
				<gx:coord>-71.62879100000001 -16.316901 2600.1</gx:coord>
				<gx:coord>-71.62848 -16.316815 2734.7</gx:coord>
				<gx:coord>-71.628581 -16.316886 2655.2</gx:coord>
				<gx:coord>-71.62844800000001 -16.316463 2643.5</gx:coord>
				<gx:coord>-71.628535 -16.316341 2624</gx:coord>
				<gx:coord>-71.628663 -16.31632 2572.8</gx:coord>
				<gx:coord>-71.628663 -16.31632 2564.54</gx:coord>
				<gx:coord>-71.628552 -16.316123 2565.32</gx:coord>
				<gx:coord>-71.62880800000001 -16.316108 2567.34</gx:coord>
				<gx:coord>-71.62880800000001 -16.316108 2610.2</gx:coord>
				<gx:coord>-71.628541 -16.316328 2614.4</gx:coord>
				<gx:coord>-71.628653 -16.316443 2581</gx:coord>
				<gx:coord>-71.628653 -16.316443 2563.51</gx:coord>
				<gx:coord>-71.62833000000001 -16.316395 2559.87</gx:coord>
				<gx:coord>-71.628331 -16.316393 2559.91</gx:coord>
				<gx:coord>-71.628331 -16.316393 2673.1</gx:coord>
				<gx:coord>-71.62867 -16.316753 2629.9</gx:coord>
				<gx:coord>-71.62900500000001 -16.3169 2576.8</gx:coord>
				<gx:coord>-71.628955 -16.317008 2588.7</gx:coord>
				<gx:coord>-71.628908 -16.316951 2571.2</gx:coord>
				<gx:coord>-71.629008 -16.316905 2574.3</gx:coord>
				<gx:coord>-71.62902 -16.316873 2576.2</gx:coord>
				<gx:coord>-71.62902 -16.316873 2567.64</gx:coord>
				<gx:coord>-71.628927 -16.316933 2566.8</gx:coord>
				<gx:coord>-71.62903300000001 -16.31686 2567.72</gx:coord>
				<gx:coord>-71.62903300000001 -16.31686 2578.2</gx:coord>
				<gx:coord>-71.62902 -16.316896 2563.5</gx:coord>
				<gx:coord>-71.628968 -16.31698 2582.4</gx:coord>
				<gx:coord>-71.629031 -16.316906 2587.5</gx:coord>
				<gx:coord>-71.628973 -16.316941 2581.7</gx:coord>
				<gx:coord>-71.628996 -16.316945 2576.1</gx:coord>
				<gx:coord>-71.62906099999999 -16.316885 2575.3</gx:coord>
				<gx:coord>-71.629051 -16.317018 2583.8</gx:coord>
				<gx:coord>-71.62906599999999 -16.316981 2570.3</gx:coord>
				<gx:coord>-71.628991 -16.317005 2573.5</gx:coord>
				<gx:coord>-71.62906099999999 -16.317023 2596.5</gx:coord>
				<gx:coord>-71.62911 -16.317086 2590</gx:coord>
				<gx:coord>-71.62910100000001 -16.317095 2594.6</gx:coord>
				<gx:coord>-71.62897599999999 -16.317103 2591.2</gx:coord>
				<gx:coord>-71.629006 -16.31708 2603.9</gx:coord>
				<gx:coord>-71.62901599999999 -16.317058 2584.6</gx:coord>
				<gx:coord>-71.629023 -16.316966 2586</gx:coord>
				<gx:coord>-71.62892100000001 -16.316966 2590.3</gx:coord>
				<gx:coord>-71.628946 -16.316916 2585.1</gx:coord>
				<gx:coord>-71.62896600000001 -16.316986 2574.3</gx:coord>
				<gx:coord>-71.629046 -16.316928 2584.5</gx:coord>
				<gx:coord>-71.628978 -16.317005 2580</gx:coord>
				<gx:coord>-71.62902099999999 -16.316913 2576.5</gx:coord>
				<gx:coord>-71.628975 -16.316956 2584.7</gx:coord>
				<gx:coord>-71.62901599999999 -16.316933 2593</gx:coord>
				<gx:coord>-71.628941 -16.316916 2582.6</gx:coord>
				<gx:coord>-71.629015 -16.316956 2575</gx:coord>
				<gx:coord>-71.629051 -16.316988 2594.5</gx:coord>
				<gx:coord>-71.629048 -16.316971 2584.2</gx:coord>
				<gx:coord>-71.62904 -16.316995 2581.7</gx:coord>
				<gx:coord>-71.62893800000001 -16.316963 2581.3</gx:coord>
				<gx:coord>-71.628968 -16.316886 2561.7</gx:coord>
				<gx:coord>-71.62898300000001 -16.316935 2581.7</gx:coord>
				<gx:coord>-71.628986 -16.316985 2577.6</gx:coord>
				<gx:coord>-71.628986 -16.316985 2567.69</gx:coord>
				<gx:coord>-71.628997 -16.316862 2567.34</gx:coord>
				<gx:coord>-71.628946 -16.316981 2567.2</gx:coord>
				<gx:coord>-71.628946 -16.316981 2587.5</gx:coord>
				<gx:coord>-71.62898300000001 -16.31694 2583.5</gx:coord>
				<gx:coord>-71.629031 -16.31691 2586</gx:coord>
				<gx:coord>-71.629043 -16.317018 2586.8</gx:coord>
				<gx:coord>-71.629026 -16.316973 2595</gx:coord>
				<gx:coord>-71.62898800000001 -16.31688 2584.3</gx:coord>
				<gx:coord>-71.629008 -16.316955 2583.8</gx:coord>
				<gx:coord>-71.629131 -16.317118 2588.7</gx:coord>
				<gx:coord>-71.62925300000001 -16.317285 2565.9</gx:coord>
				<gx:coord>-71.629346 -16.317515 2578.5</gx:coord>
				<gx:coord>-71.62928599999999 -16.317421 2577.1</gx:coord>
				<gx:coord>-71.62934300000001 -16.31741 2574.7</gx:coord>
				<gx:coord>-71.629363 -16.317481 2567.7</gx:coord>
				<gx:coord>-71.62936500000001 -16.317453 2578.1</gx:coord>
				<gx:coord>-71.62947 -16.317403 2575.1</gx:coord>
				<gx:coord>-71.629445 -16.317353 2572.7</gx:coord>
				<gx:coord>-71.629425 -16.317383 2579.9</gx:coord>
				<gx:coord>-71.62942099999999 -16.317418 2570.6</gx:coord>
				<gx:coord>-71.62936500000001 -16.317436 2571.4</gx:coord>
				<gx:coord>-71.6293 -16.317493 2573.5</gx:coord>
				<gx:coord>-71.629345 -16.317626 2577.3</gx:coord>
				<gx:coord>-71.629301 -16.317586 2561.7</gx:coord>
				<gx:coord>-71.62933099999999 -16.31753 2568.9</gx:coord>
				<gx:coord>-71.62935299999999 -16.31753 2571.1</gx:coord>
				<gx:coord>-71.62938 -16.317531 2571.7</gx:coord>
				<gx:coord>-71.62937100000001 -16.317485 2578.3</gx:coord>
				<gx:coord>-71.62924599999999 -16.317501 2579.5</gx:coord>
				<gx:coord>-71.62929099999999 -16.317541 2573.2</gx:coord>
				<gx:coord>-71.629333 -16.317535 2569.6</gx:coord>
				<gx:coord>-71.629306 -16.317531 2570.2</gx:coord>
				<gx:coord>-71.629261 -16.317481 2570</gx:coord>
				<gx:coord>-71.62932499999999 -16.317523 2573.2</gx:coord>
				<gx:coord>-71.629345 -16.317556 2578.3</gx:coord>
				<gx:coord>-71.62939799999999 -16.317505 2574.3</gx:coord>
				<gx:coord>-71.629436 -16.317496 2576.3</gx:coord>
				<gx:coord>-71.62953 -16.317508 2580.3</gx:coord>
				<gx:coord>-71.62918500000001 -16.31758 2572.5</gx:coord>
				<gx:coord>-71.629148 -16.317661 2572.2</gx:coord>
				<gx:coord>-71.629323 -16.317591 2572.8</gx:coord>
				<gx:coord>-71.62939 -16.317495 2573.8</gx:coord>
				<gx:coord>-71.62939799999999 -16.317538 2574.2</gx:coord>
				<gx:coord>-71.629323 -16.317508 2575.2</gx:coord>
				<gx:coord>-71.62933 -16.317488 2573.6</gx:coord>
				<gx:coord>-71.629321 -16.31752 2570.8</gx:coord>
				<gx:coord>-71.62929099999999 -16.317576 2573.1</gx:coord>
				<gx:coord>-71.62935 -16.317496 2574.6</gx:coord>
				<gx:coord>-71.62935 -16.317496 2566.73</gx:coord>
				<gx:coord>-71.629222 -16.317461 2567.41</gx:coord>
				<gx:coord>-71.629311 -16.317468 2567.3</gx:coord>
				<gx:coord>-71.629311 -16.317468 2575.7</gx:coord>
				<gx:coord>-71.629283 -16.317486 2576.4</gx:coord>
				<gx:coord>-71.62924099999999 -16.317428 2575.6</gx:coord>
				<gx:coord>-71.62934300000001 -16.31748 2575.5</gx:coord>
				<gx:coord>-71.6293 -16.31761 2576.9</gx:coord>
				<gx:coord>-71.62930299999999 -16.317515 2577.2</gx:coord>
				<gx:coord>-71.62930799999999 -16.31751 2580.4</gx:coord>
				<gx:coord>-71.629428 -16.317373 2583.2</gx:coord>
				<gx:coord>-71.629311 -16.317475 2577.9</gx:coord>
				<gx:coord>-71.629178 -16.317536 2579.5</gx:coord>
				<gx:coord>-71.629026 -16.31766 2576.5</gx:coord>
				<gx:coord>-71.628866 -16.317713 2577.8</gx:coord>
				<gx:coord>-71.62905600000001 -16.317601 2577</gx:coord>
				<gx:coord>-71.6289 -16.317696 2577.5</gx:coord>
				<gx:coord>-71.62905499999999 -16.31756 2577.8</gx:coord>
				<gx:coord>-71.62931500000001 -16.317466 2576.8</gx:coord>
				<gx:coord>-71.62931500000001 -16.317405 2580.6</gx:coord>
				<gx:coord>-71.629293 -16.317436 2588.1</gx:coord>
				<gx:coord>-71.629395 -16.317548 2581.8</gx:coord>
				<gx:coord>-71.629526 -16.317845 2573.6</gx:coord>
				<gx:coord>-71.6294 -16.317871 2575.3</gx:coord>
				<gx:coord>-71.629391 -16.317938 2579.4</gx:coord>
				<gx:coord>-71.62959499999999 -16.317751 2579.8</gx:coord>
				<gx:coord>-71.630005 -16.317498 2581.1</gx:coord>
				<gx:coord>-71.630008 -16.317535 2573.1</gx:coord>
				<gx:coord>-71.63027099999999 -16.317391 2573.3</gx:coord>
				<gx:coord>-71.63008000000001 -16.317593 2573.4</gx:coord>
				<gx:coord>-71.629805 -16.317651 2569.8</gx:coord>
				<gx:coord>-71.62954000000001 -16.31778 2577.2</gx:coord>
				<gx:coord>-71.62944299999999 -16.317825 2577.6</gx:coord>
				<gx:coord>-71.629363 -16.317711 2574.9</gx:coord>
				<gx:coord>-71.629256 -16.317521 2575.3</gx:coord>
				<gx:coord>-71.62938 -16.317443 2575</gx:coord>
				<gx:coord>-71.629386 -16.317548 2575</gx:coord>
				<gx:coord>-71.629358 -16.317565 2574.9</gx:coord>
				<gx:coord>-71.629301 -16.317476 2579.7</gx:coord>
				<gx:coord>-71.62934300000001 -16.317456 2576.1</gx:coord>
				<gx:coord>-71.62940999999999 -16.31752 2577</gx:coord>
				<gx:coord>-71.62942 -16.317495 2582.4</gx:coord>
				<gx:coord>-71.629435 -16.317483 2576</gx:coord>
				<gx:coord>-71.62932600000001 -16.317451 2578.1</gx:coord>
				<gx:coord>-71.629306 -16.31748 2568.6</gx:coord>
				<gx:coord>-71.629046 -16.317566 2575.8</gx:coord>
				<gx:coord>-71.629105 -16.31763 2577.2</gx:coord>
				<gx:coord>-71.629105 -16.31763 2565.53</gx:coord>
				<gx:coord>-71.62925 -16.317377 2567.96</gx:coord>
				<gx:coord>-71.629401 -16.317605 2564.84</gx:coord>
				<gx:coord>-71.629401 -16.317605 2576.6</gx:coord>
				<gx:coord>-71.629471 -16.31747 2580.9</gx:coord>
				<gx:coord>-71.629285 -16.317483 2581.3</gx:coord>
				<gx:coord>-71.629285 -16.317483 2567.2</gx:coord>
				<gx:coord>-71.629436 -16.317563 2564.94</gx:coord>
				<gx:coord>-71.629363 -16.317535 2566.13</gx:coord>
				<gx:coord>-71.629363 -16.317535 2584.6</gx:coord>
				<gx:coord>-71.62940500000001 -16.317528 2583.1</gx:coord>
				<gx:coord>-71.62937100000001 -16.317551 2581.9</gx:coord>
				<gx:coord>-71.629481 -16.317506 2583.9</gx:coord>
				<gx:coord>-71.629611 -16.317668 2580.3</gx:coord>
				<gx:coord>-71.629775 -16.317541 2584.2</gx:coord>
				<gx:coord>-71.629541 -16.31758 2580.2</gx:coord>
				<gx:coord>-71.629541 -16.31758 2563.37</gx:coord>
				<gx:coord>-71.629487 -16.317541 2564.58</gx:coord>
				<gx:coord>-71.629458 -16.317571 2564.56</gx:coord>
				<gx:coord>-71.629458 -16.317571 2575.5</gx:coord>
				<gx:coord>-71.62941600000001 -16.317708 2576.1</gx:coord>
				<gx:coord>-71.62934 -16.317898 2573.1</gx:coord>
				<gx:coord>-71.629381 -16.317886 2575.3</gx:coord>
				<gx:coord>-71.62950600000001 -16.317823 2572.2</gx:coord>
				<gx:coord>-71.62953 -16.317905 2577.2</gx:coord>
				<gx:coord>-71.629586 -16.317853 2573.1</gx:coord>
				<gx:coord>-71.62958500000001 -16.317995 2577.3</gx:coord>
				<gx:coord>-71.62981600000001 -16.318208 2575.7</gx:coord>
				<gx:coord>-71.629876 -16.318485 2583.3</gx:coord>
				<gx:coord>-71.630065 -16.31868 2579.1</gx:coord>
				<gx:coord>-71.62999600000001 -16.318716 2584.1</gx:coord>
				<gx:coord>-71.630071 -16.318698 2578.3</gx:coord>
				<gx:coord>-71.630115 -16.318825 2578.7</gx:coord>
				<gx:coord>-71.630275 -16.318898 2576</gx:coord>
				<gx:coord>-71.630178 -16.318873 2572.4</gx:coord>
				<gx:coord>-71.630213 -16.318876 2572</gx:coord>
				<gx:coord>-71.630116 -16.31881 2573.1</gx:coord>
				<gx:coord>-71.630116 -16.31881 2564.58</gx:coord>
				<gx:coord>-71.630267 -16.318911 2562.1</gx:coord>
				<gx:coord>-71.630143 -16.318865 2563.98</gx:coord>
				<gx:coord>-71.630143 -16.318865 2574.4</gx:coord>
				<gx:coord>-71.63017600000001 -16.318966 2586.2</gx:coord>
				<gx:coord>-71.63017600000001 -16.318966 2562.6</gx:coord>
				<gx:coord>-71.63023699999999 -16.318858 2563.13</gx:coord>
				<gx:coord>-71.630168 -16.318956 2562.78</gx:coord>
				<gx:coord>-71.630168 -16.318956 2576.4</gx:coord>
				<gx:coord>-71.630295 -16.318926 2565.4</gx:coord>
				<gx:coord>-71.630295 -16.318926 2561.52</gx:coord>
				<gx:coord>-71.63007500000001 -16.319006 2562.38</gx:coord>
				<gx:coord>-71.630225 -16.318856 2563.31</gx:coord>
				<gx:coord>-71.630225 -16.318856 2569.1</gx:coord>
				<gx:coord>-71.63025500000001 -16.318865 2573.1</gx:coord>
				<gx:coord>-71.63021000000001 -16.318938 2569.7</gx:coord>
				<gx:coord>-71.63036 -16.319146 2567.4</gx:coord>
				<gx:coord>-71.630501 -16.319201 2569.8</gx:coord>
				<gx:coord>-71.63051299999999 -16.319148 2573.699999999999</gx:coord>
				<gx:coord>-71.63048999999999 -16.319111 2569.8</gx:coord>
				<gx:coord>-71.63035000000001 -16.319241 2569.7</gx:coord>
				<gx:coord>-71.63046 -16.31923 2569.7</gx:coord>
				<gx:coord>-71.63048000000001 -16.319261 2569.8</gx:coord>
				<gx:coord>-71.63051 -16.31934 2572.7</gx:coord>
				<gx:coord>-71.630438 -16.319311 2569.9</gx:coord>
				<gx:coord>-71.630466 -16.319203 2583.1</gx:coord>
				<gx:coord>-71.63033 -16.31928 2570.6</gx:coord>
				<gx:coord>-71.63032 -16.319308 2577.8</gx:coord>
				<gx:coord>-71.630376 -16.31932 2578.3</gx:coord>
				<gx:coord>-71.63040100000001 -16.319291 2576.7</gx:coord>
				<gx:coord>-71.630388 -16.31935 2567.9</gx:coord>
				<gx:coord>-71.630151 -16.319503 2566.9</gx:coord>
				<gx:coord>-71.630168 -16.319485 2565.8</gx:coord>
				<gx:coord>-71.630163 -16.319473 2572.1</gx:coord>
				<gx:coord>-71.630173 -16.319405 2575.2</gx:coord>
				<gx:coord>-71.630173 -16.319405 2556.34</gx:coord>
				<gx:coord>-71.630289 -16.319448 2554.69</gx:coord>
				<gx:coord>-71.630146 -16.319513 2555.47</gx:coord>
				<gx:coord>-71.630146 -16.319513 2566.6</gx:coord>
				<gx:coord>-71.630133 -16.319419 2578.33</gx:coord>
				<gx:coord>-71.630133 -16.319419 2556.27</gx:coord>
				<gx:coord>-71.63011299999999 -16.319453 2556.01</gx:coord>
				<gx:coord>-71.63011299999999 -16.319453 2583.43</gx:coord>
				<gx:coord>-71.630101 -16.319523 2582.6</gx:coord>
				<gx:coord>-71.630128 -16.31949 2580.5</gx:coord>
				<gx:coord>-71.629925 -16.319616 2588.3</gx:coord>
				<gx:coord>-71.630066 -16.319551 2588.1</gx:coord>
				<gx:coord>-71.630171 -16.319441 2588.1</gx:coord>
				<gx:coord>-71.630171 -16.319441 2556.04</gx:coord>
				<gx:coord>-71.630067 -16.319518 2555.56</gx:coord>
				<gx:coord>-71.63023099999999 -16.319513 2554.81</gx:coord>
				<gx:coord>-71.63023099999999 -16.319513 2581.9</gx:coord>
				<gx:coord>-71.63023099999999 -16.319513 2554.81</gx:coord>
				<gx:coord>-71.630084 -16.319475 2555.85</gx:coord>
				<gx:coord>-71.630128 -16.319491 2555.67</gx:coord>
				<gx:coord>-71.630128 -16.319491 2584.7</gx:coord>
				<gx:coord>-71.630205 -16.319405 2584.3</gx:coord>
				<gx:coord>-71.630515 -16.319378 2585.1</gx:coord>
				<gx:coord>-71.63067599999999 -16.319531 2573.8</gx:coord>
				<gx:coord>-71.630635 -16.319481 2573.3</gx:coord>
				<gx:coord>-71.630635 -16.319481 2549.18</gx:coord>
				<gx:coord>-71.630591 -16.319548 2549.35</gx:coord>
				<gx:coord>-71.630591 -16.319548 2549.35</gx:coord>
				<gx:coord>-71.630679 -16.319502 2548.1</gx:coord>
				<gx:coord>-71.630679 -16.319502 2548.1</gx:coord>
				<gx:coord>-71.630582 -16.319494 2550.05</gx:coord>
				<gx:coord>-71.630745 -16.319563 2546.26</gx:coord>
				<gx:coord>-71.630745 -16.319563 2569.7</gx:coord>
				<gx:coord>-71.630736 -16.319698 2570.8</gx:coord>
				<gx:coord>-71.630701 -16.319661 2570.7</gx:coord>
				<gx:coord>-71.630731 -16.319538 2573.4</gx:coord>
				<gx:coord>-71.630571 -16.31951 2554.7</gx:coord>
				<gx:coord>-71.630571 -16.31951 2550.1</gx:coord>
				<gx:coord>-71.630526 -16.319447 2551.53</gx:coord>
				<gx:coord>-71.630505 -16.319428 2552.09</gx:coord>
				<gx:coord>-71.630505 -16.319428 2560.7</gx:coord>
				<gx:coord>-71.630375 -16.319115 2580.9</gx:coord>
				<gx:coord>-71.630413 -16.319113 2580.8</gx:coord>
				<gx:coord>-71.630375 -16.319083 2580.7</gx:coord>
				<gx:coord>-71.630325 -16.319121 2580.8</gx:coord>
				<gx:coord>-71.630303 -16.319123 2580.7</gx:coord>
				<gx:coord>-71.630323 -16.3191 2580.3</gx:coord>
				<gx:coord>-71.63033299999999 -16.319085 2587.8</gx:coord>
				<gx:coord>-71.63027599999999 -16.319083 2588.1</gx:coord>
				<gx:coord>-71.63029 -16.31912 2588</gx:coord>
				<gx:coord>-71.63048999999999 -16.319291 2588.1</gx:coord>
				<gx:coord>-71.630683 -16.319671 2579.1</gx:coord>
				<gx:coord>-71.630698 -16.319641 2571</gx:coord>
				<gx:coord>-71.630601 -16.319755 2554.4</gx:coord>
				<gx:coord>-71.630618 -16.319736 2554.5</gx:coord>
				<gx:coord>-71.63062499999999 -16.319721 2554.4</gx:coord>
			</gx:Track>
		</Placemark>
		<Placemark>
			<visibility>0</visibility>
			<styleUrl>#multiTrack11164</styleUrl>
			<gx:Track>
				<when>2024-11-30T17:01:54.446Z</when>
				<when>2024-11-30T17:02:35.152Z</when>
				<when>2024-11-30T17:03:09.839Z</when>
				<when>2024-11-30T17:03:47.539Z</when>
				<when>2024-11-30T17:04:26.242Z</when>
				<when>2024-11-30T17:05:00.991Z</when>
				<when>2024-11-30T17:05:35.738Z</when>
				<when>2024-11-30T17:06:12.436Z</when>
				<when>2024-11-30T17:06:54.14Z</when>
				<when>2024-11-30T17:07:30.84Z</when>
				<when>2024-11-30T17:08:08.54Z</when>
				<when>2024-11-30T17:08:09.194Z</when>
				<when>2024-11-30T17:08:12.277Z</when>
				<when>2024-11-30T17:08:12.343Z</when>
				<when>2024-11-30T17:09:40Z</when>
				<when>2024-11-30T17:10:19Z</when>
				<when>2024-11-30T17:10:56Z</when>
				<when>2024-11-30T17:11:36Z</when>
				<when>2024-11-30T17:12:15Z</when>
				<when>2024-11-30T17:12:59Z</when>
				<when>2024-11-30T17:13:47Z</when>
				<when>2024-11-30T17:14:53Z</when>
				<when>2024-11-30T17:15:28Z</when>
				<when>2024-11-30T17:16:08Z</when>
				<when>2024-11-30T17:16:43.691Z</when>
				<when>2024-11-30T17:17:29Z</when>
				<when>2024-11-30T17:18:10Z</when>
				<when>2024-11-30T17:18:53Z</when>
				<when>2024-11-30T17:19:34Z</when>
				<when>2024-11-30T17:20:17Z</when>
				<when>2024-11-30T17:20:59Z</when>
				<when>2024-11-30T17:21:40Z</when>
				<when>2024-11-30T17:22:22Z</when>
				<when>2024-11-30T17:23:04Z</when>
				<when>2024-11-30T17:24:05.642Z</when>
				<when>2024-11-30T17:24:06.214Z</when>
				<when>2024-11-30T17:24:52.364Z</when>
				<when>2024-11-30T17:24:57.22Z</when>
				<when>2024-11-30T17:26:39Z</when>
				<when>2024-11-30T17:27:27Z</when>
				<when>2024-11-30T17:28:09Z</when>
				<when>2024-11-30T17:28:44.635Z</when>
				<when>2024-11-30T17:29:20.336Z</when>
				<when>2024-11-30T17:29:56.036Z</when>
				<when>2024-11-30T17:30:31.736Z</when>
				<when>2024-11-30T17:31:22Z</when>
				<when>2024-11-30T18:37:24.53Z</when>
				<when>2024-11-30T18:38:42.81Z</when>
				<when>2024-11-30T18:38:42.81Z</when>
				<when>2024-11-30T18:53:15.904Z</when>
				<when>2024-11-30T18:54:00.904Z</when>
				<when>2024-11-30T18:54:55.904Z</when>
				<when>2024-11-30T18:55:44.904Z</when>
				<when>2024-11-30T18:56:33.904Z</when>
				<when>2024-11-30T18:57:19.904Z</when>
				<when>2024-11-30T18:58:08.904Z</when>
				<when>2024-11-30T18:58:56.904Z</when>
				<when>2024-11-30T18:59:16.619Z</when>
				<when>2024-11-30T18:59:16.619Z</when>
				<when>2024-11-30T19:00:14.286Z</when>
				<when>2024-11-30T19:01:13.066Z</when>
				<when>2024-11-30T19:01:13.066Z</when>
				<when>2024-11-30T19:02:57.904Z</when>
				<when>2024-11-30T19:03:45.904Z</when>
				<when>2024-11-30T19:04:02.199Z</when>
				<when>2024-11-30T19:04:02.52Z</when>
				<when>2024-11-30T19:05:36.034Z</when>
				<when>2024-11-30T19:06:11.721Z</when>
				<when>2024-11-30T19:06:11.721Z</when>
				<when>2024-11-30T19:09:52.904Z</when>
				<when>2024-11-30T19:10:46.904Z</when>
				<when>2024-11-30T19:11:38.904Z</when>
				<when>2024-11-30T19:12:32.904Z</when>
				<when>2024-11-30T19:13:05.421Z</when>
				<when>2024-11-30T19:13:05.421Z</when>
				<when>2024-11-30T19:13:51.44Z</when>
				<when>2024-11-30T19:14:34.436Z</when>
				<when>2024-11-30T19:14:34.436Z</when>
				<when>2024-11-30T19:16:24.904Z</when>
				<gx:coord>-71.63078 -16.319725 2554.3</gx:coord>
				<gx:coord>-71.630743 -16.31962 2568.1</gx:coord>
				<gx:coord>-71.630596 -16.319715 2568.1</gx:coord>
				<gx:coord>-71.630556 -16.319555 2568.1</gx:coord>
				<gx:coord>-71.630385 -16.3198 2566.1</gx:coord>
				<gx:coord>-71.630386 -16.319871 2566.4</gx:coord>
				<gx:coord>-71.630393 -16.319823 2566.2</gx:coord>
				<gx:coord>-71.630478 -16.31977 2566.1</gx:coord>
				<gx:coord>-71.630476 -16.319765 2566.1</gx:coord>
				<gx:coord>-71.63045099999999 -16.319836 2566.1</gx:coord>
				<gx:coord>-71.63038 -16.319821 2566.1</gx:coord>
				<gx:coord>-71.63037199999999 -16.319819 2551.3</gx:coord>
				<gx:coord>-71.630348 -16.319786 2551.77</gx:coord>
				<gx:coord>-71.630348 -16.319786 2565.85</gx:coord>
				<gx:coord>-71.630518 -16.3198 2566.5</gx:coord>
				<gx:coord>-71.630488 -16.319651 2566</gx:coord>
				<gx:coord>-71.630268 -16.319248 2567</gx:coord>
				<gx:coord>-71.630241 -16.31887 2575.2</gx:coord>
				<gx:coord>-71.63004599999999 -16.318571 2565</gx:coord>
				<gx:coord>-71.630055 -16.318608 2566.3</gx:coord>
				<gx:coord>-71.630028 -16.318536 2565.4</gx:coord>
				<gx:coord>-71.62988799999999 -16.318386 2566.6</gx:coord>
				<gx:coord>-71.62982599999999 -16.31837 2574.4</gx:coord>
				<gx:coord>-71.629845 -16.318425 2560.5</gx:coord>
				<gx:coord>-71.629946 -16.318418 2568.7</gx:coord>
				<gx:coord>-71.629836 -16.318345 2525.3</gx:coord>
				<gx:coord>-71.62988799999999 -16.318376 2527.6</gx:coord>
				<gx:coord>-71.62985 -16.318365 2578.4</gx:coord>
				<gx:coord>-71.62984 -16.31841 2535.1</gx:coord>
				<gx:coord>-71.629895 -16.318371 2567.4</gx:coord>
				<gx:coord>-71.62974800000001 -16.31808 2560.3</gx:coord>
				<gx:coord>-71.62951099999999 -16.317766 2559.9</gx:coord>
				<gx:coord>-71.629503 -16.317746 2526.8</gx:coord>
				<gx:coord>-71.629566 -16.317716 2557.5</gx:coord>
				<gx:coord>-71.629471 -16.317728 2576</gx:coord>
				<gx:coord>-71.629471 -16.317728 2562.5</gx:coord>
				<gx:coord>-71.62953400000001 -16.317696 2562.01</gx:coord>
				<gx:coord>-71.629536 -16.317703 2574.6</gx:coord>
				<gx:coord>-71.62945499999999 -16.317748 2565.9</gx:coord>
				<gx:coord>-71.62940500000001 -16.317803 2533.3</gx:coord>
				<gx:coord>-71.62949500000001 -16.317756 2606.1</gx:coord>
				<gx:coord>-71.629408 -16.317588 2603.3</gx:coord>
				<gx:coord>-71.629223 -16.317385 2601.5</gx:coord>
				<gx:coord>-71.62908299999999 -16.317048 2603.4</gx:coord>
				<gx:coord>-71.628905 -16.316761 2604.7</gx:coord>
				<gx:coord>-71.628726 -16.316465 2571.2</gx:coord>
				<gx:coord>-71.628456 -16.316303 2568.5</gx:coord>
				<gx:coord>-71.62845 -16.316304 2562.56</gx:coord>
				<gx:coord>-71.62845 -16.316304 2582.81</gx:coord>
				<gx:coord>-71.628496 -16.316253 2576.8</gx:coord>
				<gx:coord>-71.62886 -16.316078 2576.2</gx:coord>
				<gx:coord>-71.629335 -16.315796 2573.2</gx:coord>
				<gx:coord>-71.629643 -16.315746 2555.6</gx:coord>
				<gx:coord>-71.629531 -16.315735 2568.7</gx:coord>
				<gx:coord>-71.62952 -16.315693 2591.1</gx:coord>
				<gx:coord>-71.629538 -16.31575 2567.7</gx:coord>
				<gx:coord>-71.629553 -16.3157 2567.4</gx:coord>
				<gx:coord>-71.629593 -16.31569 2557.7</gx:coord>
				<gx:coord>-71.629593 -16.31569 2570.68</gx:coord>
				<gx:coord>-71.62949399999999 -16.315756 2570.65</gx:coord>
				<gx:coord>-71.629501 -16.315638 2570.99</gx:coord>
				<gx:coord>-71.629501 -16.315638 2591.5</gx:coord>
				<gx:coord>-71.629608 -16.315693 2578.1</gx:coord>
				<gx:coord>-71.62958 -16.315685 2574.7</gx:coord>
				<gx:coord>-71.629625 -16.315688 2577</gx:coord>
				<gx:coord>-71.629625 -16.315688 2570.65</gx:coord>
				<gx:coord>-71.629428 -16.315849 2570.55</gx:coord>
				<gx:coord>-71.629446 -16.315756 2570.75</gx:coord>
				<gx:coord>-71.629446 -16.315756 2584.6</gx:coord>
				<gx:coord>-71.629396 -16.315793 2583.6</gx:coord>
				<gx:coord>-71.629411 -16.315801 2595.9</gx:coord>
				<gx:coord>-71.629503 -16.315828 2593</gx:coord>
				<gx:coord>-71.62961799999999 -16.315743 2585.4</gx:coord>
				<gx:coord>-71.629473 -16.31582 2593.1</gx:coord>
				<gx:coord>-71.629473 -16.31582 2570.52</gx:coord>
				<gx:coord>-71.62969699999999 -16.315754 2570.49</gx:coord>
				<gx:coord>-71.629486 -16.315698 2570.88</gx:coord>
				<gx:coord>-71.629486 -16.315698 2577.6</gx:coord>
				<gx:coord>-71.62957299999999 -16.31558 2587.6</gx:coord>
			</gx:Track>
		</Placemark>
	</Folder>
</Document>
</kml>
